{"type":"FeatureCollection","metadata":{"generated":1788057591000,"url":"https://earthquake.usgs.gov/fdsnws/event/1/query?format=geojson&starttime=2025-10-11T00%3A00%3A00&endtime=2026-08-28T00%3A00%3A00&minmagnitude=4.0&minlatitude=45.0&maxlatitude=51.0&minlongitude=-128.0&maxlongitude=-121.5&orderby=time-asc&limit=20000","title":"USGS Earthquakes","status":200,"api":"2.7.0","limit":20000,"offset":1},"features":[{"type":"Feature","properties":{"mag":4.1,"place":"104 km N of Campbell River, Canada","time":1785476758524,"updated":1787814999574,"tz":null,"url":"https://earthquake.usgs.gov/earthquakes/eventpage/us6000th5m","detail":"https://earthquake.usgs.gov/fdsnws/event/1/query?eventid=us6000th5m&format=geojson","felt":3,"cdi":2,"mmi":3.715,"alert":"green","status":"reviewed","tsunami":0,"sig":259,"net":"us","code":"6000th5m","ids":",us6000th5m,","sources":",us,","types":",dyfi,losspager,origin,phase-data,shakemap,","nst":91,"dmin":1.751,"rms":1.02,"gap":79,"magType":"mb","type":"earthquake","title":"M 4.1 - 104 km N of Campbell River, Canada"},"geometry":{"type":"Point","coordinates":[-125.4169,50.9494,10]},"id":"us6000th5m"}]}