{"type":"FeatureCollection","metadata":{"generated":1788057593000,"url":"https://earthquake.usgs.gov/fdsnws/event/1/query?format=geojson&starttime=2025-10-11T00%3A00%3A00&endtime=2026-08-28T00%3A00%3A00&minmagnitude=4.0&minlatitude=35.3&maxlatitude=36.0&minlongitude=-117.9&maxlongitude=-117.45&orderby=time-asc&limit=20000","title":"USGS Earthquakes","status":200,"api":"2.7.0","limit":20000,"offset":1},"features":[{"type":"Feature","properties":{"mag":4.31762677888687,"place":"18 km WSW of Johannesburg, CA","time":1783960855170,"updated":1787590269595,"tz":null,"url":"https://earthquake.usgs.gov/earthquakes/eventpage/ci41292687","detail":"https://earthquake.usgs.gov/fdsnws/event/1/query?eventid=ci41292687&format=geojson","felt":1090,"cdi":3.8,"mmi":4.501,"alert":"green","status":"reviewed","tsunami":0,"sig":667,"net":"ci","code":"41292687","ids":",ew1783960860,ci41292687,us7000t02g,","sources":",ew,ci,us,","types":",dyfi,event-sequence,focal-mechanism,losspager,moment-tensor,nearby-cities,oaf,origin,phase-data,scitech-link,shake-alert,shakemap,","nst":81,"dmin":0.05134,"rms":0.15,"gap":22,"magType":"mw","type":"earthquake","title":"M 4.3 - 18 km WSW of Johannesburg, CA"},"geometry":{"type":"Point","coordinates":[-117.814833333333,35.3121666666667,7.55]},"id":"ci41292687"}]}