{"type":"FeatureCollection","metadata":{"generated":1788057594000,"url":"https://earthquake.usgs.gov/fdsnws/event/1/query?format=geojson&starttime=2025-10-11T00%3A00%3A00&endtime=2026-08-28T00%3A00%3A00&minmagnitude=4.0&minlatitude=33.8&maxlatitude=36.0&minlongitude=-118.5&maxlongitude=-116.0&orderby=time-asc&limit=20000","title":"USGS Earthquakes","status":200,"api":"2.7.0","limit":20000,"offset":1},"features":[{"type":"Feature","properties":{"mag":4.92255584370382,"place":"20 km NNE of Indio, CA","time":1768874174390,"updated":1787623587646,"tz":null,"url":"https://earthquake.usgs.gov/earthquakes/eventpage/ci41162719","detail":"https://earthquake.usgs.gov/fdsnws/event/1/query?eventid=ci41162719&format=geojson","felt":8212,"cdi":6.3,"mmi":5.336,"alert":"green","status":"reviewed","tsunami":0,"sig":1003,"net":"ci","code":"41162719","ids":",ew1768874180,ci41162719,us7000rqp7,usauto7000rqp7,","sources":",ew,ci,us,usauto,","types":",dyfi,event-sequence,focal-mechanism,ground-failure,internal-moment-tensor,losspager,moment-tensor,nearby-cities,oaf,origin,phase-data,scitech-link,shake-alert,shakemap,","nst":84,"dmin":0.03155,"rms":0.17,"gap":39,"magType":"mw","type":"earthquake","title":"M 4.9 - 20 km NNE of Indio, CA"},"geometry":{"type":"Point","coordinates":[-116.169333333333,33.894,3.09]},"id":"ci41162719"},
{"type":"Feature","properties":{"mag":4.25596203401461,"place":"20 km NNE of Indio, CA","time":1768984207650,"updated":1783021660666,"tz":null,"url":"https://earthquake.usgs.gov/earthquakes/eventpage/ci41166223","detail":"https://earthquake.usgs.gov/fdsnws/event/1/query?eventid=ci41166223&format=geojson","felt":1516,"cdi":3.7,"mmi":4.42,"alert":"green","status":"reviewed","tsunami":1,"sig":649,"net":"ci","code":"41166223","ids":",ew1768984210,ci41166223,at00t97gy7,us7000rr28,","sources":",ew,ci,at,us,","types":",dyfi,focal-mechanism,impact-link,losspager,moment-tensor,nearby-cities,origin,phase-data,scitech-link,shake-alert,shakemap,","nst":82,"dmin":0.02536,"rms":0.16,"gap":40,"magType":"mw","type":"earthquake","title":"M 4.3 - 20 km NNE of Indio, CA"},"geometry":{"type":"Point","coordinates":[-116.170166666667,33.9001666666667,3.67]},"id":"ci41166223"},
{"type":"Feature","properties":{"mag":4.10931310269304,"place":"26 km WNW of Ludlow, CA","time":1774649594860,"updated":1787955798609,"tz":null,"url":"https://earthquake.usgs.gov/earthquakes/eventpage/ci41426656","detail":"https://earthquake.usgs.gov/fdsnws/event/1/query?eventid=ci41426656&format=geojson","felt":58,"cdi":3.4,"mmi":4.703,"alert":"green","status":"reviewed","tsunami":0,"sig":280,"net":"ci","code":"41426656","ids":",ew1774649600,ci41426656,us7000s89k,","sources":",ew,ci,us,","types":",associate,dyfi,event-sequence,focal-mechanism,losspager,moment-tensor,nearby-cities,oaf,origin,phase-data,scitech-link,shake-alert,shakemap,","nst":50,"dmin":0.06279,"rms":0.15,"gap":38,"magType":"mw","type":"earthquake","title":"M 4.1 - 26 km WNW of Ludlow, CA"},"geometry":{"type":"Point","coordinates":[-116.4105,34.8386666666667,1.43]},"id":"ci41426656"},
{"type":"Feature","properties":{"mag":4.05890859090661,"place":"18 km WSW of Johannesburg, CA","time":1780353241120,"updated":1787611452070,"tz":null,"url":"https://earthquake.usgs.gov/earthquakes/eventpage/ci41478192","detail":"https://earthquake.usgs.gov/fdsnws/event/1/query?eventid=ci41478192&format=geojson","felt":46,"cdi":3.8,"mmi":4.056,"alert":"green","status":"reviewed","tsunami":0,"sig":271,"net":"ci","code":"41478192","ids":",ci41478192,us7000spxu,ew1780353240,","sources":",ci,us,ew,","types":",dyfi,event-sequence,focal-mechanism,losspager,moment-tensor,nearby-cities,origin,phase-data,scitech-link,shake-alert,shakemap,","nst":84,"dmin":0.04312,"rms":0.15,"gap":21,"magType":"mw","type":"earthquake","title":"M 4.1 - 18 km WSW of Johannesburg, CA"},"geometry":{"type":"Point","coordinates":[-117.809833333333,35.299,7.64]},"id":"ci41478192"},
{"type":"Feature","properties":{"mag":4.31762677888687,"place":"18 km WSW of Johannesburg, CA","time":1783960855170,"updated":1787590269595,"tz":null,"url":"https://earthquake.usgs.gov/earthquakes/eventpage/ci41292687","detail":"https://earthquake.usgs.gov/fdsnws/event/1/query?eventid=ci41292687&format=geojson","felt":1090,"cdi":3.8,"mmi":4.501,"alert":"green","status":"reviewed","tsunami":0,"sig":667,"net":"ci","code":"41292687","ids":",ew1783960860,ci41292687,us7000t02g,","sources":",ew,ci,us,","types":",dyfi,event-sequence,focal-mechanism,losspager,moment-tensor,nearby-cities,oaf,origin,phase-data,scitech-link,shake-alert,shakemap,","nst":81,"dmin":0.05134,"rms":0.15,"gap":22,"magType":"mw","type":"earthquake","title":"M 4.3 - 18 km WSW of Johannesburg, CA"},"geometry":{"type":"Point","coordinates":[-117.814833333333,35.3121666666667,7.55]},"id":"ci41292687"}],"bbox":[-117.81483333333,33.894,1.43,-116.16933333333,35.312166666667,7.64]}