{"type":"FeatureCollection","metadata":{"generated":1788057593000,"url":"https://earthquake.usgs.gov/fdsnws/event/1/query?format=geojson&starttime=2025-10-11T00%3A00%3A00&endtime=2026-08-28T00%3A00%3A00&minmagnitude=4.0&minlatitude=32.8&maxlatitude=34.0&minlongitude=-116.8&maxlongitude=-115.2&orderby=time-asc&limit=20000","title":"USGS Earthquakes","status":200,"api":"2.7.0","limit":20000,"offset":1},"features":[{"type":"Feature","properties":{"mag":4.92255584370382,"place":"20 km NNE of Indio, CA","time":1768874174390,"updated":1787623587646,"tz":null,"url":"https://earthquake.usgs.gov/earthquakes/eventpage/ci41162719","detail":"https://earthquake.usgs.gov/fdsnws/event/1/query?eventid=ci41162719&format=geojson","felt":8212,"cdi":6.3,"mmi":5.336,"alert":"green","status":"reviewed","tsunami":0,"sig":1003,"net":"ci","code":"41162719","ids":",ew1768874180,ci41162719,us7000rqp7,usauto7000rqp7,","sources":",ew,ci,us,usauto,","types":",dyfi,event-sequence,focal-mechanism,ground-failure,internal-moment-tensor,losspager,moment-tensor,nearby-cities,oaf,origin,phase-data,scitech-link,shake-alert,shakemap,","nst":84,"dmin":0.03155,"rms":0.17,"gap":39,"magType":"mw","type":"earthquake","title":"M 4.9 - 20 km NNE of Indio, CA"},"geometry":{"type":"Point","coordinates":[-116.169333333333,33.894,3.09]},"id":"ci41162719"},
{"type":"Feature","properties":{"mag":4.25596203401461,"place":"20 km NNE of Indio, CA","time":1768984207650,"updated":1783021660666,"tz":null,"url":"https://earthquake.usgs.gov/earthquakes/eventpage/ci41166223","detail":"https://earthquake.usgs.gov/fdsnws/event/1/query?eventid=ci41166223&format=geojson","felt":1516,"cdi":3.7,"mmi":4.42,"alert":"green","status":"reviewed","tsunami":1,"sig":649,"net":"ci","code":"41166223","ids":",ew1768984210,ci41166223,at00t97gy7,us7000rr28,","sources":",ew,ci,at,us,","types":",dyfi,focal-mechanism,impact-link,losspager,moment-tensor,nearby-cities,origin,phase-data,scitech-link,shake-alert,shakemap,","nst":82,"dmin":0.02536,"rms":0.16,"gap":40,"magType":"mw","type":"earthquake","title":"M 4.3 - 20 km NNE of Indio, CA"},"geometry":{"type":"Point","coordinates":[-116.170166666667,33.9001666666667,3.67]},"id":"ci41166223"},
{"type":"Feature","properties":{"mag":4.37822982052754,"place":"3 km WSW of Brawley, CA","time":1778379728170,"updated":1784398999040,"tz":null,"url":"https://earthquake.usgs.gov/earthquakes/eventpage/ci41460112","detail":"https://earthquake.usgs.gov/fdsnws/event/1/query?eventid=ci41460112&format=geojson","felt":95,"cdi":5.2,"mmi":5.128,"alert":"green","status":"reviewed","tsunami":0,"sig":344,"net":"ci","code":"41460112","ids":",ew1778379730,ci41460112,us6000swji,","sources":",ew,ci,us,","types":",dyfi,focal-mechanism,losspager,moment-tensor,nearby-cities,origin,phase-data,scitech-link,shake-alert,shakemap,","nst":64,"dmin":0.06769,"rms":0.26,"gap":39,"magType":"mw","type":"earthquake","title":"M 4.4 - 3 km WSW of Brawley, CA"},"geometry":{"type":"Point","coordinates":[-115.559166666667,32.9693333333333,15.05]},"id":"ci41460112"},
{"type":"Feature","properties":{"mag":4.48112858848809,"place":"2 km W of Brawley, CA","time":1778384369810,"updated":1784398999040,"tz":null,"url":"https://earthquake.usgs.gov/earthquakes/eventpage/ci41460512","detail":"https://earthquake.usgs.gov/fdsnws/event/1/query?eventid=ci41460512&format=geojson","felt":165,"cdi":5.5,"mmi":5.188,"alert":"green","status":"reviewed","tsunami":0,"sig":400,"net":"ci","code":"41460512","ids":",ew1778384370,ci41460512,us6000swkm,","sources":",ew,ci,us,","types":",dyfi,focal-mechanism,losspager,moment-tensor,nearby-cities,origin,phase-data,scitech-link,shake-alert,shakemap,","nst":67,"dmin":0.0767,"rms":0.27,"gap":39,"magType":"mw","type":"earthquake","title":"M 4.5 - 2 km W of Brawley, CA"},"geometry":{"type":"Point","coordinates":[-115.549833333333,32.9778333333333,15.9]},"id":"ci41460512"},
{"type":"Feature","properties":{"mag":4.66486919122063,"place":"3 km WSW of Brawley, CA","time":1778397021250,"updated":1787469639251,"tz":null,"url":"https://earthquake.usgs.gov/earthquakes/eventpage/ci41461608","detail":"https://earthquake.usgs.gov/fdsnws/event/1/query?eventid=ci41461608&format=geojson","felt":203,"cdi":5.6,"mmi":5.884,"alert":"green","status":"reviewed","tsunami":0,"sig":600,"net":"ci","code":"41461608","ids":",ew1778397020,ci41461608,us6000swmv,attet7x8,","sources":",ew,ci,us,at,","types":",dyfi,event-sequence,focal-mechanism,general-text,ground-failure,losspager,moment-tensor,nearby-cities,oaf,origin,phase-data,scitech-link,shake-alert,shakemap,significance,","nst":66,"dmin":0.06968,"rms":0.25,"gap":39,"magType":"mw","type":"earthquake","title":"M 4.7 - 3 km WSW of Brawley, CA"},"geometry":{"type":"Point","coordinates":[-115.562333333333,32.9713333333333,14.53]},"id":"ci41461608"}],"bbox":[-116.17016666667,32.969333333333,3.09,-115.54983333333,33.900166666667,15.9]}