{"type":"FeatureCollection","metadata":{"generated":1788057592000,"url":"https://earthquake.usgs.gov/fdsnws/event/1/query?format=geojson&starttime=2025-10-11T00%3A00%3A00&endtime=2026-08-28T00%3A00%3A00&minmagnitude=4.0&minlatitude=37.0&maxlatitude=38.5&minlongitude=-123.0&maxlongitude=-121.2&orderby=time-asc&limit=20000","title":"USGS Earthquakes","status":200,"api":"2.7.0","limit":20000,"offset":1},"features":[{"type":"Feature","properties":{"mag":4.03,"place":"6 km W of Glen Ellen, CA","time":1765755043210,"updated":1787528445249,"tz":null,"url":"https://earthquake.usgs.gov/earthquakes/eventpage/nc75279971","detail":"https://earthquake.usgs.gov/fdsnws/event/1/query?eventid=nc75279971&format=geojson","felt":1174,"cdi":4.9,"mmi":5.238,"alert":"green","status":"reviewed","tsunami":1,"sig":740,"net":"nc","code":"75279971","ids":",ew1765755040,at00t7a9b8,us6000ruvf,nc75279971,","sources":",ew,at,us,nc,","types":",dyfi,event-sequence,focal-mechanism,impact-link,losspager,moment-tensor,nearby-cities,oaf,origin,phase-data,scitech-link,shake-alert,shakemap,","nst":181,"dmin":null,"rms":0.16,"gap":16,"magType":"mw","type":"earthquake","title":"M 4.0 - 6 km W of Glen Ellen, CA"},"geometry":{"type":"Point","coordinates":[-122.604,38.373,3.13]},"id":"nc75279971"},
{"type":"Feature","properties":{"mag":4.18,"place":"4 km SE of San Ramon, CA","time":1770044473640,"updated":1787584282398,"tz":null,"url":"https://earthquake.usgs.gov/earthquakes/eventpage/nc75305736","detail":"https://earthquake.usgs.gov/fdsnws/event/1/query?eventid=nc75305736&format=geojson","felt":5032,"cdi":4.6,"mmi":5.161,"alert":"green","status":"reviewed","tsunami":1,"sig":729,"net":"nc","code":"75305736","ids":",ew1770044470,nc75305736,at00t9u722,us6000s5ye,","sources":",ew,nc,at,us,","types":",dyfi,event-sequence,focal-mechanism,impact-link,losspager,moment-tensor,nearby-cities,oaf,origin,phase-data,scitech-link,shake-alert,shakemap,","nst":215,"dmin":0.03179,"rms":0.22,"gap":16,"magType":"mw","type":"earthquake","title":"M 4.2 - 4 km SE of San Ramon, CA"},"geometry":{"type":"Point","coordinates":[-121.943666666667,37.7563333333333,9.56]},"id":"nc75305736"},
{"type":"Feature","properties":{"mag":4.59,"place":"1 km SE of Boulder Creek, CA","time":1775119285520,"updated":1787820694758,"tz":null,"url":"https://earthquake.usgs.gov/earthquakes/eventpage/nc75337442","detail":"https://earthquake.usgs.gov/fdsnws/event/1/query?eventid=nc75337442&format=geojson","felt":33078,"cdi":5.8,"mmi":5.674,"alert":"green","status":"reviewed","tsunami":0,"sig":904,"net":"nc","code":"75337442","ids":",ew1775119290,nc75337442,us6000slys,","sources":",ew,nc,us,","types":",dyfi,event-sequence,focal-mechanism,ground-failure,losspager,moment-tensor,nearby-cities,oaf,origin,phase-data,scitech-link,shake-alert,shakemap,","nst":173,"dmin":0.03446,"rms":0.19,"gap":67,"magType":"mw","type":"earthquake","title":"M 4.6 - 1 km SE of Boulder Creek, CA"},"geometry":{"type":"Point","coordinates":[-122.1125,37.1156666666667,10.43]},"id":"nc75337442"}],"bbox":[-122.604,37.115666666667,3.13,-121.94366666667,38.373,10.43]}