{"type":"FeatureCollection","metadata":{"generated":1788057592000,"url":"https://earthquake.usgs.gov/fdsnws/event/1/query?format=geojson&starttime=2025-10-11T00%3A00%3A00&endtime=2026-08-28T00%3A00%3A00&minmagnitude=4.0&minlatitude=15.5&maxlatitude=18.5&minlongitude=-101.0&maxlongitude=-97.0&orderby=time-asc&limit=20000","title":"USGS Earthquakes","status":200,"api":"2.7.0","limit":20000,"offset":1},"features":[{"type":"Feature","properties":{"mag":4.5,"place":"20 km SSW of Barra de Tecoanapa, Mexico","time":1760708124770,"updated":1767973119040,"tz":null,"url":"https://earthquake.usgs.gov/earthquakes/eventpage/us6000rhsb","detail":"https://earthquake.usgs.gov/fdsnws/event/1/query?eventid=us6000rhsb&format=geojson","felt":null,"cdi":null,"mmi":null,"alert":null,"status":"reviewed","tsunami":0,"sig":312,"net":"us","code":"6000rhsb","ids":",us6000rhsb,","sources":",us,","types":",origin,phase-data,","nst":100,"dmin":0.677,"rms":0.67,"gap":163,"magType":"mb","type":"earthquake","title":"M 4.5 - 20 km SSW of Barra de Tecoanapa, Mexico"},"geometry":{"type":"Point","coordinates":[-98.8313,16.3541,10]},"id":"us6000rhsb"},
{"type":"Feature","properties":{"mag":4.3,"place":"40 km SSW of Río Grande, Mexico","time":1762837779958,"updated":1769724336040,"tz":null,"url":"https://earthquake.usgs.gov/earthquakes/eventpage/us7000rfiy","detail":"https://earthquake.usgs.gov/fdsnws/event/1/query?eventid=us7000rfiy&format=geojson","felt":null,"cdi":null,"mmi":null,"alert":null,"status":"reviewed","tsunami":0,"sig":284,"net":"us","code":"7000rfiy","ids":",us7000rfiy,","sources":",us,","types":",origin,phase-data,","nst":52,"dmin":0.495,"rms":0.95,"gap":222,"magType":"mb","type":"earthquake","title":"M 4.3 - 40 km SSW of Río Grande, Mexico"},"geometry":{"type":"Point","coordinates":[-97.5171,15.6519,10]},"id":"us7000rfiy"},
{"type":"Feature","properties":{"mag":4.6,"place":"3 km NW of Rancho Viejo, Mexico","time":1763539989788,"updated":1771603650040,"tz":null,"url":"https://earthquake.usgs.gov/earthquakes/eventpage/us6000rp3p","detail":"https://earthquake.usgs.gov/fdsnws/event/1/query?eventid=us6000rp3p&format=geojson","felt":3,"cdi":3.4,"mmi":null,"alert":null,"status":"reviewed","tsunami":0,"sig":327,"net":"us","code":"6000rp3p","ids":",us6000rp3p,","sources":",us,","types":",dyfi,origin,phase-data,","nst":92,"dmin":0.655,"rms":1.31,"gap":138,"magType":"mb","type":"earthquake","title":"M 4.6 - 3 km NW of Rancho Viejo, Mexico"},"geometry":{"type":"Point","coordinates":[-97.9939,16.3594,32.37]},"id":"us6000rp3p"},
{"type":"Feature","properties":{"mag":6.5,"place":"0 km W of San Marcos, Mexico","time":1767362295741,"updated":1775599911040,"tz":null,"url":"https://earthquake.usgs.gov/earthquakes/eventpage/us7000rm3k","detail":"https://earthquake.usgs.gov/fdsnws/event/1/query?eventid=us7000rm3k&format=geojson","felt":528,"cdi":7,"mmi":6.979,"alert":"yellow","status":"reviewed","tsunami":1,"sig":1020,"net":"us","code":"7000rm3k","ids":",us7000rm3k,pt26002000,at00t88ph5,usauto7000rm3k,","sources":",us,pt,at,usauto,","types":",dyfi,ground-failure,impact-link,impact-text,internal-moment-tensor,internal-origin,losspager,moment-tensor,origin,phase-data,shakemap,","nst":122,"dmin":1.097,"rms":1.11,"gap":44,"magType":"mww","type":"earthquake","title":"M 6.5 - 0 km W of San Marcos, Mexico"},"geometry":{"type":"Point","coordinates":[-99.3939,16.798,18]},"id":"us7000rm3k"},
{"type":"Feature","properties":{"mag":4.3,"place":"7 km NE of El Cortés, Mexico","time":1767363452384,"updated":1775599920040,"tz":null,"url":"https://earthquake.usgs.gov/earthquakes/eventpage/us7000rrer","detail":"https://earthquake.usgs.gov/fdsnws/event/1/query?eventid=us7000rrer&format=geojson","felt":1,"cdi":0,"mmi":null,"alert":null,"status":"reviewed","tsunami":0,"sig":284,"net":"us","code":"7000rrer","ids":",us7000rrer,","sources":",us,","types":",dyfi,origin,phase-data,","nst":88,"dmin":0.259,"rms":1.02,"gap":209,"magType":"mb","type":"earthquake","title":"M 4.3 - 7 km NE of El Cortés, Mexico"},"geometry":{"type":"Point","coordinates":[-99.4636,16.8335,10]},"id":"us7000rrer"},
{"type":"Feature","properties":{"mag":4.3,"place":"10 km SSW of San Marcos, Mexico","time":1767368053352,"updated":1775599911040,"tz":null,"url":"https://earthquake.usgs.gov/earthquakes/eventpage/us7000rm3y","detail":"https://earthquake.usgs.gov/fdsnws/event/1/query?eventid=us7000rm3y&format=geojson","felt":1,"cdi":2,"mmi":null,"alert":null,"status":"reviewed","tsunami":0,"sig":285,"net":"us","code":"7000rm3y","ids":",us7000rm3y,","sources":",us,","types":",dyfi,origin,phase-data,","nst":26,"dmin":0.289,"rms":0.68,"gap":197,"magType":"mb","type":"earthquake","title":"M 4.3 - 10 km SSW of San Marcos, Mexico"},"geometry":{"type":"Point","coordinates":[-99.4321,16.712,10]},"id":"us7000rm3y"},
{"type":"Feature","properties":{"mag":4.6,"place":"8 km SE of San Marcos, Mexico","time":1767368224206,"updated":1775599911040,"tz":null,"url":"https://earthquake.usgs.gov/earthquakes/eventpage/us7000rm3u","detail":"https://earthquake.usgs.gov/fdsnws/event/1/query?eventid=us7000rm3u&format=geojson","felt":4,"cdi":2.2,"mmi":null,"alert":null,"status":"reviewed","tsunami":0,"sig":326,"net":"us","code":"7000rm3u","ids":",us7000rm3u,","sources":",us,","types":",dyfi,origin,phase-data,","nst":57,"dmin":0.411,"rms":0.92,"gap":184,"magType":"mb","type":"earthquake","title":"M 4.6 - 8 km SE of San Marcos, Mexico"},"geometry":{"type":"Point","coordinates":[-99.3249,16.7519,10]},"id":"us7000rm3u"},
{"type":"Feature","properties":{"mag":4.5,"place":"2 km N of San Marcos, Mexico","time":1767373234044,"updated":1775599911040,"tz":null,"url":"https://earthquake.usgs.gov/earthquakes/eventpage/us7000rm45","detail":"https://earthquake.usgs.gov/fdsnws/event/1/query?eventid=us7000rm45&format=geojson","felt":4,"cdi":2,"mmi":null,"alert":null,"status":"reviewed","tsunami":0,"sig":312,"net":"us","code":"7000rm45","ids":",us7000rm45,","sources":",us,","types":",dyfi,origin,phase-data,","nst":151,"dmin":1.075,"rms":0.64,"gap":173,"magType":"mb","type":"earthquake","title":"M 4.5 - 2 km N of San Marcos, Mexico"},"geometry":{"type":"Point","coordinates":[-99.387,16.823,10]},"id":"us7000rm45"},
{"type":"Feature","properties":{"mag":4,"place":"9 km S of Llano de la Puerta, Mexico","time":1767415342059,"updated":1775599907040,"tz":null,"url":"https://earthquake.usgs.gov/earthquakes/eventpage/us6000s6ps","detail":"https://earthquake.usgs.gov/fdsnws/event/1/query?eventid=us6000s6ps&format=geojson","felt":null,"cdi":null,"mmi":null,"alert":null,"status":"reviewed","tsunami":0,"sig":246,"net":"us","code":"6000s6ps","ids":",us6000s6ps,","sources":",us,","types":",origin,phase-data,","nst":31,"dmin":0.38,"rms":0.94,"gap":193,"magType":"mb","type":"earthquake","title":"M 4.0 - 9 km S of Llano de la Puerta, Mexico"},"geometry":{"type":"Point","coordinates":[-99.5234,16.6586,10]},"id":"us6000s6ps"},
{"type":"Feature","properties":{"mag":4,"place":"7 km SE of San Andrés Playa Encantada (El Podrido), Mexico","time":1767493337175,"updated":1775599907040,"tz":null,"url":"https://earthquake.usgs.gov/earthquakes/eventpage/us6000s6pt","detail":"https://earthquake.usgs.gov/fdsnws/event/1/query?eventid=us6000s6pt&format=geojson","felt":null,"cdi":null,"mmi":null,"alert":null,"status":"reviewed","tsunami":0,"sig":246,"net":"us","code":"6000s6pt","ids":",us6000s6pt,","sources":",us,","types":",origin,phase-data,","nst":32,"dmin":0.349,"rms":1.24,"gap":147,"magType":"mb","type":"earthquake","title":"M 4.0 - 7 km SE of San Andrés Playa Encantada (El Podrido), Mexico"},"geometry":{"type":"Point","coordinates":[-99.5794,16.6496,10]},"id":"us6000s6pt"},
{"type":"Feature","properties":{"mag":4.2,"place":"4 km ESE of Campanario, Mexico","time":1767534860041,"updated":1775599907040,"tz":null,"url":"https://earthquake.usgs.gov/earthquakes/eventpage/us6000s6pu","detail":"https://earthquake.usgs.gov/fdsnws/event/1/query?eventid=us6000s6pu&format=geojson","felt":null,"cdi":null,"mmi":null,"alert":null,"status":"reviewed","tsunami":0,"sig":271,"net":"us","code":"6000s6pu","ids":",us6000s6pu,","sources":",us,","types":",origin,phase-data,","nst":19,"dmin":0.291,"rms":0.96,"gap":187,"magType":"mb","type":"earthquake","title":"M 4.2 - 4 km ESE of Campanario, Mexico"},"geometry":{"type":"Point","coordinates":[-99.5313,16.8188,10]},"id":"us6000s6pu"},
{"type":"Feature","properties":{"mag":4.4,"place":"22 km S of Barra de Tecoanapa, Mexico","time":1767602309148,"updated":1775599915040,"tz":null,"url":"https://earthquake.usgs.gov/earthquakes/eventpage/us7000rmiq","detail":"https://earthquake.usgs.gov/fdsnws/event/1/query?eventid=us7000rmiq&format=geojson","felt":null,"cdi":null,"mmi":null,"alert":null,"status":"reviewed","tsunami":0,"sig":298,"net":"us","code":"7000rmiq","ids":",us7000rmiq,","sources":",us,","types":",origin,phase-data,","nst":92,"dmin":0.561,"rms":0.55,"gap":159,"magType":"mb","type":"earthquake","title":"M 4.4 - 22 km S of Barra de Tecoanapa, Mexico"},"geometry":{"type":"Point","coordinates":[-98.7515,16.3075,14.349]},"id":"us7000rmiq"},
{"type":"Feature","properties":{"mag":4.9,"place":"5 km WSW of San Marcos, Mexico","time":1768545774882,"updated":1776523614040,"tz":null,"url":"https://earthquake.usgs.gov/earthquakes/eventpage/us7000rq15","detail":"https://earthquake.usgs.gov/fdsnws/event/1/query?eventid=us7000rq15&format=geojson","felt":37,"cdi":4.8,"mmi":null,"alert":null,"status":"reviewed","tsunami":0,"sig":387,"net":"us","code":"7000rq15","ids":",us7000rq15,","sources":",us,","types":",dyfi,impact-text,origin,phase-data,","nst":79,"dmin":1.134,"rms":0.74,"gap":162,"magType":"mb","type":"earthquake","title":"M 4.9 - 5 km WSW of San Marcos, Mexico"},"geometry":{"type":"Point","coordinates":[-99.4356,16.7862,10]},"id":"us7000rq15"},
{"type":"Feature","properties":{"mag":4.8,"place":"3 km SSW of Zirándaro de los Chávez, Mexico","time":1769011345682,"updated":1776523662040,"tz":null,"url":"https://earthquake.usgs.gov/earthquakes/eventpage/us7000rr4h","detail":"https://earthquake.usgs.gov/fdsnws/event/1/query?eventid=us7000rr4h&format=geojson","felt":2,"cdi":2,"mmi":null,"alert":null,"status":"reviewed","tsunami":0,"sig":355,"net":"us","code":"7000rr4h","ids":",us7000rr4h,","sources":",us,","types":",dyfi,origin,phase-data,","nst":79,"dmin":1.22,"rms":0.9,"gap":162,"magType":"mb","type":"earthquake","title":"M 4.8 - 3 km SSW of Zirándaro de los Chávez, Mexico"},"geometry":{"type":"Point","coordinates":[-100.9877,18.4417,66.693]},"id":"us7000rr4h"},
{"type":"Feature","properties":{"mag":4.3,"place":"2 km N of Apantla, Mexico","time":1769292110638,"updated":1776788883040,"tz":null,"url":"https://earthquake.usgs.gov/earthquakes/eventpage/us7000rrvb","detail":"https://earthquake.usgs.gov/fdsnws/event/1/query?eventid=us7000rrvb&format=geojson","felt":1,"cdi":1,"mmi":null,"alert":null,"status":"reviewed","tsunami":0,"sig":285,"net":"us","code":"7000rrvb","ids":",us7000rrvb,","sources":",us,","types":",dyfi,origin,phase-data,","nst":53,"dmin":0.33,"rms":0.82,"gap":83,"magType":"mb","type":"earthquake","title":"M 4.3 - 2 km N of Apantla, Mexico"},"geometry":{"type":"Point","coordinates":[-99.1707,17.0662,37.862]},"id":"us7000rrvb"},
{"type":"Feature","properties":{"mag":4.1,"place":"9 km S of San Marcos, Mexico","time":1770702274285,"updated":1777646156040,"tz":null,"url":"https://earthquake.usgs.gov/earthquakes/eventpage/us7000s21r","detail":"https://earthquake.usgs.gov/fdsnws/event/1/query?eventid=us7000s21r&format=geojson","felt":null,"cdi":null,"mmi":null,"alert":null,"status":"reviewed","tsunami":0,"sig":259,"net":"us","code":"7000s21r","ids":",us7000s21r,","sources":",us,","types":",origin,phase-data,","nst":79,"dmin":0.244,"rms":0.96,"gap":181,"magType":"mb","type":"earthquake","title":"M 4.1 - 9 km S of San Marcos, Mexico"},"geometry":{"type":"Point","coordinates":[-99.3842,16.7112,18.603]},"id":"us7000s21r"},
{"type":"Feature","properties":{"mag":4.1,"place":"3 km W of El Ciruelo, Mexico","time":1770716050128,"updated":1777646156040,"tz":null,"url":"https://earthquake.usgs.gov/earthquakes/eventpage/us7000s21t","detail":"https://earthquake.usgs.gov/fdsnws/event/1/query?eventid=us7000s21t&format=geojson","felt":null,"cdi":null,"mmi":null,"alert":null,"status":"reviewed","tsunami":0,"sig":259,"net":"us","code":"7000s21t","ids":",us7000s21t,","sources":",us,","types":",origin,phase-data,","nst":37,"dmin":0.176,"rms":0.83,"gap":186,"magType":"mb","type":"earthquake","title":"M 4.1 - 3 km W of El Ciruelo, Mexico"},"geometry":{"type":"Point","coordinates":[-98.2919,16.3135,28.522]},"id":"us7000s21t"},
{"type":"Feature","properties":{"mag":4.4,"place":"4 km ESE of Alpoyeca, Mexico","time":1770921210674,"updated":1778090028040,"tz":null,"url":"https://earthquake.usgs.gov/earthquakes/eventpage/us6000s8jy","detail":"https://earthquake.usgs.gov/fdsnws/event/1/query?eventid=us6000s8jy&format=geojson","felt":1,"cdi":2,"mmi":null,"alert":null,"status":"reviewed","tsunami":0,"sig":298,"net":"us","code":"6000s8jy","ids":",us6000s8jy,","sources":",us,","types":",dyfi,origin,phase-data,","nst":91,"dmin":0.131,"rms":0.72,"gap":81,"magType":"mb","type":"earthquake","title":"M 4.4 - 4 km ESE of Alpoyeca, Mexico"},"geometry":{"type":"Point","coordinates":[-98.4667,17.6537,52.272]},"id":"us6000s8jy"},
{"type":"Feature","properties":{"mag":4.8,"place":"30 km S of Corralero, Mexico","time":1770962587179,"updated":1778090029040,"tz":null,"url":"https://earthquake.usgs.gov/earthquakes/eventpage/us6000s8pv","detail":"https://earthquake.usgs.gov/fdsnws/event/1/query?eventid=us6000s8pv&format=geojson","felt":1,"cdi":2,"mmi":null,"alert":null,"status":"reviewed","tsunami":0,"sig":355,"net":"us","code":"6000s8pv","ids":",us6000s8pv,","sources":",us,","types":",dyfi,origin,phase-data,","nst":52,"dmin":1.621,"rms":1.2,"gap":191,"magType":"mb","type":"earthquake","title":"M 4.8 - 30 km S of Corralero, Mexico"},"geometry":{"type":"Point","coordinates":[-98.2156,15.9677,10]},"id":"us6000s8pv"},
{"type":"Feature","properties":{"mag":4.8,"place":"65 km S of Corralero, Mexico","time":1771373952979,"updated":1778090041040,"tz":null,"url":"https://earthquake.usgs.gov/earthquakes/eventpage/us6000s9wb","detail":"https://earthquake.usgs.gov/fdsnws/event/1/query?eventid=us6000s9wb&format=geojson","felt":3,"cdi":2,"mmi":null,"alert":null,"status":"reviewed","tsunami":0,"sig":355,"net":"us","code":"6000s9wb","ids":",us6000s9wb,usauto6000s9wb,","sources":",us,usauto,","types":",dyfi,internal-moment-tensor,origin,phase-data,","nst":111,"dmin":1.164,"rms":1.05,"gap":156,"magType":"mww","type":"earthquake","title":"M 4.8 - 65 km S of Corralero, Mexico"},"geometry":{"type":"Point","coordinates":[-98.305,15.6577,10]},"id":"us6000s9wb"},
{"type":"Feature","properties":{"mag":4.4,"place":"7 km E of Barra de Tecoanapa, Mexico","time":1772169548745,"updated":1778882549040,"tz":null,"url":"https://earthquake.usgs.gov/earthquakes/eventpage/us7000s0nm","detail":"https://earthquake.usgs.gov/fdsnws/event/1/query?eventid=us7000s0nm&format=geojson","felt":null,"cdi":null,"mmi":null,"alert":null,"status":"reviewed","tsunami":0,"sig":298,"net":"us","code":"7000s0nm","ids":",us7000s0nm,","sources":",us,","types":",origin,phase-data,","nst":45,"dmin":0.498,"rms":1.24,"gap":184,"magType":"mb","type":"earthquake","title":"M 4.4 - 7 km E of Barra de Tecoanapa, Mexico"},"geometry":{"type":"Point","coordinates":[-98.6649,16.5143,35]},"id":"us7000s0nm"},
{"type":"Feature","properties":{"mag":4.5,"place":"8 km NNE of Marquelia, Mexico","time":1773246270603,"updated":1779487126040,"tz":null,"url":"https://earthquake.usgs.gov/earthquakes/eventpage/us7000s3n5","detail":"https://earthquake.usgs.gov/fdsnws/event/1/query?eventid=us7000s3n5&format=geojson","felt":null,"cdi":null,"mmi":null,"alert":null,"status":"reviewed","tsunami":0,"sig":312,"net":"us","code":"7000s3n5","ids":",us7000s3n5,","sources":",us,","types":",origin,phase-data,","nst":32,"dmin":0.928,"rms":1.1,"gap":227,"magType":"mb","type":"earthquake","title":"M 4.5 - 8 km NNE of Marquelia, Mexico"},"geometry":{"type":"Point","coordinates":[-98.7876,16.6538,35]},"id":"us7000s3n5"},
{"type":"Feature","properties":{"mag":4.4,"place":"14 km NNE of El Súchil, Mexico","time":1773919557969,"updated":1780598271040,"tz":null,"url":"https://earthquake.usgs.gov/earthquakes/eventpage/us6000shdj","detail":"https://earthquake.usgs.gov/fdsnws/event/1/query?eventid=us6000shdj&format=geojson","felt":null,"cdi":null,"mmi":null,"alert":null,"status":"reviewed","tsunami":0,"sig":298,"net":"us","code":"6000shdj","ids":",us6000shdj,","sources":",us,","types":",origin,phase-data,","nst":94,"dmin":0.697,"rms":1.21,"gap":152,"magType":"mb","type":"earthquake","title":"M 4.4 - 14 km NNE of El Súchil, Mexico"},"geometry":{"type":"Point","coordinates":[-100.5631,17.3364,30.711]},"id":"us6000shdj"},
{"type":"Feature","properties":{"mag":4.2,"place":"8 km SSW of Bajos de Chila, Mexico","time":1774252853964,"updated":1780598280040,"tz":null,"url":"https://earthquake.usgs.gov/earthquakes/eventpage/us6000siu1","detail":"https://earthquake.usgs.gov/fdsnws/event/1/query?eventid=us6000siu1&format=geojson","felt":null,"cdi":null,"mmi":null,"alert":null,"status":"reviewed","tsunami":0,"sig":271,"net":"us","code":"6000siu1","ids":",us6000siu1,","sources":",us,","types":",origin,phase-data,","nst":101,"dmin":0.137,"rms":0.47,"gap":162,"magType":"mb","type":"earthquake","title":"M 4.2 - 8 km SSW of Bajos de Chila, Mexico"},"geometry":{"type":"Point","coordinates":[-97.1635,15.8611,21.173]},"id":"us6000siu1"},
{"type":"Feature","properties":{"mag":4.3,"place":"44 km SW of Santiago Tepextla, Mexico","time":1774671076662,"updated":1781104487040,"tz":null,"url":"https://earthquake.usgs.gov/earthquakes/eventpage/us6000smf3","detail":"https://earthquake.usgs.gov/fdsnws/event/1/query?eventid=us6000smf3&format=geojson","felt":null,"cdi":null,"mmi":null,"alert":null,"status":"reviewed","tsunami":0,"sig":284,"net":"us","code":"6000smf3","ids":",us6000smf3,","sources":",us,","types":",origin,phase-data,","nst":39,"dmin":0.667,"rms":1.1,"gap":204,"magType":"mb","type":"earthquake","title":"M 4.3 - 44 km SW of Santiago Tepextla, Mexico"},"geometry":{"type":"Point","coordinates":[-98.7058,16.0219,10]},"id":"us6000smf3"},
{"type":"Feature","properties":{"mag":4.6,"place":"4 km WNW of Santiago Tepextla, Mexico","time":1774672022039,"updated":1781104494040,"tz":null,"url":"https://earthquake.usgs.gov/earthquakes/eventpage/us7000s8b4","detail":"https://earthquake.usgs.gov/fdsnws/event/1/query?eventid=us7000s8b4&format=geojson","felt":null,"cdi":null,"mmi":null,"alert":null,"status":"reviewed","tsunami":0,"sig":326,"net":"us","code":"7000s8b4","ids":",us7000s8b4,","sources":",us,","types":",origin,phase-data,","nst":66,"dmin":1.21,"rms":0.81,"gap":163,"magType":"mb","type":"earthquake","title":"M 4.6 - 4 km WNW of Santiago Tepextla, Mexico"},"geometry":{"type":"Point","coordinates":[-98.485,16.3481,10]},"id":"us7000s8b4"},
{"type":"Feature","properties":{"mag":4.3,"place":"17 km SSW of Corralero, Mexico","time":1774672229386,"updated":1781104503040,"tz":null,"url":"https://earthquake.usgs.gov/earthquakes/eventpage/us7000sb5s","detail":"https://earthquake.usgs.gov/fdsnws/event/1/query?eventid=us7000sb5s&format=geojson","felt":null,"cdi":null,"mmi":null,"alert":null,"status":"reviewed","tsunami":0,"sig":284,"net":"us","code":"7000sb5s","ids":",us7000sb5s,","sources":",us,","types":",origin,phase-data,","nst":18,"dmin":1.499,"rms":1.04,"gap":310,"magType":"mb","type":"earthquake","title":"M 4.3 - 17 km SSW of Corralero, Mexico"},"geometry":{"type":"Point","coordinates":[-98.2441,16.0873,10]},"id":"us7000sb5s"},
{"type":"Feature","properties":{"mag":4.5,"place":"3 km W of Montecillos, Mexico","time":1774679355139,"updated":1781104494040,"tz":null,"url":"https://earthquake.usgs.gov/earthquakes/eventpage/us7000s8bz","detail":"https://earthquake.usgs.gov/fdsnws/event/1/query?eventid=us7000s8bz&format=geojson","felt":null,"cdi":null,"mmi":null,"alert":null,"status":"reviewed","tsunami":0,"sig":312,"net":"us","code":"7000s8bz","ids":",us7000s8bz,","sources":",us,","types":",origin,phase-data,","nst":89,"dmin":0.39,"rms":0.95,"gap":145,"magType":"mww","type":"earthquake","title":"M 4.5 - 3 km W of Montecillos, Mexico"},"geometry":{"type":"Point","coordinates":[-98.5339,16.3849,10]},"id":"us7000s8bz"},
{"type":"Feature","properties":{"mag":4.3,"place":"43 km SSW of Santiago Tepextla, Mexico","time":1774694171978,"updated":1781104494040,"tz":null,"url":"https://earthquake.usgs.gov/earthquakes/eventpage/us7000s8cn","detail":"https://earthquake.usgs.gov/fdsnws/event/1/query?eventid=us7000s8cn&format=geojson","felt":null,"cdi":null,"mmi":null,"alert":null,"status":"reviewed","tsunami":0,"sig":284,"net":"us","code":"7000s8cn","ids":",us7000s8cn,","sources":",us,","types":",origin,phase-data,","nst":49,"dmin":0.624,"rms":1.04,"gap":178,"magType":"mb","type":"earthquake","title":"M 4.3 - 43 km SSW of Santiago Tepextla, Mexico"},"geometry":{"type":"Point","coordinates":[-98.617,15.9807,10]},"id":"us7000s8cn"},
{"type":"Feature","properties":{"mag":4.7,"place":"28 km SW of Santiago Tepextla, Mexico","time":1774700955026,"updated":1781104494040,"tz":null,"url":"https://earthquake.usgs.gov/earthquakes/eventpage/us7000s8d2","detail":"https://earthquake.usgs.gov/fdsnws/event/1/query?eventid=us7000s8d2&format=geojson","felt":null,"cdi":null,"mmi":null,"alert":null,"status":"reviewed","tsunami":0,"sig":340,"net":"us","code":"7000s8d2","ids":",us7000s8d2,","sources":",us,","types":",origin,phase-data,","nst":61,"dmin":0.543,"rms":1.09,"gap":172,"magType":"mww","type":"earthquake","title":"M 4.7 - 28 km SW of Santiago Tepextla, Mexico"},"geometry":{"type":"Point","coordinates":[-98.6436,16.1693,10]},"id":"us7000s8d2"},
{"type":"Feature","properties":{"mag":5.1,"place":"13 km SW of San Nicolás, Mexico","time":1774702673114,"updated":1781104494040,"tz":null,"url":"https://earthquake.usgs.gov/earthquakes/eventpage/us7000s8d7","detail":"https://earthquake.usgs.gov/fdsnws/event/1/query?eventid=us7000s8d7&format=geojson","felt":2,"cdi":2.2,"mmi":null,"alert":null,"status":"reviewed","tsunami":0,"sig":401,"net":"us","code":"7000s8d7","ids":",us7000s8d7,usauto7000s8d7,","sources":",us,usauto,","types":",dyfi,internal-moment-tensor,moment-tensor,origin,phase-data,","nst":80,"dmin":0.474,"rms":1.01,"gap":126,"magType":"mww","type":"earthquake","title":"M 5.1 - 13 km SW of San Nicolás, Mexico"},"geometry":{"type":"Point","coordinates":[-98.617,16.3342,10]},"id":"us7000s8d7"},
{"type":"Feature","properties":{"mag":4.9,"place":"12 km SSW of Santo Domingo Armenta, Mexico","time":1774710126634,"updated":1781104494040,"tz":null,"url":"https://earthquake.usgs.gov/earthquakes/eventpage/us7000s8dk","detail":"https://earthquake.usgs.gov/fdsnws/event/1/query?eventid=us7000s8dk&format=geojson","felt":1,"cdi":2,"mmi":null,"alert":null,"status":"reviewed","tsunami":0,"sig":370,"net":"us","code":"7000s8dk","ids":",us7000s8dk,","sources":",us,","types":",dyfi,moment-tensor,origin,phase-data,","nst":178,"dmin":0.326,"rms":0.63,"gap":161,"magType":"mww","type":"earthquake","title":"M 4.9 - 12 km SSW of Santo Domingo Armenta, Mexico"},"geometry":{"type":"Point","coordinates":[-98.4164,16.2207,10]},"id":"us7000s8dk"},
{"type":"Feature","properties":{"mag":5.5,"place":"0 km SW of San Juan Jicayán, Mexico","time":1777907964589,"updated":1787068331288,"tz":null,"url":"https://earthquake.usgs.gov/earthquakes/eventpage/us7000si51","detail":"https://earthquake.usgs.gov/fdsnws/event/1/query?eventid=us7000si51&format=geojson","felt":50,"cdi":3.8,"mmi":5.804,"alert":"green","status":"reviewed","tsunami":0,"sig":484,"net":"us","code":"7000si51","ids":",us7000si51,usauto7000si51,","sources":",us,usauto,","types":",dyfi,ground-failure,internal-moment-tensor,losspager,moment-tensor,origin,phase-data,shakemap,","nst":87,"dmin":1.207,"rms":0.84,"gap":79,"magType":"mww","type":"earthquake","title":"M 5.5 - 0 km SW of San Juan Jicayán, Mexico"},"geometry":{"type":"Point","coordinates":[-98.0183,16.4698,18]},"id":"us7000si51"},
{"type":"Feature","properties":{"mag":4.5,"place":"4 km NNE of Santo Domingo Armenta, Mexico","time":1777908600635,"updated":1784129151040,"tz":null,"url":"https://earthquake.usgs.gov/earthquakes/eventpage/us6000sxga","detail":"https://earthquake.usgs.gov/fdsnws/event/1/query?eventid=us6000sxga&format=geojson","felt":3,"cdi":3.8,"mmi":null,"alert":null,"status":"reviewed","tsunami":0,"sig":313,"net":"us","code":"6000sxga","ids":",us6000sxga,","sources":",us,","types":",dyfi,origin,phase-data,","nst":41,"dmin":0.83,"rms":1.32,"gap":206,"magType":"mb","type":"earthquake","title":"M 4.5 - 4 km NNE of Santo Domingo Armenta, Mexico"},"geometry":{"type":"Point","coordinates":[-98.3533,16.3696,35]},"id":"us6000sxga"},
{"type":"Feature","properties":{"mag":5.2,"place":"3 km SW of Acatepec, Mexico","time":1780692901751,"updated":1786814822040,"tz":null,"url":"https://earthquake.usgs.gov/earthquakes/eventpage/us7000sqzv","detail":"https://earthquake.usgs.gov/fdsnws/event/1/query?eventid=us7000sqzv&format=geojson","felt":19,"cdi":3.1,"mmi":null,"alert":null,"status":"reviewed","tsunami":0,"sig":422,"net":"us","code":"7000sqzv","ids":",us7000sqzv,usauto7000sqzv,","sources":",us,usauto,","types":",dyfi,internal-moment-tensor,moment-tensor,origin,phase-data,","nst":282,"dmin":0.449,"rms":0.63,"gap":79,"magType":"mww","type":"earthquake","title":"M 5.2 - 3 km SW of Acatepec, Mexico"},"geometry":{"type":"Point","coordinates":[-98.4501,16.7194,22.836]},"id":"us7000sqzv"},
{"type":"Feature","properties":{"mag":4.5,"place":"4 km SE of San Andrés Playa Encantada (El Podrido), Mexico","time":1781134592908,"updated":1786814837040,"tz":null,"url":"https://earthquake.usgs.gov/earthquakes/eventpage/us7000t0tk","detail":"https://earthquake.usgs.gov/fdsnws/event/1/query?eventid=us7000t0tk&format=geojson","felt":null,"cdi":null,"mmi":null,"alert":null,"status":"reviewed","tsunami":0,"sig":312,"net":"us","code":"7000t0tk","ids":",us7000t0tk,","sources":",us,","types":",origin,phase-data,","nst":33,"dmin":0.356,"rms":1.15,"gap":173,"magType":"mb","type":"earthquake","title":"M 4.5 - 4 km SE of San Andrés Playa Encantada (El Podrido), Mexico"},"geometry":{"type":"Point","coordinates":[-99.5993,16.6666,10]},"id":"us7000t0tk"},
{"type":"Feature","properties":{"mag":4.5,"place":"35 km SSW of Corralero, Mexico","time":1781337014170,"updated":1784289205040,"tz":null,"url":"https://earthquake.usgs.gov/earthquakes/eventpage/us7000ssn4","detail":"https://earthquake.usgs.gov/fdsnws/event/1/query?eventid=us7000ssn4&format=geojson","felt":null,"cdi":null,"mmi":null,"alert":null,"status":"reviewed","tsunami":0,"sig":312,"net":"us","code":"7000ssn4","ids":",us7000ssn4,","sources":",us,","types":",origin,phase-data,","nst":77,"dmin":0.477,"rms":1.01,"gap":184,"magType":"mww","type":"earthquake","title":"M 4.5 - 35 km SSW of Corralero, Mexico"},"geometry":{"type":"Point","coordinates":[-98.3705,15.9741,10]},"id":"us7000ssn4"},
{"type":"Feature","properties":{"mag":5.1,"place":"2 km S of Cerro de Piedra, Mexico","time":1781374842492,"updated":1784474273040,"tz":null,"url":"https://earthquake.usgs.gov/earthquakes/eventpage/us7000ssq9","detail":"https://earthquake.usgs.gov/fdsnws/event/1/query?eventid=us7000ssq9&format=geojson","felt":3,"cdi":6.8,"mmi":null,"alert":null,"status":"reviewed","tsunami":0,"sig":402,"net":"us","code":"7000ssq9","ids":",us7000ssq9,usauto7000ssq9,","sources":",us,usauto,","types":",dyfi,internal-moment-tensor,moment-tensor,origin,phase-data,","nst":74,"dmin":1.301,"rms":0.7,"gap":163,"magType":"mww","type":"earthquake","title":"M 5.1 - 2 km S of Cerro de Piedra, Mexico"},"geometry":{"type":"Point","coordinates":[-99.634,16.7513,10]},"id":"us7000ssq9"},
{"type":"Feature","properties":{"mag":4.4,"place":"8 km WNW of Tepetixtla, Mexico","time":1782943895756,"updated":1783534471040,"tz":null,"url":"https://earthquake.usgs.gov/earthquakes/eventpage/us6000t9id","detail":"https://earthquake.usgs.gov/fdsnws/event/1/query?eventid=us6000t9id&format=geojson","felt":null,"cdi":null,"mmi":null,"alert":null,"status":"reviewed","tsunami":0,"sig":298,"net":"us","code":"6000t9id","ids":",us6000t9id,","sources":",us,","types":",origin,phase-data,","nst":66,"dmin":2.287,"rms":0.61,"gap":164,"magType":"mb","type":"earthquake","title":"M 4.4 - 8 km WNW of Tepetixtla, Mexico"},"geometry":{"type":"Point","coordinates":[-100.1905,17.2437,35]},"id":"us6000t9id"},
{"type":"Feature","properties":{"mag":4.2,"place":"3 km ESE of San Cristóbal, Mexico","time":1785490884570,"updated":1787848043040,"tz":null,"url":"https://earthquake.usgs.gov/earthquakes/eventpage/us6000tiuc","detail":"https://earthquake.usgs.gov/fdsnws/event/1/query?eventid=us6000tiuc&format=geojson","felt":null,"cdi":null,"mmi":null,"alert":null,"status":"reviewed","tsunami":0,"sig":271,"net":"us","code":"6000tiuc","ids":",us6000tiuc,","sources":",us,","types":",origin,phase-data,","nst":50,"dmin":0.347,"rms":0.81,"gap":116,"magType":"mb","type":"earthquake","title":"M 4.2 - 3 km ESE of San Cristóbal, Mexico"},"geometry":{"type":"Point","coordinates":[-99.914,17.2609,35]},"id":"us6000tiuc"}],"bbox":[-100.9877,15.6519,10,-97.1635,18.4417,66.693]}