{"type":"FeatureCollection","metadata":{"generated":1788057594000,"url":"https://earthquake.usgs.gov/fdsnws/event/1/query?format=geojson&starttime=2025-10-11T00%3A00%3A00&endtime=2026-08-28T00%3A00%3A00&minmagnitude=4.0&minlatitude=36.0&maxlatitude=39.0&minlongitude=35.0&maxlongitude=40.0&orderby=time-asc&limit=20000","title":"USGS Earthquakes","status":200,"api":"2.7.0","limit":20000,"offset":1},"features":[{"type":"Feature","properties":{"mag":4.3,"place":"22 km E of Feke, Turkey","time":1760873951967,"updated":1767973121040,"tz":null,"url":"https://earthquake.usgs.gov/earthquakes/eventpage/us6000ri5n","detail":"https://earthquake.usgs.gov/fdsnws/event/1/query?eventid=us6000ri5n&format=geojson","felt":null,"cdi":null,"mmi":null,"alert":null,"status":"reviewed","tsunami":0,"sig":284,"net":"us","code":"6000ri5n","ids":",us6000ri5n,","sources":",us,","types":",origin,phase-data,","nst":39,"dmin":0.25,"rms":0.77,"gap":38,"magType":"mb","type":"earthquake","title":"M 4.3 - 22 km E of Feke, Turkey"},"geometry":{"type":"Point","coordinates":[36.1678,37.7871,12.785]},"id":"us6000ri5n"},
{"type":"Feature","properties":{"mag":4.1,"place":"24 km NE of Nurdağı, Turkey","time":1761012360384,"updated":1767973123040,"tz":null,"url":"https://earthquake.usgs.gov/earthquakes/eventpage/us6000ried","detail":"https://earthquake.usgs.gov/fdsnws/event/1/query?eventid=us6000ried&format=geojson","felt":null,"cdi":null,"mmi":null,"alert":null,"status":"reviewed","tsunami":0,"sig":259,"net":"us","code":"6000ried","ids":",us6000ried,","sources":",us,","types":",origin,phase-data,","nst":31,"dmin":0.229,"rms":0.78,"gap":69,"magType":"mb","type":"earthquake","title":"M 4.1 - 24 km NE of Nurdağı, Turkey"},"geometry":{"type":"Point","coordinates":[36.9665,37.2945,10]},"id":"us6000ried"},
{"type":"Feature","properties":{"mag":4.3,"place":"5 km ENE of Nurdağı, Turkey","time":1763629749881,"updated":1771603651040,"tz":null,"url":"https://earthquake.usgs.gov/earthquakes/eventpage/us6000rpb8","detail":"https://earthquake.usgs.gov/fdsnws/event/1/query?eventid=us6000rpb8&format=geojson","felt":1,"cdi":2,"mmi":null,"alert":null,"status":"reviewed","tsunami":0,"sig":285,"net":"us","code":"6000rpb8","ids":",us6000rpb8,","sources":",us,","types":",dyfi,moment-tensor,origin,phase-data,","nst":54,"dmin":0.53,"rms":1.02,"gap":91,"magType":"mwr","type":"earthquake","title":"M 4.3 - 5 km ENE of Nurdağı, Turkey"},"geometry":{"type":"Point","coordinates":[36.7952,37.1887,10]},"id":"us6000rpb8"},
{"type":"Feature","properties":{"mag":4.1,"place":"3 km S of Günyazı, Turkey","time":1765790401210,"updated":1773181122040,"tz":null,"url":"https://earthquake.usgs.gov/earthquakes/eventpage/us6000ruya","detail":"https://earthquake.usgs.gov/fdsnws/event/1/query?eventid=us6000ruya&format=geojson","felt":null,"cdi":null,"mmi":null,"alert":null,"status":"reviewed","tsunami":0,"sig":259,"net":"us","code":"6000ruya","ids":",us6000ruya,","sources":",us,","types":",origin,phase-data,","nst":26,"dmin":0.857,"rms":1.19,"gap":127,"magType":"mb","type":"earthquake","title":"M 4.1 - 3 km S of Günyazı, Turkey"},"geometry":{"type":"Point","coordinates":[36.1124,36.2039,10]},"id":"us6000ruya"},
{"type":"Feature","properties":{"mag":4.1,"place":"17 km NNE of Kırıkhan, Turkey","time":1765934109462,"updated":1773928559040,"tz":null,"url":"https://earthquake.usgs.gov/earthquakes/eventpage/us6000rvds","detail":"https://earthquake.usgs.gov/fdsnws/event/1/query?eventid=us6000rvds&format=geojson","felt":2,"cdi":3.8,"mmi":null,"alert":null,"status":"reviewed","tsunami":0,"sig":259,"net":"us","code":"6000rvds","ids":",us6000rvds,","sources":",us,","types":",dyfi,origin,phase-data,","nst":37,"dmin":0.681,"rms":1.01,"gap":93,"magType":"mb","type":"earthquake","title":"M 4.1 - 17 km NNE of Kırıkhan, Turkey"},"geometry":{"type":"Point","coordinates":[36.4572,36.6364,10]},"id":"us6000rvds"},
{"type":"Feature","properties":{"mag":4.5,"place":"8 km WSW of Doğanyol, Turkey","time":1767461247317,"updated":1775599913040,"tz":null,"url":"https://earthquake.usgs.gov/earthquakes/eventpage/us7000rmaa","detail":"https://earthquake.usgs.gov/fdsnws/event/1/query?eventid=us7000rmaa&format=geojson","felt":2,"cdi":3.4,"mmi":null,"alert":null,"status":"reviewed","tsunami":0,"sig":312,"net":"us","code":"7000rmaa","ids":",us7000rmaa,","sources":",us,","types":",dyfi,moment-tensor,origin,phase-data,","nst":109,"dmin":0.297,"rms":0.78,"gap":112,"magType":"mwr","type":"earthquake","title":"M 4.5 - 8 km WSW of Doğanyol, Turkey"},"geometry":{"type":"Point","coordinates":[38.9482,38.2809,10]},"id":"us7000rmaa"},
{"type":"Feature","properties":{"mag":4.2,"place":"19 km ESE of Göksun, Turkey","time":1767946663874,"updated":1775834438040,"tz":null,"url":"https://earthquake.usgs.gov/earthquakes/eventpage/us6000s50h","detail":"https://earthquake.usgs.gov/fdsnws/event/1/query?eventid=us6000s50h&format=geojson","felt":null,"cdi":null,"mmi":null,"alert":null,"status":"reviewed","tsunami":0,"sig":271,"net":"us","code":"6000s50h","ids":",us6000s50h,","sources":",us,","types":",origin,phase-data,","nst":28,"dmin":0.439,"rms":1.26,"gap":80,"magType":"mb","type":"earthquake","title":"M 4.2 - 19 km ESE of Göksun, Turkey"},"geometry":{"type":"Point","coordinates":[36.6857,37.9262,10]},"id":"us6000s50h"},
{"type":"Feature","properties":{"mag":4.3,"place":"2 km SW of Kırıkhan, Turkey","time":1771557054323,"updated":1778606882040,"tz":null,"url":"https://earthquake.usgs.gov/earthquakes/eventpage/us6000saby","detail":"https://earthquake.usgs.gov/fdsnws/event/1/query?eventid=us6000saby&format=geojson","felt":null,"cdi":null,"mmi":null,"alert":null,"status":"reviewed","tsunami":0,"sig":284,"net":"us","code":"6000saby","ids":",us6000saby,","sources":",us,","types":",origin,phase-data,","nst":31,"dmin":1.092,"rms":1.17,"gap":89,"magType":"mb","type":"earthquake","title":"M 4.3 - 2 km SW of Kırıkhan, Turkey"},"geometry":{"type":"Point","coordinates":[36.3331,36.4859,10]},"id":"us6000saby"},
{"type":"Feature","properties":{"mag":4.4,"place":"24 km W of Doğanyol, Turkey","time":1771645396003,"updated":1778606885040,"tz":null,"url":"https://earthquake.usgs.gov/earthquakes/eventpage/us6000sakb","detail":"https://earthquake.usgs.gov/fdsnws/event/1/query?eventid=us6000sakb&format=geojson","felt":null,"cdi":null,"mmi":null,"alert":null,"status":"reviewed","tsunami":0,"sig":298,"net":"us","code":"6000sakb","ids":",us6000sakb,","sources":",us,","types":",moment-tensor,origin,phase-data,","nst":51,"dmin":0.444,"rms":0.88,"gap":74,"magType":"mwr","type":"earthquake","title":"M 4.4 - 24 km W of Doğanyol, Turkey"},"geometry":{"type":"Point","coordinates":[38.7577,38.2692,10]},"id":"us6000sakb"},
{"type":"Feature","properties":{"mag":4.6,"place":"12 km E of Ekinözü, Turkey","time":1772126229456,"updated":1778882548040,"tz":null,"url":"https://earthquake.usgs.gov/earthquakes/eventpage/us7000s0ij","detail":"https://earthquake.usgs.gov/fdsnws/event/1/query?eventid=us7000s0ij&format=geojson","felt":3,"cdi":4.4,"mmi":null,"alert":null,"status":"reviewed","tsunami":0,"sig":327,"net":"us","code":"7000s0ij","ids":",us7000s0ij,","sources":",us,","types":",dyfi,moment-tensor,origin,phase-data,","nst":90,"dmin":0.916,"rms":0.62,"gap":67,"magType":"mwr","type":"earthquake","title":"M 4.6 - 12 km E of Ekinözü, Turkey"},"geometry":{"type":"Point","coordinates":[37.3319,38.0587,10]},"id":"us7000s0ij"},
{"type":"Feature","properties":{"mag":4.3,"place":"13 km NW of Sincik, Turkey","time":1772463173160,"updated":1778882558040,"tz":null,"url":"https://earthquake.usgs.gov/earthquakes/eventpage/us7000s1fn","detail":"https://earthquake.usgs.gov/fdsnws/event/1/query?eventid=us7000s1fn&format=geojson","felt":null,"cdi":null,"mmi":null,"alert":null,"status":"reviewed","tsunami":0,"sig":284,"net":"us","code":"7000s1fn","ids":",us7000s1fn,","sources":",us,","types":",moment-tensor,origin,phase-data,","nst":47,"dmin":0.66,"rms":0.84,"gap":108,"magType":"mwr","type":"earthquake","title":"M 4.3 - 13 km NW of Sincik, Turkey"},"geometry":{"type":"Point","coordinates":[38.5248,38.1364,10]},"id":"us7000s1fn"},
{"type":"Feature","properties":{"mag":4,"place":"27 km N of Sincik, Turkey","time":1777293760892,"updated":1783799900040,"tz":null,"url":"https://earthquake.usgs.gov/earthquakes/eventpage/us6000st4v","detail":"https://earthquake.usgs.gov/fdsnws/event/1/query?eventid=us6000st4v&format=geojson","felt":null,"cdi":null,"mmi":null,"alert":null,"status":"reviewed","tsunami":0,"sig":246,"net":"us","code":"6000st4v","ids":",us6000st4v,","sources":",us,","types":",origin,phase-data,","nst":36,"dmin":0.519,"rms":0.61,"gap":156,"magType":"mb","type":"earthquake","title":"M 4.0 - 27 km N of Sincik, Turkey"},"geometry":{"type":"Point","coordinates":[38.6575,38.2836,10]},"id":"us6000st4v"},
{"type":"Feature","properties":{"mag":5.4,"place":"20 km NNW of Sincik, Turkey","time":1779256816671,"updated":1785017574040,"tz":null,"url":"https://earthquake.usgs.gov/earthquakes/eventpage/us6000syx6","detail":"https://earthquake.usgs.gov/fdsnws/event/1/query?eventid=us6000syx6&format=geojson","felt":7,"cdi":6.1,"mmi":7.352,"alert":"green","status":"reviewed","tsunami":0,"sig":453,"net":"us","code":"6000syx6","ids":",us6000syx6,usauto6000syx6,","sources":",us,usauto,","types":",dyfi,ground-failure,impact-text,internal-moment-tensor,losspager,moment-tensor,origin,phase-data,shakemap,","nst":123,"dmin":0.609,"rms":0.95,"gap":21,"magType":"mww","type":"earthquake","title":"M 5.4 - 20 km NNW of Sincik, Turkey"},"geometry":{"type":"Point","coordinates":[38.5575,38.2203,10]},"id":"us6000syx6"},
{"type":"Feature","properties":{"mag":4.9,"place":"20 km ESE of Feke, Turkey","time":1779586013106,"updated":1785945532040,"tz":null,"url":"https://earthquake.usgs.gov/earthquakes/eventpage/us6000szud","detail":"https://earthquake.usgs.gov/fdsnws/event/1/query?eventid=us6000szud&format=geojson","felt":1,"cdi":2,"mmi":null,"alert":null,"status":"reviewed","tsunami":0,"sig":370,"net":"us","code":"6000szud","ids":",us6000szud,","sources":",us,","types":",dyfi,impact-text,moment-tensor,origin,phase-data,","nst":69,"dmin":0.253,"rms":0.88,"gap":54,"magType":"mww","type":"earthquake","title":"M 4.9 - 20 km ESE of Feke, Turkey"},"geometry":{"type":"Point","coordinates":[36.139,37.7737,10]},"id":"us6000szud"},
{"type":"Feature","properties":{"mag":4.2,"place":"13 km NNW of Pazarcık, Turkey","time":1780481528611,"updated":1786455246040,"tz":null,"url":"https://earthquake.usgs.gov/earthquakes/eventpage/us7000sq8x","detail":"https://earthquake.usgs.gov/fdsnws/event/1/query?eventid=us7000sq8x&format=geojson","felt":null,"cdi":null,"mmi":null,"alert":null,"status":"reviewed","tsunami":0,"sig":271,"net":"us","code":"7000sq8x","ids":",us7000sq8x,","sources":",us,","types":",moment-tensor,origin,phase-data,","nst":57,"dmin":0.694,"rms":0.48,"gap":77,"magType":"mwr","type":"earthquake","title":"M 4.2 - 13 km NNW of Pazarcık, Turkey"},"geometry":{"type":"Point","coordinates":[37.219,37.5913,10]},"id":"us7000sq8x"},
{"type":"Feature","properties":{"mag":4.6,"place":"10 km SE of Nurdağı, Turkey","time":1781298528756,"updated":1787537845040,"tz":null,"url":"https://earthquake.usgs.gov/earthquakes/eventpage/us7000sskd","detail":"https://earthquake.usgs.gov/fdsnws/event/1/query?eventid=us7000sskd&format=geojson","felt":2,"cdi":4.6,"mmi":null,"alert":null,"status":"reviewed","tsunami":0,"sig":326,"net":"us","code":"7000sskd","ids":",us7000sskd,","sources":",us,","types":",dyfi,moment-tensor,origin,phase-data,","nst":54,"dmin":0.61,"rms":1.03,"gap":43,"magType":"mwr","type":"earthquake","title":"M 4.6 - 10 km SE of Nurdağı, Turkey"},"geometry":{"type":"Point","coordinates":[36.8288,37.1066,10]},"id":"us7000sskd"},
{"type":"Feature","properties":{"mag":5,"place":"17 km SE of Yeşilyurt, Turkey","time":1784344860414,"updated":1787323902040,"tz":null,"url":"https://earthquake.usgs.gov/earthquakes/eventpage/us7000t1j0","detail":"https://earthquake.usgs.gov/fdsnws/event/1/query?eventid=us7000t1j0&format=geojson","felt":1,"cdi":2,"mmi":null,"alert":null,"status":"reviewed","tsunami":0,"sig":385,"net":"us","code":"7000t1j0","ids":",us7000t1j0,usauto7000t1j0,","sources":",us,usauto,","types":",dyfi,impact-text,internal-moment-tensor,moment-tensor,origin,phase-data,","nst":78,"dmin":0.733,"rms":0.9,"gap":66,"magType":"mww","type":"earthquake","title":"M 5.0 - 17 km SE of Yeşilyurt, Turkey"},"geometry":{"type":"Point","coordinates":[38.4035,38.1975,10]},"id":"us7000t1j0"},
{"type":"Feature","properties":{"mag":4.4,"place":"14 km E of Nurdağı, Turkey","time":1786236138775,"updated":1787891659824,"tz":null,"url":"https://earthquake.usgs.gov/earthquakes/eventpage/us6000tjc0","detail":"https://earthquake.usgs.gov/fdsnws/event/1/query?eventid=us6000tjc0&format=geojson","felt":2,"cdi":4.1,"mmi":null,"alert":null,"status":"reviewed","tsunami":0,"sig":299,"net":"us","code":"6000tjc0","ids":",us6000tjc0,","sources":",us,","types":",dyfi,origin,phase-data,","nst":57,"dmin":0.602,"rms":0.82,"gap":70,"magType":"mb","type":"earthquake","title":"M 4.4 - 14 km E of Nurdağı, Turkey"},"geometry":{"type":"Point","coordinates":[36.8996,37.1701,10]},"id":"us6000tjc0"},
{"type":"Feature","properties":{"mag":4.2,"place":"16 km ENE of Çelikhan, Turkey","time":1787683434134,"updated":1787686975040,"tz":null,"url":"https://earthquake.usgs.gov/earthquakes/eventpage/us7000tbta","detail":"https://earthquake.usgs.gov/fdsnws/event/1/query?eventid=us7000tbta&format=geojson","felt":null,"cdi":null,"mmi":null,"alert":null,"status":"reviewed","tsunami":0,"sig":271,"net":"us","code":"7000tbta","ids":",us7000tbta,","sources":",us,","types":",origin,phase-data,","nst":25,"dmin":0.768,"rms":0.96,"gap":90,"magType":"mb","type":"earthquake","title":"M 4.2 - 16 km ENE of Çelikhan, Turkey"},"geometry":{"type":"Point","coordinates":[38.3938,38.1053,10]},"id":"us7000tbta"}],"bbox":[36.1124,36.2039,10,38.9482,38.2836,12.785]}