{"type":"FeatureCollection","metadata":{"generated":1788057591000,"url":"https://earthquake.usgs.gov/fdsnws/event/1/query?format=geojson&starttime=2025-10-11T00%3A00%3A00&endtime=2026-08-28T00%3A00%3A00&minmagnitude=4.0&minlatitude=-43.0&maxlatitude=-41.5&minlongitude=171.5&maxlongitude=174.5&orderby=time-asc&limit=20000","title":"USGS Earthquakes","status":200,"api":"2.7.0","limit":20000,"offset":1},"features":[{"type":"Feature","properties":{"mag":4.1,"place":"63 km WSW of Hanmer Springs, New Zealand","time":1761958058126,"updated":1769536744040,"tz":null,"url":"https://earthquake.usgs.gov/earthquakes/eventpage/us6000rkvm","detail":"https://earthquake.usgs.gov/fdsnws/event/1/query?eventid=us6000rkvm&format=geojson","felt":1,"cdi":2.2,"mmi":null,"alert":null,"status":"reviewed","tsunami":0,"sig":259,"net":"us","code":"6000rkvm","ids":",us6000rkvm,","sources":",us,","types":",dyfi,origin,phase-data,","nst":40,"dmin":0.149,"rms":1.01,"gap":63,"magType":"mb","type":"earthquake","title":"M 4.1 - 63 km WSW of Hanmer Springs, New Zealand"},"geometry":{"type":"Point","coordinates":[172.0928,-42.7116,18.856]},"id":"us6000rkvm"},
{"type":"Feature","properties":{"mag":4,"place":"44 km SE of Witherlea, New Zealand","time":1770161730910,"updated":1776977002040,"tz":null,"url":"https://earthquake.usgs.gov/earthquakes/eventpage/us6000s6am","detail":"https://earthquake.usgs.gov/fdsnws/event/1/query?eventid=us6000s6am&format=geojson","felt":1,"cdi":3.1,"mmi":null,"alert":null,"status":"reviewed","tsunami":0,"sig":246,"net":"us","code":"6000s6am","ids":",us6000s6am,","sources":",us,","types":",dyfi,origin,phase-data,","nst":28,"dmin":0.382,"rms":1.22,"gap":147,"magType":"mb","type":"earthquake","title":"M 4.0 - 44 km SE of Witherlea, New Zealand"},"geometry":{"type":"Point","coordinates":[174.3831,-41.7558,17.967]},"id":"us6000s6am"},
{"type":"Feature","properties":{"mag":4,"place":"36 km SE of Witherlea, New Zealand","time":1778913252969,"updated":1785017569040,"tz":null,"url":"https://earthquake.usgs.gov/earthquakes/eventpage/us6000sy5t","detail":"https://earthquake.usgs.gov/fdsnws/event/1/query?eventid=us6000sy5t&format=geojson","felt":3,"cdi":2.2,"mmi":null,"alert":null,"status":"reviewed","tsunami":0,"sig":247,"net":"us","code":"6000sy5t","ids":",us6000sy5t,","sources":",us,","types":",dyfi,moment-tensor,origin,phase-data,","nst":34,"dmin":0.272,"rms":0.84,"gap":109,"magType":"mwr","type":"earthquake","title":"M 4.0 - 36 km SE of Witherlea, New Zealand"},"geometry":{"type":"Point","coordinates":[174.2248,-41.7898,10]},"id":"us6000sy5t"},
{"type":"Feature","properties":{"mag":4.5,"place":"42 km SE of Witherlea, New Zealand","time":1780095390773,"updated":1786455241040,"tz":null,"url":"https://earthquake.usgs.gov/earthquakes/eventpage/us7000spft","detail":"https://earthquake.usgs.gov/fdsnws/event/1/query?eventid=us7000spft&format=geojson","felt":1,"cdi":3.8,"mmi":null,"alert":null,"status":"reviewed","tsunami":0,"sig":312,"net":"us","code":"7000spft","ids":",us7000spft,","sources":",us,","types":",dyfi,origin,phase-data,","nst":41,"dmin":0.373,"rms":1.07,"gap":70,"magType":"mb","type":"earthquake","title":"M 4.5 - 42 km SE of Witherlea, New Zealand"},"geometry":{"type":"Point","coordinates":[174.3718,-41.7486,14.591]},"id":"us7000spft"},
{"type":"Feature","properties":{"mag":4.5,"place":"54 km E of Hanmer Springs, New Zealand","time":1783873868710,"updated":1787590356040,"tz":null,"url":"https://earthquake.usgs.gov/earthquakes/eventpage/us7000szwc","detail":"https://earthquake.usgs.gov/fdsnws/event/1/query?eventid=us7000szwc&format=geojson","felt":1,"cdi":2,"mmi":null,"alert":null,"status":"reviewed","tsunami":0,"sig":312,"net":"us","code":"7000szwc","ids":",us7000szwc,","sources":",us,","types":",dyfi,moment-tensor,origin,phase-data,","nst":31,"dmin":0.157,"rms":0.81,"gap":143,"magType":"mb","type":"earthquake","title":"M 4.5 - 54 km E of Hanmer Springs, New Zealand"},"geometry":{"type":"Point","coordinates":[173.4789,-42.5664,29.271]},"id":"us7000szwc"}],"bbox":[172.0928,-42.7116,10,174.3831,-41.7486,29.271]}