{"type":"FeatureCollection","metadata":{"generated":1788057592000,"url":"https://earthquake.usgs.gov/fdsnws/event/1/query?format=geojson&starttime=2025-10-11T00%3A00%3A00&endtime=2026-08-28T00%3A00%3A00&minmagnitude=4.0&minlatitude=32.0&maxlatitude=34.0&minlongitude=130.0&maxlongitude=132.0&orderby=time-asc&limit=20000","title":"USGS Earthquakes","status":200,"api":"2.7.0","limit":20000,"offset":1},"features":[{"type":"Feature","properties":{"mag":4.9,"place":"39 km ESE of Tsunō, Japan","time":1762446204758,"updated":1769724328040,"tz":null,"url":"https://earthquake.usgs.gov/earthquakes/eventpage/us6000rlvy","detail":"https://earthquake.usgs.gov/fdsnws/event/1/query?eventid=us6000rlvy&format=geojson","felt":null,"cdi":null,"mmi":null,"alert":null,"status":"reviewed","tsunami":0,"sig":369,"net":"us","code":"6000rlvy","ids":",us6000rlvy,","sources":",us,","types":",origin,phase-data,","nst":128,"dmin":1.373,"rms":0.62,"gap":48,"magType":"mb","type":"earthquake","title":"M 4.9 - 39 km ESE of Tsunō, Japan"},"geometry":{"type":"Point","coordinates":[131.9259,32.0697,47.528]},"id":"us6000rlvy"},
{"type":"Feature","properties":{"mag":5.3,"place":"10 km N of Aso, Japan","time":1764061277570,"updated":1771603661040,"tz":null,"url":"https://earthquake.usgs.gov/earthquakes/eventpage/us7000rdmh","detail":"https://earthquake.usgs.gov/fdsnws/event/1/query?eventid=us7000rdmh&format=geojson","felt":14,"cdi":6.7,"mmi":6.604,"alert":"green","status":"reviewed","tsunami":0,"sig":442,"net":"us","code":"7000rdmh","ids":",us7000rdmh,usauto7000rdmh,","sources":",us,usauto,","types":",dyfi,ground-failure,impact-text,internal-moment-tensor,losspager,moment-tensor,origin,phase-data,shakemap,","nst":186,"dmin":1.609,"rms":0.44,"gap":51,"magType":"mww","type":"earthquake","title":"M 5.3 - 10 km N of Aso, Japan"},"geometry":{"type":"Point","coordinates":[131.0814,33.0317,10]},"id":"us7000rdmh"},
{"type":"Feature","properties":{"mag":4.3,"place":"5 km NNW of Aso, Japan","time":1764075551348,"updated":1771603659040,"tz":null,"url":"https://earthquake.usgs.gov/earthquakes/eventpage/us6000rug5","detail":"https://earthquake.usgs.gov/fdsnws/event/1/query?eventid=us6000rug5&format=geojson","felt":null,"cdi":null,"mmi":null,"alert":null,"status":"reviewed","tsunami":0,"sig":284,"net":"us","code":"6000rug5","ids":",us6000rug5,","sources":",us,","types":",moment-tensor,origin,phase-data,","nst":54,"dmin":1.562,"rms":0.52,"gap":89,"magType":"mwr","type":"earthquake","title":"M 4.3 - 5 km NNW of Aso, Japan"},"geometry":{"type":"Point","coordinates":[131.0674,32.9861,10]},"id":"us6000rug5"},
{"type":"Feature","properties":{"mag":4.8,"place":"9 km WSW of Hyūga, Japan","time":1782862812492,"updated":1785711273040,"tz":null,"url":"https://earthquake.usgs.gov/earthquakes/eventpage/us6000t9bc","detail":"https://earthquake.usgs.gov/fdsnws/event/1/query?eventid=us6000t9bc&format=geojson","felt":7,"cdi":3.1,"mmi":null,"alert":null,"status":"reviewed","tsunami":0,"sig":357,"net":"us","code":"6000t9bc","ids":",us6000t9bc,","sources":",us,","types":",dyfi,origin,phase-data,","nst":74,"dmin":1.277,"rms":0.75,"gap":107,"magType":"mww","type":"earthquake","title":"M 4.8 - 9 km WSW of Hyūga, Japan"},"geometry":{"type":"Point","coordinates":[131.5472,32.3874,10]},"id":"us6000t9bc"},
{"type":"Feature","properties":{"mag":6.8,"place":"The 2026 Kumamoto Region, Japan Earthquake","time":1785223634942,"updated":1787761133991,"tz":null,"url":"https://earthquake.usgs.gov/earthquakes/eventpage/us6000tgb9","detail":"https://earthquake.usgs.gov/fdsnws/event/1/query?eventid=us6000tgb9&format=geojson","felt":95,"cdi":8.7,"mmi":9.24,"alert":"red","status":"reviewed","tsunami":0,"sig":723,"net":"us","code":"6000tgb9","ids":",attivjdk,pt26209004,us6000tgb9,usauto6000tgb9,","sources":",at,pt,us,usauto,","types":",associate,dyfi,earthquake-name,finite-fault,general-text,ground-failure,impact-text,internal-moment-tensor,internal-origin,losspager,moment-tensor,origin,phase-data,shakemap,significance,","nst":122,"dmin":0.52,"rms":1.11,"gap":39,"magType":"mww","type":"earthquake","title":"M 6.8 - The 2026 Kumamoto Region, Japan Earthquake"},"geometry":{"type":"Point","coordinates":[130.6843,32.6297,10]},"id":"us6000tgb9"},
{"type":"Feature","properties":{"mag":4.5,"place":"22 km NW of Yunomae, Japan","time":1785224419645,"updated":1787044516040,"tz":null,"url":"https://earthquake.usgs.gov/earthquakes/eventpage/us6000th9w","detail":"https://earthquake.usgs.gov/fdsnws/event/1/query?eventid=us6000th9w&format=geojson","felt":null,"cdi":null,"mmi":null,"alert":null,"status":"reviewed","tsunami":0,"sig":312,"net":"us","code":"6000th9w","ids":",us6000th9w,","sources":",us,","types":",origin,phase-data,","nst":23,"dmin":0.986,"rms":1.33,"gap":114,"magType":"mb","type":"earthquake","title":"M 4.5 - 22 km NW of Yunomae, Japan"},"geometry":{"type":"Point","coordinates":[130.8342,32.4437,10]},"id":"us6000th9w"},
{"type":"Feature","properties":{"mag":4.3,"place":"0 km SE of Uto, Japan","time":1785224733729,"updated":1787040272040,"tz":null,"url":"https://earthquake.usgs.gov/earthquakes/eventpage/us6000th9v","detail":"https://earthquake.usgs.gov/fdsnws/event/1/query?eventid=us6000th9v&format=geojson","felt":null,"cdi":null,"mmi":null,"alert":null,"status":"reviewed","tsunami":0,"sig":284,"net":"us","code":"6000th9v","ids":",us6000th9v,","sources":",us,","types":",origin,phase-data,","nst":22,"dmin":0.478,"rms":0.4,"gap":139,"magType":"mb","type":"earthquake","title":"M 4.3 - 0 km SE of Uto, Japan"},"geometry":{"type":"Point","coordinates":[130.671,32.6786,10]},"id":"us6000th9v"},
{"type":"Feature","properties":{"mag":4.3,"place":"5 km E of Uki, Japan","time":1785225560362,"updated":1787037381040,"tz":null,"url":"https://earthquake.usgs.gov/earthquakes/eventpage/us6000tgbh","detail":"https://earthquake.usgs.gov/fdsnws/event/1/query?eventid=us6000tgbh&format=geojson","felt":null,"cdi":null,"mmi":null,"alert":null,"status":"reviewed","tsunami":0,"sig":284,"net":"us","code":"6000tgbh","ids":",us6000tgbh,","sources":",us,","types":",origin,phase-data,","nst":34,"dmin":1.125,"rms":0.93,"gap":109,"magType":"mb","type":"earthquake","title":"M 4.3 - 5 km E of Uki, Japan"},"geometry":{"type":"Point","coordinates":[130.7206,32.6142,10]},"id":"us6000tgbh"},
{"type":"Feature","properties":{"mag":5.6,"place":"15 km SSW of Honmachi, Japan","time":1785226114854,"updated":1787032404477,"tz":null,"url":"https://earthquake.usgs.gov/earthquakes/eventpage/us6000tgbm","detail":"https://earthquake.usgs.gov/fdsnws/event/1/query?eventid=us6000tgbm&format=geojson","felt":3,"cdi":7.3,"mmi":6.319,"alert":"green","status":"reviewed","tsunami":0,"sig":485,"net":"us","code":"6000tgbm","ids":",us6000tgbm,usauto6000tgbm,","sources":",us,usauto,","types":",dyfi,ground-failure,internal-moment-tensor,losspager,moment-tensor,origin,phase-data,shakemap,","nst":103,"dmin":0.799,"rms":0.86,"gap":75,"magType":"mww","type":"earthquake","title":"M 5.6 - 15 km SSW of Honmachi, Japan"},"geometry":{"type":"Point","coordinates":[130.5385,32.3769,10]},"id":"us6000tgbm"},
{"type":"Feature","properties":{"mag":4.9,"place":"15 km NNE of Tsunagi, Japan","time":1785226734042,"updated":1787032891040,"tz":null,"url":"https://earthquake.usgs.gov/earthquakes/eventpage/us6000tgbn","detail":"https://earthquake.usgs.gov/fdsnws/event/1/query?eventid=us6000tgbn&format=geojson","felt":null,"cdi":null,"mmi":null,"alert":null,"status":"reviewed","tsunami":0,"sig":369,"net":"us","code":"6000tgbn","ids":",us6000tgbn,","sources":",us,","types":",origin,phase-data,","nst":73,"dmin":0.86,"rms":0.73,"gap":100,"magType":"mb","type":"earthquake","title":"M 4.9 - 15 km NNE of Tsunagi, Japan"},"geometry":{"type":"Point","coordinates":[130.5387,32.3684,10]},"id":"us6000tgbn"},
{"type":"Feature","properties":{"mag":4.3,"place":"3 km N of Honmachi, Japan","time":1785229071007,"updated":1787035556040,"tz":null,"url":"https://earthquake.usgs.gov/earthquakes/eventpage/us6000th9z","detail":"https://earthquake.usgs.gov/fdsnws/event/1/query?eventid=us6000th9z&format=geojson","felt":null,"cdi":null,"mmi":null,"alert":null,"status":"reviewed","tsunami":0,"sig":284,"net":"us","code":"6000th9z","ids":",us6000th9z,","sources":",us,","types":",origin,phase-data,","nst":37,"dmin":1.032,"rms":0.78,"gap":110,"magType":"mb","type":"earthquake","title":"M 4.3 - 3 km N of Honmachi, Japan"},"geometry":{"type":"Point","coordinates":[130.6069,32.5364,10]},"id":"us6000th9z"},
{"type":"Feature","properties":{"mag":4.5,"place":"14 km WSW of Honmachi, Japan","time":1785229816790,"updated":1787333551040,"tz":null,"url":"https://earthquake.usgs.gov/earthquakes/eventpage/us6000tha1","detail":"https://earthquake.usgs.gov/fdsnws/event/1/query?eventid=us6000tha1&format=geojson","felt":null,"cdi":null,"mmi":null,"alert":null,"status":"reviewed","tsunami":0,"sig":312,"net":"us","code":"6000tha1","ids":",us6000tha1,","sources":",us,","types":",origin,phase-data,","nst":31,"dmin":0.936,"rms":0.82,"gap":116,"magType":"mb","type":"earthquake","title":"M 4.5 - 14 km WSW of Honmachi, Japan"},"geometry":{"type":"Point","coordinates":[130.461,32.4479,10]},"id":"us6000tha1"},
{"type":"Feature","properties":{"mag":4.2,"place":"5 km WNW of Uto, Japan","time":1785232618623,"updated":1787334622040,"tz":null,"url":"https://earthquake.usgs.gov/earthquakes/eventpage/us6000tha4","detail":"https://earthquake.usgs.gov/fdsnws/event/1/query?eventid=us6000tha4&format=geojson","felt":null,"cdi":null,"mmi":null,"alert":null,"status":"reviewed","tsunami":0,"sig":271,"net":"us","code":"6000tha4","ids":",us6000tha4,","sources":",us,","types":",origin,phase-data,","nst":26,"dmin":1.19,"rms":0.84,"gap":117,"magType":"mb","type":"earthquake","title":"M 4.2 - 5 km WNW of Uto, Japan"},"geometry":{"type":"Point","coordinates":[130.6092,32.6949,10]},"id":"us6000tha4"},
{"type":"Feature","properties":{"mag":4.3,"place":"9 km ESE of Uki, Japan","time":1785232993014,"updated":1787158306040,"tz":null,"url":"https://earthquake.usgs.gov/earthquakes/eventpage/us6000tgc6","detail":"https://earthquake.usgs.gov/fdsnws/event/1/query?eventid=us6000tgc6&format=geojson","felt":null,"cdi":null,"mmi":null,"alert":null,"status":"reviewed","tsunami":0,"sig":284,"net":"us","code":"6000tgc6","ids":",us6000tgc6,","sources":",us,","types":",origin,phase-data,","nst":40,"dmin":1.112,"rms":0.62,"gap":110,"magType":"mb","type":"earthquake","title":"M 4.3 - 9 km ESE of Uki, Japan"},"geometry":{"type":"Point","coordinates":[130.7587,32.5942,10]},"id":"us6000tgc6"},
{"type":"Feature","properties":{"mag":4.4,"place":"10 km SE of Honmachi, Japan","time":1785233378140,"updated":1787158683040,"tz":null,"url":"https://earthquake.usgs.gov/earthquakes/eventpage/us6000tgc8","detail":"https://earthquake.usgs.gov/fdsnws/event/1/query?eventid=us6000tgc8&format=geojson","felt":null,"cdi":null,"mmi":null,"alert":null,"status":"reviewed","tsunami":0,"sig":298,"net":"us","code":"6000tgc8","ids":",us6000tgc8,","sources":",us,","types":",origin,phase-data,","nst":55,"dmin":0.949,"rms":0.56,"gap":108,"magType":"mb","type":"earthquake","title":"M 4.4 - 10 km SE of Honmachi, Japan"},"geometry":{"type":"Point","coordinates":[130.6832,32.441,10]},"id":"us6000tgc8"},
{"type":"Feature","properties":{"mag":4.3,"place":"14 km S of Mifune, Japan","time":1785236727954,"updated":1787335679040,"tz":null,"url":"https://earthquake.usgs.gov/earthquakes/eventpage/us6000tha7","detail":"https://earthquake.usgs.gov/fdsnws/event/1/query?eventid=us6000tha7&format=geojson","felt":null,"cdi":null,"mmi":null,"alert":null,"status":"reviewed","tsunami":0,"sig":284,"net":"us","code":"6000tha7","ids":",us6000tha7,","sources":",us,","types":",origin,phase-data,","nst":24,"dmin":1.118,"rms":0.53,"gap":127,"magType":"mb","type":"earthquake","title":"M 4.3 - 14 km S of Mifune, Japan"},"geometry":{"type":"Point","coordinates":[130.8235,32.585,10]},"id":"us6000tha7"},
{"type":"Feature","properties":{"mag":4.4,"place":"10 km W of Honmachi, Japan","time":1785240602377,"updated":1787337171040,"tz":null,"url":"https://earthquake.usgs.gov/earthquakes/eventpage/us6000tha8","detail":"https://earthquake.usgs.gov/fdsnws/event/1/query?eventid=us6000tha8&format=geojson","felt":null,"cdi":null,"mmi":null,"alert":null,"status":"reviewed","tsunami":0,"sig":298,"net":"us","code":"6000tha8","ids":",us6000tha8,","sources":",us,","types":",origin,phase-data,","nst":34,"dmin":0.991,"rms":0.4,"gap":108,"magType":"mb","type":"earthquake","title":"M 4.4 - 10 km W of Honmachi, Japan"},"geometry":{"type":"Point","coordinates":[130.4883,32.5024,10]},"id":"us6000tha8"},
{"type":"Feature","properties":{"mag":4.6,"place":"3 km ESE of Uki, Japan","time":1785241578097,"updated":1787159209040,"tz":null,"url":"https://earthquake.usgs.gov/earthquakes/eventpage/us6000tgcq","detail":"https://earthquake.usgs.gov/fdsnws/event/1/query?eventid=us6000tgcq&format=geojson","felt":null,"cdi":null,"mmi":null,"alert":null,"status":"reviewed","tsunami":0,"sig":326,"net":"us","code":"6000tgcq","ids":",us6000tgcq,","sources":",us,","types":",origin,phase-data,","nst":74,"dmin":1.113,"rms":0.5,"gap":99,"magType":"mb","type":"earthquake","title":"M 4.6 - 3 km ESE of Uki, Japan"},"geometry":{"type":"Point","coordinates":[130.6922,32.6073,10]},"id":"us6000tgcq"},
{"type":"Feature","properties":{"mag":4.8,"place":"9 km NW of Honmachi, Japan","time":1785247317709,"updated":1787323571040,"tz":null,"url":"https://earthquake.usgs.gov/earthquakes/eventpage/us6000tgd4","detail":"https://earthquake.usgs.gov/fdsnws/event/1/query?eventid=us6000tgd4&format=geojson","felt":null,"cdi":null,"mmi":null,"alert":null,"status":"reviewed","tsunami":0,"sig":354,"net":"us","code":"6000tgd4","ids":",us6000tgd4,","sources":",us,","types":",moment-tensor,origin,phase-data,","nst":130,"dmin":1.046,"rms":0.68,"gap":70,"magType":"mwr","type":"earthquake","title":"M 4.8 - 9 km NW of Honmachi, Japan"},"geometry":{"type":"Point","coordinates":[130.5174,32.5566,14.352]},"id":"us6000tgd4"},
{"type":"Feature","properties":{"mag":4.4,"place":"11 km SW of Aso, Japan","time":1785308376780,"updated":1787062297040,"tz":null,"url":"https://earthquake.usgs.gov/earthquakes/eventpage/us6000tglh","detail":"https://earthquake.usgs.gov/fdsnws/event/1/query?eventid=us6000tglh&format=geojson","felt":null,"cdi":null,"mmi":null,"alert":null,"status":"reviewed","tsunami":0,"sig":298,"net":"us","code":"6000tglh","ids":",us6000tglh,","sources":",us,","types":",origin,phase-data,","nst":31,"dmin":0.291,"rms":0.5,"gap":106,"magType":"mb","type":"earthquake","title":"M 4.4 - 11 km SW of Aso, Japan"},"geometry":{"type":"Point","coordinates":[131.0099,32.8556,10]},"id":"us6000tglh"},
{"type":"Feature","properties":{"mag":4.4,"place":"14 km ESE of Shimabara, Japan","time":1785325673752,"updated":1787686465040,"tz":null,"url":"https://earthquake.usgs.gov/earthquakes/eventpage/us6000tgmj","detail":"https://earthquake.usgs.gov/fdsnws/event/1/query?eventid=us6000tgmj&format=geojson","felt":null,"cdi":null,"mmi":null,"alert":null,"status":"reviewed","tsunami":0,"sig":298,"net":"us","code":"6000tgmj","ids":",us6000tgmj,","sources":",us,","types":",moment-tensor,origin,phase-data,","nst":53,"dmin":1.207,"rms":0.44,"gap":105,"magType":"mb","type":"earthquake","title":"M 4.4 - 14 km ESE of Shimabara, Japan"},"geometry":{"type":"Point","coordinates":[130.4986,32.719,10]},"id":"us6000tgmj"},
{"type":"Feature","properties":{"mag":5.3,"place":"12 km N of Tsunagi, Japan","time":1785331176674,"updated":1787692758040,"tz":null,"url":"https://earthquake.usgs.gov/earthquakes/eventpage/us6000tgmx","detail":"https://earthquake.usgs.gov/fdsnws/event/1/query?eventid=us6000tgmx&format=geojson","felt":4,"cdi":5.4,"mmi":6.737,"alert":"green","status":"reviewed","tsunami":0,"sig":434,"net":"us","code":"6000tgmx","ids":",us6000tgmx,usauto6000tgmx,","sources":",us,usauto,","types":",dyfi,ground-failure,internal-moment-tensor,losspager,moment-tensor,origin,phase-data,shakemap,","nst":93,"dmin":0.834,"rms":0.54,"gap":73,"magType":"mww","type":"earthquake","title":"M 5.3 - 12 km N of Tsunagi, Japan"},"geometry":{"type":"Point","coordinates":[130.4586,32.3461,10]},"id":"us6000tgmx"},
{"type":"Feature","properties":{"mag":4.6,"place":"8 km W of Honmachi, Japan","time":1785333754648,"updated":1786564204040,"tz":null,"url":"https://earthquake.usgs.gov/earthquakes/eventpage/us6000tgn1","detail":"https://earthquake.usgs.gov/fdsnws/event/1/query?eventid=us6000tgn1&format=geojson","felt":null,"cdi":null,"mmi":null,"alert":null,"status":"reviewed","tsunami":0,"sig":326,"net":"us","code":"6000tgn1","ids":",us6000tgn1,","sources":",us,","types":",origin,phase-data,","nst":79,"dmin":1.001,"rms":0.61,"gap":62,"magType":"mb","type":"earthquake","title":"M 4.6 - 8 km W of Honmachi, Japan"},"geometry":{"type":"Point","coordinates":[130.5078,32.512,10]},"id":"us6000tgn1"},
{"type":"Feature","properties":{"mag":4.4,"place":"6 km WNW of Honmachi, Japan","time":1785356195659,"updated":1788020993040,"tz":null,"url":"https://earthquake.usgs.gov/earthquakes/eventpage/us6000tgt4","detail":"https://earthquake.usgs.gov/fdsnws/event/1/query?eventid=us6000tgt4&format=geojson","felt":null,"cdi":null,"mmi":null,"alert":null,"status":"reviewed","tsunami":0,"sig":298,"net":"us","code":"6000tgt4","ids":",us6000tgt4,","sources":",us,","types":",moment-tensor,origin,phase-data,","nst":146,"dmin":0.654,"rms":0.55,"gap":83,"magType":"mwr","type":"earthquake","title":"M 4.4 - 6 km WNW of Honmachi, Japan"},"geometry":{"type":"Point","coordinates":[130.5433,32.5324,11.706]},"id":"us6000tgt4"},
{"type":"Feature","properties":{"mag":4.4,"place":"7 km NW of Minamata, Japan","time":1785372974715,"updated":1787092952040,"tz":null,"url":"https://earthquake.usgs.gov/earthquakes/eventpage/us6000ti1k","detail":"https://earthquake.usgs.gov/fdsnws/event/1/query?eventid=us6000ti1k&format=geojson","felt":null,"cdi":null,"mmi":null,"alert":null,"status":"reviewed","tsunami":0,"sig":298,"net":"us","code":"6000ti1k","ids":",us6000ti1k,","sources":",us,","types":",origin,phase-data,","nst":17,"dmin":0.758,"rms":1.22,"gap":125,"magType":"mb","type":"earthquake","title":"M 4.4 - 7 km NW of Minamata, Japan"},"geometry":{"type":"Point","coordinates":[130.3474,32.264,10]},"id":"us6000ti1k"},
{"type":"Feature","properties":{"mag":4,"place":"4 km S of Honmachi, Japan","time":1785379386032,"updated":1787540179040,"tz":null,"url":"https://earthquake.usgs.gov/earthquakes/eventpage/us6000ti1r","detail":"https://earthquake.usgs.gov/fdsnws/event/1/query?eventid=us6000ti1r&format=geojson","felt":null,"cdi":null,"mmi":null,"alert":null,"status":"reviewed","tsunami":0,"sig":246,"net":"us","code":"6000ti1r","ids":",us6000ti1r,","sources":",us,","types":",origin,phase-data,","nst":13,"dmin":0.962,"rms":0.67,"gap":111,"magType":"mb","type":"earthquake","title":"M 4.0 - 4 km S of Honmachi, Japan"},"geometry":{"type":"Point","coordinates":[130.5981,32.4664,9.722]},"id":"us6000ti1r"},
{"type":"Feature","properties":{"mag":5,"place":"3 km NW of Uto, Japan","time":1785419259044,"updated":1786652305839,"tz":null,"url":"https://earthquake.usgs.gov/earthquakes/eventpage/us6000tgy8","detail":"https://earthquake.usgs.gov/fdsnws/event/1/query?eventid=us6000tgy8&format=geojson","felt":2,"cdi":4.6,"mmi":null,"alert":null,"status":"reviewed","tsunami":0,"sig":386,"net":"us","code":"6000tgy8","ids":",us6000tgy8,","sources":",us,","types":",dyfi,origin,phase-data,","nst":59,"dmin":1.204,"rms":0.74,"gap":107,"magType":"mb","type":"earthquake","title":"M 5.0 - 3 km NW of Uto, Japan"},"geometry":{"type":"Point","coordinates":[130.6356,32.7068,10]},"id":"us6000tgy8"},
{"type":"Feature","properties":{"mag":4.9,"place":"8 km W of Matsubase, Japan","time":1785588443360,"updated":1786187138040,"tz":null,"url":"https://earthquake.usgs.gov/earthquakes/eventpage/us6000thgg","detail":"https://earthquake.usgs.gov/fdsnws/event/1/query?eventid=us6000thgg&format=geojson","felt":null,"cdi":null,"mmi":null,"alert":null,"status":"reviewed","tsunami":0,"sig":369,"net":"us","code":"6000thgg","ids":",us6000thgg,","sources":",us,","types":",origin,phase-data,","nst":70,"dmin":1.146,"rms":0.63,"gap":101,"magType":"mb","type":"earthquake","title":"M 4.9 - 8 km W of Matsubase, Japan"},"geometry":{"type":"Point","coordinates":[130.5789,32.654,10]},"id":"us6000thgg"},
{"type":"Feature","properties":{"mag":4.6,"place":"12 km WSW of Honmachi, Japan","time":1785600441868,"updated":1787857948392,"tz":null,"url":"https://earthquake.usgs.gov/earthquakes/eventpage/us6000thgz","detail":"https://earthquake.usgs.gov/fdsnws/event/1/query?eventid=us6000thgz&format=geojson","felt":1,"cdi":2.7,"mmi":null,"alert":null,"status":"reviewed","tsunami":0,"sig":326,"net":"us","code":"6000thgz","ids":",us6000thgz,","sources":",us,","types":",dyfi,origin,phase-data,","nst":85,"dmin":0.729,"rms":0.7,"gap":108,"magType":"mb","type":"earthquake","title":"M 4.6 - 12 km WSW of Honmachi, Japan"},"geometry":{"type":"Point","coordinates":[130.4701,32.4796,10]},"id":"us6000thgz"},
{"type":"Feature","properties":{"mag":5.3,"place":"44 km SE of Tsunō, Japan","time":1785611453802,"updated":1786730702196,"tz":null,"url":"https://earthquake.usgs.gov/earthquakes/eventpage/us6000thhk","detail":"https://earthquake.usgs.gov/fdsnws/event/1/query?eventid=us6000thhk&format=geojson","felt":1,"cdi":2.7,"mmi":null,"alert":null,"status":"reviewed","tsunami":0,"sig":432,"net":"us","code":"6000thhk","ids":",us6000thhk,usauto6000thhk,","sources":",us,usauto,","types":",dyfi,internal-moment-tensor,moment-tensor,origin,phase-data,","nst":97,"dmin":1.379,"rms":0.71,"gap":80,"magType":"mww","type":"earthquake","title":"M 5.3 - 44 km SE of Tsunō, Japan"},"geometry":{"type":"Point","coordinates":[131.9561,32.0214,35]},"id":"us6000thhk"},
{"type":"Feature","properties":{"mag":4.6,"place":"14 km SE of Honmachi, Japan","time":1785664808813,"updated":1785679753759,"tz":null,"url":"https://earthquake.usgs.gov/earthquakes/eventpage/us6000thlf","detail":"https://earthquake.usgs.gov/fdsnws/event/1/query?eventid=us6000thlf&format=geojson","felt":2,"cdi":2.7,"mmi":null,"alert":null,"status":"reviewed","tsunami":0,"sig":326,"net":"us","code":"6000thlf","ids":",us6000thlf,","sources":",us,","types":",dyfi,origin,phase-data,","nst":31,"dmin":0.908,"rms":1.15,"gap":130,"magType":"mb","type":"earthquake","title":"M 4.6 - 14 km SE of Honmachi, Japan"},"geometry":{"type":"Point","coordinates":[130.6919,32.3966,10]},"id":"us6000thlf"},
{"type":"Feature","properties":{"mag":4.5,"place":"12 km W of Honmachi, Japan","time":1785819999594,"updated":1787301706967,"tz":null,"url":"https://earthquake.usgs.gov/earthquakes/eventpage/us6000thy1","detail":"https://earthquake.usgs.gov/fdsnws/event/1/query?eventid=us6000thy1&format=geojson","felt":1,"cdi":3.1,"mmi":null,"alert":null,"status":"reviewed","tsunami":0,"sig":312,"net":"us","code":"6000thy1","ids":",us6000thy1,","sources":",us,","types":",dyfi,origin,phase-data,","nst":42,"dmin":1.011,"rms":0.54,"gap":107,"magType":"mb","type":"earthquake","title":"M 4.5 - 12 km W of Honmachi, Japan"},"geometry":{"type":"Point","coordinates":[130.4722,32.5228,10]},"id":"us6000thy1"},
{"type":"Feature","properties":{"mag":4.9,"place":"13 km W of Honmachi, Japan","time":1785970764683,"updated":1787804976532,"tz":null,"url":"https://earthquake.usgs.gov/earthquakes/eventpage/us6000tig8","detail":"https://earthquake.usgs.gov/fdsnws/event/1/query?eventid=us6000tig8&format=geojson","felt":7,"cdi":3.8,"mmi":null,"alert":null,"status":"reviewed","tsunami":0,"sig":372,"net":"us","code":"6000tig8","ids":",us6000tig8,usauto6000tig8,","sources":",us,usauto,","types":",dyfi,internal-moment-tensor,moment-tensor,origin,phase-data,","nst":80,"dmin":0.97,"rms":0.82,"gap":100,"magType":"mww","type":"earthquake","title":"M 4.9 - 13 km W of Honmachi, Japan"},"geometry":{"type":"Point","coordinates":[130.463,32.4822,10]},"id":"us6000tig8"},
{"type":"Feature","properties":{"mag":4.6,"place":"5 km ENE of Matsubase, Japan","time":1786013364271,"updated":1786025184872,"tz":null,"url":"https://earthquake.usgs.gov/earthquakes/eventpage/us6000tijg","detail":"https://earthquake.usgs.gov/fdsnws/event/1/query?eventid=us6000tijg&format=geojson","felt":3,"cdi":3.8,"mmi":null,"alert":null,"status":"reviewed","tsunami":0,"sig":327,"net":"us","code":"6000tijg","ids":",us6000tijg,","sources":",us,","types":",dyfi,origin,phase-data,","nst":51,"dmin":1.171,"rms":1.03,"gap":109,"magType":"mb","type":"earthquake","title":"M 4.6 - 5 km ENE of Matsubase, Japan"},"geometry":{"type":"Point","coordinates":[130.7231,32.6611,10]},"id":"us6000tijg"},
{"type":"Feature","properties":{"mag":4.4,"place":"18 km NNW of Tsunagi, Japan","time":1786230126641,"updated":1787892583832,"tz":null,"url":"https://earthquake.usgs.gov/earthquakes/eventpage/us6000tjbm","detail":"https://earthquake.usgs.gov/fdsnws/event/1/query?eventid=us6000tjbm&format=geojson","felt":1,"cdi":2,"mmi":null,"alert":null,"status":"reviewed","tsunami":0,"sig":298,"net":"us","code":"6000tjbm","ids":",us6000tjbm,","sources":",us,","types":",dyfi,origin,phase-data,","nst":26,"dmin":0.885,"rms":0.61,"gap":115,"magType":"mb","type":"earthquake","title":"M 4.4 - 18 km NNW of Tsunagi, Japan"},"geometry":{"type":"Point","coordinates":[130.4179,32.3964,10]},"id":"us6000tjbm"},
{"type":"Feature","properties":{"mag":4.2,"place":"11 km SSW of Honmachi, Japan","time":1786322891028,"updated":1787107887040,"tz":null,"url":"https://earthquake.usgs.gov/earthquakes/eventpage/us6000tkn7","detail":"https://earthquake.usgs.gov/fdsnws/event/1/query?eventid=us6000tkn7&format=geojson","felt":null,"cdi":null,"mmi":null,"alert":null,"status":"reviewed","tsunami":0,"sig":271,"net":"us","code":"6000tkn7","ids":",us6000tkn7,","sources":",us,","types":",origin,phase-data,","nst":33,"dmin":0.904,"rms":0.59,"gap":112,"magType":"mb","type":"earthquake","title":"M 4.2 - 11 km SSW of Honmachi, Japan"},"geometry":{"type":"Point","coordinates":[130.5394,32.4131,10]},"id":"us6000tkn7"},
{"type":"Feature","properties":{"mag":4.1,"place":"16 km E of Amakusa, Japan","time":1786384036984,"updated":1787244202040,"tz":null,"url":"https://earthquake.usgs.gov/earthquakes/eventpage/us6000tjr6","detail":"https://earthquake.usgs.gov/fdsnws/event/1/query?eventid=us6000tjr6&format=geojson","felt":null,"cdi":null,"mmi":null,"alert":null,"status":"reviewed","tsunami":0,"sig":259,"net":"us","code":"6000tjr6","ids":",us6000tjr6,","sources":",us,","types":",origin,phase-data,","nst":38,"dmin":0.922,"rms":0.4,"gap":131,"magType":"mb","type":"earthquake","title":"M 4.1 - 16 km E of Amakusa, Japan"},"geometry":{"type":"Point","coordinates":[130.3691,32.4311,10.222]},"id":"us6000tjr6"},
{"type":"Feature","properties":{"mag":4.9,"place":"14 km WSW of Honmachi, Japan","time":1786507551903,"updated":1786531146523,"tz":null,"url":"https://earthquake.usgs.gov/earthquakes/eventpage/us6000tk5c","detail":"https://earthquake.usgs.gov/fdsnws/event/1/query?eventid=us6000tk5c&format=geojson","felt":2,"cdi":4.1,"mmi":null,"alert":null,"status":"reviewed","tsunami":0,"sig":370,"net":"us","code":"6000tk5c","ids":",us6000tk5c,","sources":",us,","types":",dyfi,origin,phase-data,","nst":44,"dmin":0.944,"rms":1.15,"gap":115,"magType":"mww","type":"earthquake","title":"M 4.9 - 14 km WSW of Honmachi, Japan"},"geometry":{"type":"Point","coordinates":[130.4504,32.4564,10]},"id":"us6000tk5c"},
{"type":"Feature","properties":{"mag":4.4,"place":"16 km WSW of Honmachi, Japan","time":1786569688869,"updated":1787282461040,"tz":null,"url":"https://earthquake.usgs.gov/earthquakes/eventpage/us6000tkaw","detail":"https://earthquake.usgs.gov/fdsnws/event/1/query?eventid=us6000tkaw&format=geojson","felt":null,"cdi":null,"mmi":null,"alert":null,"status":"reviewed","tsunami":0,"sig":298,"net":"us","code":"6000tkaw","ids":",us6000tkaw,","sources":",us,","types":",moment-tensor,origin,phase-data,","nst":41,"dmin":0.935,"rms":0.61,"gap":104,"magType":"mwr","type":"earthquake","title":"M 4.4 - 16 km WSW of Honmachi, Japan"},"geometry":{"type":"Point","coordinates":[130.4346,32.4475,10]},"id":"us6000tkaw"},
{"type":"Feature","properties":{"mag":4.4,"place":"14 km S of Maebaru-chūō, Japan","time":1786916236420,"updated":1787527199040,"tz":null,"url":"https://earthquake.usgs.gov/earthquakes/eventpage/usd0015eab","detail":"https://earthquake.usgs.gov/fdsnws/event/1/query?eventid=usd0015eab&format=geojson","felt":null,"cdi":null,"mmi":null,"alert":null,"status":"reviewed","tsunami":0,"sig":298,"net":"us","code":"d0015eab","ids":",usd0015eab,","sources":",us,","types":",origin,phase-data,","nst":14,"dmin":1.275,"rms":0.97,"gap":125,"magType":"mb","type":"earthquake","title":"M 4.4 - 14 km S of Maebaru-chūō, Japan"},"geometry":{"type":"Point","coordinates":[130.1863,33.4318,10]},"id":"usd0015eab"}],"bbox":[130.1863,32.0214,9.722,131.9561,33.4318,47.528]}