{"type":"FeatureCollection","metadata":{"generated":1788057591000,"url":"https://earthquake.usgs.gov/fdsnws/event/1/query?format=geojson&starttime=2025-10-11T00%3A00%3A00&endtime=2026-08-28T00%3A00%3A00&minmagnitude=4.0&minlatitude=22.0&maxlatitude=25.5&minlongitude=120.0&maxlongitude=122.5&orderby=time-asc&limit=20000","title":"USGS Earthquakes","status":200,"api":"2.7.0","limit":20000,"offset":1},"features":[{"type":"Feature","properties":{"mag":4.8,"place":"60 km ENE of Hualien City, Taiwan","time":1760753054052,"updated":1767973119040,"tz":null,"url":"https://earthquake.usgs.gov/earthquakes/eventpage/us6000rhzq","detail":"https://earthquake.usgs.gov/fdsnws/event/1/query?eventid=us6000rhzq&format=geojson","felt":7,"cdi":3.2,"mmi":null,"alert":null,"status":"reviewed","tsunami":0,"sig":357,"net":"us","code":"6000rhzq","ids":",us6000rhzq,","sources":",us,","types":",dyfi,moment-tensor,origin,phase-data,","nst":67,"dmin":0.487,"rms":0.74,"gap":63,"magType":"mwr","type":"earthquake","title":"M 4.8 - 60 km ENE of Hualien City, Taiwan"},"geometry":{"type":"Point","coordinates":[122.121,24.2501,39.966]},"id":"us6000rhzq"},
{"type":"Feature","properties":{"mag":4.3,"place":"65 km S of Hualien City, Taiwan","time":1760772702084,"updated":1767973125040,"tz":null,"url":"https://earthquake.usgs.gov/earthquakes/eventpage/us6000rm42","detail":"https://earthquake.usgs.gov/fdsnws/event/1/query?eventid=us6000rm42&format=geojson","felt":null,"cdi":null,"mmi":null,"alert":null,"status":"reviewed","tsunami":0,"sig":284,"net":"us","code":"6000rm42","ids":",us6000rm42,","sources":",us,","types":",origin,phase-data,","nst":27,"dmin":0.258,"rms":0.58,"gap":95,"magType":"mb","type":"earthquake","title":"M 4.3 - 65 km S of Hualien City, Taiwan"},"geometry":{"type":"Point","coordinates":[121.5782,23.3832,35.111]},"id":"us6000rm42"},
{"type":"Feature","properties":{"mag":4.2,"place":"8 km ESE of Nantou, Taiwan","time":1761222486578,"updated":1768517208040,"tz":null,"url":"https://earthquake.usgs.gov/earthquakes/eventpage/us6000riv8","detail":"https://earthquake.usgs.gov/fdsnws/event/1/query?eventid=us6000riv8&format=geojson","felt":7,"cdi":4.1,"mmi":null,"alert":null,"status":"reviewed","tsunami":0,"sig":274,"net":"us","code":"6000riv8","ids":",us6000riv8,","sources":",us,","types":",dyfi,moment-tensor,origin,phase-data,","nst":43,"dmin":0.22,"rms":1.08,"gap":69,"magType":"mwr","type":"earthquake","title":"M 4.2 - 8 km ESE of Nantou, Taiwan"},"geometry":{"type":"Point","coordinates":[120.7391,23.8859,30.085]},"id":"us6000riv8"},
{"type":"Feature","properties":{"mag":4.3,"place":"79 km SW of Yonakuni, Japan","time":1761446742464,"updated":1768517214040,"tz":null,"url":"https://earthquake.usgs.gov/earthquakes/eventpage/us6000rjim","detail":"https://earthquake.usgs.gov/fdsnws/event/1/query?eventid=us6000rjim&format=geojson","felt":null,"cdi":null,"mmi":null,"alert":null,"status":"reviewed","tsunami":0,"sig":284,"net":"us","code":"6000rjim","ids":",us6000rjim,","sources":",us,","types":",origin,phase-data,","nst":35,"dmin":0.725,"rms":1.07,"gap":87,"magType":"mb","type":"earthquake","title":"M 4.3 - 79 km SW of Yonakuni, Japan"},"geometry":{"type":"Point","coordinates":[122.4187,23.9828,39]},"id":"us6000rjim"},
{"type":"Feature","properties":{"mag":5.1,"place":"21 km E of Yujing, Taiwan","time":1762750848113,"updated":1769724327040,"tz":null,"url":"https://earthquake.usgs.gov/earthquakes/eventpage/us6000rmjr","detail":"https://earthquake.usgs.gov/fdsnws/event/1/query?eventid=us6000rmjr&format=geojson","felt":9,"cdi":3.1,"mmi":null,"alert":null,"status":"reviewed","tsunami":0,"sig":403,"net":"us","code":"6000rmjr","ids":",us6000rmjr,","sources":",us,","types":",dyfi,origin,phase-data,","nst":198,"dmin":0.185,"rms":0.49,"gap":50,"magType":"mb","type":"earthquake","title":"M 5.1 - 21 km E of Yujing, Taiwan"},"geometry":{"type":"Point","coordinates":[120.6686,23.1183,10]},"id":"us6000rmjr"},
{"type":"Feature","properties":{"mag":4.1,"place":"7 km WNW of Yilan, Taiwan","time":1762996958893,"updated":1770738916040,"tz":null,"url":"https://earthquake.usgs.gov/earthquakes/eventpage/us7000rf2a","detail":"https://earthquake.usgs.gov/fdsnws/event/1/query?eventid=us7000rf2a&format=geojson","felt":null,"cdi":null,"mmi":null,"alert":null,"status":"reviewed","tsunami":0,"sig":259,"net":"us","code":"7000rf2a","ids":",us7000rf2a,","sources":",us,","types":",origin,phase-data,","nst":24,"dmin":0.251,"rms":1.04,"gap":58,"magType":"mb","type":"earthquake","title":"M 4.1 - 7 km WNW of Yilan, Taiwan"},"geometry":{"type":"Point","coordinates":[121.6803,24.7847,55.785]},"id":"us7000rf2a"},
{"type":"Feature","properties":{"mag":4.2,"place":"63 km SE of Yilan, Taiwan","time":1763161345573,"updated":1770738915040,"tz":null,"url":"https://earthquake.usgs.gov/earthquakes/eventpage/us6000rs6t","detail":"https://earthquake.usgs.gov/fdsnws/event/1/query?eventid=us6000rs6t&format=geojson","felt":null,"cdi":null,"mmi":null,"alert":null,"status":"reviewed","tsunami":0,"sig":271,"net":"us","code":"6000rs6t","ids":",us6000rs6t,","sources":",us,","types":",origin,phase-data,","nst":18,"dmin":0.589,"rms":0.9,"gap":124,"magType":"mb","type":"earthquake","title":"M 4.2 - 63 km SE of Yilan, Taiwan"},"geometry":{"type":"Point","coordinates":[122.205,24.3662,55.14]},"id":"us6000rs6t"},
{"type":"Feature","properties":{"mag":4.7,"place":"44 km SE of Jiufen, Taiwan","time":1763164585933,"updated":1770738909040,"tz":null,"url":"https://earthquake.usgs.gov/earthquakes/eventpage/us6000rndw","detail":"https://earthquake.usgs.gov/fdsnws/event/1/query?eventid=us6000rndw&format=geojson","felt":null,"cdi":null,"mmi":null,"alert":null,"status":"reviewed","tsunami":0,"sig":340,"net":"us","code":"6000rndw","ids":",us6000rndw,","sources":",us,","types":",origin,phase-data,","nst":64,"dmin":0.63,"rms":0.83,"gap":40,"magType":"mww","type":"earthquake","title":"M 4.7 - 44 km SE of Jiufen, Taiwan"},"geometry":{"type":"Point","coordinates":[122.1787,24.8526,10]},"id":"us6000rndw"},
{"type":"Feature","properties":{"mag":4.6,"place":"26 km ENE of Hualien City, Taiwan","time":1763555113395,"updated":1771603650040,"tz":null,"url":"https://earthquake.usgs.gov/earthquakes/eventpage/us6000rp49","detail":"https://earthquake.usgs.gov/fdsnws/event/1/query?eventid=us6000rp49&format=geojson","felt":null,"cdi":null,"mmi":null,"alert":null,"status":"reviewed","tsunami":0,"sig":326,"net":"us","code":"6000rp49","ids":",us6000rp49,","sources":",us,","types":",origin,phase-data,","nst":50,"dmin":0.259,"rms":0.4,"gap":51,"magType":"mb","type":"earthquake","title":"M 4.6 - 26 km ENE of Hualien City, Taiwan"},"geometry":{"type":"Point","coordinates":[121.8513,24.0622,13.298]},"id":"us6000rp49"},
{"type":"Feature","properties":{"mag":4.5,"place":"25 km ENE of Hualien City, Taiwan","time":1763555936216,"updated":1771603650040,"tz":null,"url":"https://earthquake.usgs.gov/earthquakes/eventpage/us6000rp4b","detail":"https://earthquake.usgs.gov/fdsnws/event/1/query?eventid=us6000rp4b&format=geojson","felt":1,"cdi":2.7,"mmi":null,"alert":null,"status":"reviewed","tsunami":0,"sig":312,"net":"us","code":"6000rp4b","ids":",us6000rp4b,","sources":",us,","types":",dyfi,origin,phase-data,","nst":31,"dmin":0.234,"rms":0.41,"gap":45,"magType":"mb","type":"earthquake","title":"M 4.5 - 25 km ENE of Hualien City, Taiwan"},"geometry":{"type":"Point","coordinates":[121.8314,24.0837,14.989]},"id":"us6000rp4b"},
{"type":"Feature","properties":{"mag":4.2,"place":"20 km SSW of Lugu, Taiwan","time":1763667837757,"updated":1771603652040,"tz":null,"url":"https://earthquake.usgs.gov/earthquakes/eventpage/us6000rpfj","detail":"https://earthquake.usgs.gov/fdsnws/event/1/query?eventid=us6000rpfj&format=geojson","felt":2,"cdi":3.4,"mmi":null,"alert":null,"status":"reviewed","tsunami":0,"sig":272,"net":"us","code":"6000rpfj","ids":",us6000rpfj,","sources":",us,","types":",dyfi,origin,phase-data,","nst":34,"dmin":0.278,"rms":0.44,"gap":99,"magType":"mb","type":"earthquake","title":"M 4.2 - 20 km SSW of Lugu, Taiwan"},"geometry":{"type":"Point","coordinates":[120.6996,23.572,19.064]},"id":"us6000rpfj"},
{"type":"Feature","properties":{"mag":4.4,"place":"73 km E of Hualien City, Taiwan","time":1764031007088,"updated":1771603661040,"tz":null,"url":"https://earthquake.usgs.gov/earthquakes/eventpage/us7000rdkv","detail":"https://earthquake.usgs.gov/fdsnws/event/1/query?eventid=us7000rdkv&format=geojson","felt":null,"cdi":null,"mmi":null,"alert":null,"status":"reviewed","tsunami":0,"sig":298,"net":"us","code":"7000rdkv","ids":",us7000rdkv,","sources":",us,","types":",origin,phase-data,","nst":41,"dmin":0.709,"rms":0.67,"gap":74,"magType":"mb","type":"earthquake","title":"M 4.4 - 73 km E of Hualien City, Taiwan"},"geometry":{"type":"Point","coordinates":[122.3253,23.9344,10]},"id":"us7000rdkv"},
{"type":"Feature","properties":{"mag":4.2,"place":"38 km NE of Hualien City, Taiwan","time":1764169974437,"updated":1772036313040,"tz":null,"url":"https://earthquake.usgs.gov/earthquakes/eventpage/us7000rdxl","detail":"https://earthquake.usgs.gov/fdsnws/event/1/query?eventid=us7000rdxl&format=geojson","felt":1,"cdi":2.2,"mmi":null,"alert":null,"status":"reviewed","tsunami":0,"sig":272,"net":"us","code":"7000rdxl","ids":",us7000rdxl,","sources":",us,","types":",dyfi,moment-tensor,origin,phase-data,","nst":50,"dmin":0.245,"rms":0.97,"gap":63,"magType":"mwr","type":"earthquake","title":"M 4.2 - 38 km NE of Hualien City, Taiwan"},"geometry":{"type":"Point","coordinates":[121.8544,24.2368,44.423]},"id":"us7000rdxl"},
{"type":"Feature","properties":{"mag":4.1,"place":"59 km SSW of Hualien City, Taiwan","time":1765061281373,"updated":1772649725040,"tz":null,"url":"https://earthquake.usgs.gov/earthquakes/eventpage/us6000rszd","detail":"https://earthquake.usgs.gov/fdsnws/event/1/query?eventid=us6000rszd&format=geojson","felt":null,"cdi":null,"mmi":null,"alert":null,"status":"reviewed","tsunami":0,"sig":259,"net":"us","code":"6000rszd","ids":",us6000rszd,","sources":",us,","types":",origin,phase-data,","nst":30,"dmin":0.175,"rms":1.22,"gap":93,"magType":"mb","type":"earthquake","title":"M 4.1 - 59 km SSW of Hualien City, Taiwan"},"geometry":{"type":"Point","coordinates":[121.4769,23.4513,30.693]},"id":"us6000rszd"},
{"type":"Feature","properties":{"mag":5.2,"place":"21 km SE of Hualien City, Taiwan","time":1765193094434,"updated":1772649811040,"tz":null,"url":"https://earthquake.usgs.gov/earthquakes/eventpage/us6000rtcw","detail":"https://earthquake.usgs.gov/fdsnws/event/1/query?eventid=us6000rtcw&format=geojson","felt":35,"cdi":4.1,"mmi":null,"alert":null,"status":"reviewed","tsunami":0,"sig":430,"net":"us","code":"6000rtcw","ids":",us6000rtcw,usauto6000rtcw,","sources":",us,usauto,","types":",dyfi,internal-moment-tensor,moment-tensor,origin,phase-data,","nst":121,"dmin":0.367,"rms":0.94,"gap":38,"magType":"mww","type":"earthquake","title":"M 5.2 - 21 km SE of Hualien City, Taiwan"},"geometry":{"type":"Point","coordinates":[121.7444,23.8315,10]},"id":"us6000rtcw"},
{"type":"Feature","properties":{"mag":4.4,"place":"91 km S of Hualien City, Taiwan","time":1765281704110,"updated":1772649834040,"tz":null,"url":"https://earthquake.usgs.gov/earthquakes/eventpage/us6000rtm1","detail":"https://earthquake.usgs.gov/fdsnws/event/1/query?eventid=us6000rtm1&format=geojson","felt":null,"cdi":null,"mmi":null,"alert":null,"status":"reviewed","tsunami":0,"sig":298,"net":"us","code":"6000rtm1","ids":",us6000rtm1,","sources":",us,","types":",origin,phase-data,","nst":47,"dmin":0.384,"rms":0.72,"gap":50,"magType":"mb","type":"earthquake","title":"M 4.4 - 91 km S of Hualien City, Taiwan"},"geometry":{"type":"Point","coordinates":[121.6227,23.151,34.496]},"id":"us6000rtm1"},
{"type":"Feature","properties":{"mag":4.5,"place":"7 km E of Yujing, Taiwan","time":1765464541231,"updated":1773181116040,"tz":null,"url":"https://earthquake.usgs.gov/earthquakes/eventpage/us6000ru4q","detail":"https://earthquake.usgs.gov/fdsnws/event/1/query?eventid=us6000ru4q&format=geojson","felt":null,"cdi":null,"mmi":null,"alert":null,"status":"reviewed","tsunami":0,"sig":312,"net":"us","code":"6000ru4q","ids":",us6000ru4q,","sources":",us,","types":",origin,phase-data,","nst":29,"dmin":0.183,"rms":1.2,"gap":58,"magType":"mb","type":"earthquake","title":"M 4.5 - 7 km E of Yujing, Taiwan"},"geometry":{"type":"Point","coordinates":[120.5369,23.1373,7.035]},"id":"us6000ru4q"},
{"type":"Feature","properties":{"mag":4.3,"place":"17 km E of Yujing, Taiwan","time":1765466380915,"updated":1773181116040,"tz":null,"url":"https://earthquake.usgs.gov/earthquakes/eventpage/us6000ru4u","detail":"https://earthquake.usgs.gov/fdsnws/event/1/query?eventid=us6000ru4u&format=geojson","felt":null,"cdi":null,"mmi":null,"alert":null,"status":"reviewed","tsunami":0,"sig":284,"net":"us","code":"6000ru4u","ids":",us6000ru4u,","sources":",us,","types":",moment-tensor,origin,phase-data,","nst":42,"dmin":0.179,"rms":0.82,"gap":57,"magType":"mwr","type":"earthquake","title":"M 4.3 - 17 km E of Yujing, Taiwan"},"geometry":{"type":"Point","coordinates":[120.6357,23.1211,11.516]},"id":"us6000ru4u"},
{"type":"Feature","properties":{"mag":4.1,"place":"38 km ENE of Hualien City, Taiwan","time":1765648715349,"updated":1773181120040,"tz":null,"url":"https://earthquake.usgs.gov/earthquakes/eventpage/us6000rupb","detail":"https://earthquake.usgs.gov/fdsnws/event/1/query?eventid=us6000rupb&format=geojson","felt":null,"cdi":null,"mmi":null,"alert":null,"status":"reviewed","tsunami":0,"sig":259,"net":"us","code":"6000rupb","ids":",us6000rupb,","sources":",us,","types":",moment-tensor,origin,phase-data,","nst":56,"dmin":0.314,"rms":0.7,"gap":65,"magType":"mwr","type":"earthquake","title":"M 4.1 - 38 km ENE of Hualien City, Taiwan"},"geometry":{"type":"Point","coordinates":[121.9376,24.146,33.827]},"id":"us6000rupb"},
{"type":"Feature","properties":{"mag":4.6,"place":"20 km ENE of Hualien City, Taiwan","time":1766057570036,"updated":1773928562040,"tz":null,"url":"https://earthquake.usgs.gov/earthquakes/eventpage/us6000rvnk","detail":"https://earthquake.usgs.gov/fdsnws/event/1/query?eventid=us6000rvnk&format=geojson","felt":11,"cdi":3.7,"mmi":null,"alert":null,"status":"reviewed","tsunami":0,"sig":330,"net":"us","code":"6000rvnk","ids":",us6000rvnk,","sources":",us,","types":",dyfi,moment-tensor,origin,phase-data,","nst":54,"dmin":0.194,"rms":0.81,"gap":67,"magType":"mwr","type":"earthquake","title":"M 4.6 - 20 km ENE of Hualien City, Taiwan"},"geometry":{"type":"Point","coordinates":[121.7741,24.0702,32.176]},"id":"us6000rvnk"},
{"type":"Feature","properties":{"mag":4.4,"place":"91 km ESE of Hualien City, Taiwan","time":1766311241116,"updated":1773928569040,"tz":null,"url":"https://earthquake.usgs.gov/earthquakes/eventpage/us6000rwbe","detail":"https://earthquake.usgs.gov/fdsnws/event/1/query?eventid=us6000rwbe&format=geojson","felt":null,"cdi":null,"mmi":null,"alert":null,"status":"reviewed","tsunami":0,"sig":298,"net":"us","code":"6000rwbe","ids":",us6000rwbe,","sources":",us,","types":",origin,phase-data,","nst":25,"dmin":0.859,"rms":0.68,"gap":97,"magType":"mb","type":"earthquake","title":"M 4.4 - 91 km ESE of Hualien City, Taiwan"},"geometry":{"type":"Point","coordinates":[122.4732,23.7593,10]},"id":"us6000rwbe"},
{"type":"Feature","properties":{"mag":4.2,"place":"27 km SSE of Hualien City, Taiwan","time":1766475969609,"updated":1773928573040,"tz":null,"url":"https://earthquake.usgs.gov/earthquakes/eventpage/us7000rkb9","detail":"https://earthquake.usgs.gov/fdsnws/event/1/query?eventid=us7000rkb9&format=geojson","felt":2,"cdi":3.3,"mmi":null,"alert":null,"status":"reviewed","tsunami":0,"sig":272,"net":"us","code":"7000rkb9","ids":",us7000rkb9,","sources":",us,","types":",dyfi,moment-tensor,origin,phase-data,","nst":50,"dmin":0.439,"rms":0.66,"gap":67,"magType":"mwr","type":"earthquake","title":"M 4.2 - 27 km SSE of Hualien City, Taiwan"},"geometry":{"type":"Point","coordinates":[121.658,23.7369,36.575]},"id":"us7000rkb9"},
{"type":"Feature","properties":{"mag":6,"place":"2025 Taitung, Taiwan Earthquake","time":1766569626669,"updated":1775083681040,"tz":null,"url":"https://earthquake.usgs.gov/earthquakes/eventpage/us7000rkjm","detail":"https://earthquake.usgs.gov/fdsnws/event/1/query?eventid=us7000rkjm&format=geojson","felt":61,"cdi":6,"mmi":6.707,"alert":"green","status":"reviewed","tsunami":0,"sig":600,"net":"us","code":"7000rkjm","ids":",us7000rkjm,usauto7000rkjm,pt25358000,at00t7rpuh,","sources":",us,usauto,pt,at,","types":",dyfi,earthquake-name,ground-failure,impact-text,internal-moment-tensor,internal-origin,losspager,moment-tensor,origin,phase-data,shakemap,significance,","nst":212,"dmin":0.176,"rms":0.62,"gap":47,"magType":"mww","type":"earthquake","title":"M 6.0 - 2025 Taitung, Taiwan Earthquake"},"geometry":{"type":"Point","coordinates":[121.2494,22.8982,8]},"id":"us7000rkjm"},
{"type":"Feature","properties":{"mag":4.2,"place":"83 km ESE of Yujing, Taiwan","time":1766605272145,"updated":1775083683040,"tz":null,"url":"https://earthquake.usgs.gov/earthquakes/eventpage/us7000rkl6","detail":"https://earthquake.usgs.gov/fdsnws/event/1/query?eventid=us7000rkl6&format=geojson","felt":null,"cdi":null,"mmi":null,"alert":null,"status":"reviewed","tsunami":0,"sig":271,"net":"us","code":"7000rkl6","ids":",us7000rkl6,","sources":",us,","types":",moment-tensor,origin,phase-data,","nst":43,"dmin":0.145,"rms":0.71,"gap":78,"magType":"mwr","type":"earthquake","title":"M 4.2 - 83 km ESE of Yujing, Taiwan"},"geometry":{"type":"Point","coordinates":[121.2247,22.8735,7.075]},"id":"us7000rkl6"},
{"type":"Feature","properties":{"mag":6.6,"place":"29 km ESE of Yilan, Taiwan","time":1766847955388,"updated":1776386830433,"tz":null,"url":"https://earthquake.usgs.gov/earthquakes/eventpage/us7000rl2n","detail":"https://earthquake.usgs.gov/fdsnws/event/1/query?eventid=us7000rl2n&format=geojson","felt":439,"cdi":5.6,"mmi":6.114,"alert":"green","status":"reviewed","tsunami":1,"sig":916,"net":"us","code":"7000rl2n","ids":",pt25361000,at00t7xolw,us7000rl2n,usauto7000rl2n,","sources":",pt,at,us,usauto,","types":",dyfi,ground-failure,impact-link,impact-text,internal-moment-tensor,internal-origin,losspager,moment-tensor,origin,phase-data,shakemap,","nst":298,"dmin":0.568,"rms":0.76,"gap":9,"magType":"mww","type":"earthquake","title":"M 6.6 - 29 km ESE of Yilan, Taiwan"},"geometry":{"type":"Point","coordinates":[122.0354,24.6841,63]},"id":"us7000rl2n"},
{"type":"Feature","properties":{"mag":4.3,"place":"36 km ESE of Yilan, Taiwan","time":1766853942674,"updated":1775083702040,"tz":null,"url":"https://earthquake.usgs.gov/earthquakes/eventpage/us7000rl3a","detail":"https://earthquake.usgs.gov/fdsnws/event/1/query?eventid=us7000rl3a&format=geojson","felt":1,"cdi":2,"mmi":null,"alert":null,"status":"reviewed","tsunami":0,"sig":285,"net":"us","code":"7000rl3a","ids":",us7000rl3a,","sources":",us,","types":",dyfi,origin,phase-data,","nst":61,"dmin":0.599,"rms":0.57,"gap":51,"magType":"mb","type":"earthquake","title":"M 4.3 - 36 km ESE of Yilan, Taiwan"},"geometry":{"type":"Point","coordinates":[122.0668,24.5928,62.593]},"id":"us7000rl3a"},
{"type":"Feature","properties":{"mag":4.2,"place":"8 km SSE of Yilan, Taiwan","time":1767469970681,"updated":1775599913040,"tz":null,"url":"https://earthquake.usgs.gov/earthquakes/eventpage/us7000rmaz","detail":"https://earthquake.usgs.gov/fdsnws/event/1/query?eventid=us7000rmaz&format=geojson","felt":1,"cdi":2,"mmi":null,"alert":null,"status":"reviewed","tsunami":0,"sig":272,"net":"us","code":"7000rmaz","ids":",us7000rmaz,","sources":",us,","types":",dyfi,origin,phase-data,","nst":25,"dmin":0.366,"rms":1.04,"gap":50,"magType":"mb","type":"earthquake","title":"M 4.2 - 8 km SSE of Yilan, Taiwan"},"geometry":{"type":"Point","coordinates":[121.7777,24.6862,10]},"id":"us7000rmaz"},
{"type":"Feature","properties":{"mag":4.3,"place":"73 km E of Hualien City, Taiwan","time":1767868014406,"updated":1775834441040,"tz":null,"url":"https://earthquake.usgs.gov/earthquakes/eventpage/us7000rnf7","detail":"https://earthquake.usgs.gov/fdsnws/event/1/query?eventid=us7000rnf7&format=geojson","felt":null,"cdi":null,"mmi":null,"alert":null,"status":"reviewed","tsunami":0,"sig":284,"net":"us","code":"7000rnf7","ids":",us7000rnf7,","sources":",us,","types":",origin,phase-data,","nst":41,"dmin":0.679,"rms":0.83,"gap":71,"magType":"mb","type":"earthquake","title":"M 4.3 - 73 km E of Hualien City, Taiwan"},"geometry":{"type":"Point","coordinates":[122.3204,24.0267,38.105]},"id":"us7000rnf7"},
{"type":"Feature","properties":{"mag":4.6,"place":"24 km ESE of Yilan, Taiwan","time":1768224709741,"updated":1775834446040,"tz":null,"url":"https://earthquake.usgs.gov/earthquakes/eventpage/us7000rp5v","detail":"https://earthquake.usgs.gov/fdsnws/event/1/query?eventid=us7000rp5v&format=geojson","felt":8,"cdi":3.4,"mmi":null,"alert":null,"status":"reviewed","tsunami":0,"sig":328,"net":"us","code":"7000rp5v","ids":",us7000rp5v,","sources":",us,","types":",dyfi,moment-tensor,origin,phase-data,","nst":116,"dmin":0.525,"rms":0.61,"gap":32,"magType":"mww","type":"earthquake","title":"M 4.6 - 24 km ESE of Yilan, Taiwan"},"geometry":{"type":"Point","coordinates":[121.9892,24.6964,73.851]},"id":"us7000rp5v"},
{"type":"Feature","properties":{"mag":4.1,"place":"44 km SSE of Yilan, Taiwan","time":1768532972325,"updated":1776523587040,"tz":null,"url":"https://earthquake.usgs.gov/earthquakes/eventpage/us6000s66b","detail":"https://earthquake.usgs.gov/fdsnws/event/1/query?eventid=us6000s66b&format=geojson","felt":null,"cdi":null,"mmi":null,"alert":null,"status":"reviewed","tsunami":0,"sig":259,"net":"us","code":"6000s66b","ids":",us6000s66b,","sources":",us,","types":",moment-tensor,origin,phase-data,","nst":26,"dmin":0.422,"rms":0.68,"gap":73,"magType":"mwr","type":"earthquake","title":"M 4.1 - 44 km SSE of Yilan, Taiwan"},"geometry":{"type":"Point","coordinates":[121.9774,24.4127,13.721]},"id":"us6000s66b"},
{"type":"Feature","properties":{"mag":4.5,"place":"54 km SE of Hualien City, Taiwan","time":1768553341324,"updated":1776523615040,"tz":null,"url":"https://earthquake.usgs.gov/earthquakes/eventpage/us7000rq1x","detail":"https://earthquake.usgs.gov/fdsnws/event/1/query?eventid=us7000rq1x&format=geojson","felt":null,"cdi":null,"mmi":null,"alert":null,"status":"reviewed","tsunami":0,"sig":312,"net":"us","code":"7000rq1x","ids":",us7000rq1x,","sources":",us,","types":",origin,phase-data,","nst":60,"dmin":0.632,"rms":1.22,"gap":78,"magType":"mb","type":"earthquake","title":"M 4.5 - 54 km SE of Hualien City, Taiwan"},"geometry":{"type":"Point","coordinates":[122.0464,23.6933,19.754]},"id":"us7000rq1x"},
{"type":"Feature","properties":{"mag":4.4,"place":"44 km NE of Hualien City, Taiwan","time":1768669289613,"updated":1776523624040,"tz":null,"url":"https://earthquake.usgs.gov/earthquakes/eventpage/us7000rqb4","detail":"https://earthquake.usgs.gov/fdsnws/event/1/query?eventid=us7000rqb4&format=geojson","felt":1,"cdi":3.4,"mmi":null,"alert":null,"status":"reviewed","tsunami":0,"sig":298,"net":"us","code":"7000rqb4","ids":",us7000rqb4,","sources":",us,","types":",dyfi,moment-tensor,origin,phase-data,","nst":67,"dmin":0.293,"rms":0.62,"gap":55,"magType":"mwr","type":"earthquake","title":"M 4.4 - 44 km NE of Hualien City, Taiwan"},"geometry":{"type":"Point","coordinates":[121.8917,24.2854,3.16]},"id":"us7000rqb4"},
{"type":"Feature","properties":{"mag":4.6,"place":"43 km NE of Hualien City, Taiwan","time":1768726066180,"updated":1776523628040,"tz":null,"url":"https://earthquake.usgs.gov/earthquakes/eventpage/us7000rqed","detail":"https://earthquake.usgs.gov/fdsnws/event/1/query?eventid=us7000rqed&format=geojson","felt":4,"cdi":2.7,"mmi":null,"alert":null,"status":"reviewed","tsunami":0,"sig":327,"net":"us","code":"7000rqed","ids":",us7000rqed,","sources":",us,","types":",dyfi,moment-tensor,origin,phase-data,","nst":51,"dmin":0.277,"rms":0.81,"gap":61,"magType":"mwr","type":"earthquake","title":"M 4.6 - 43 km NE of Hualien City, Taiwan"},"geometry":{"type":"Point","coordinates":[121.8716,24.2879,7.171]},"id":"us7000rqed"},
{"type":"Feature","properties":{"mag":4.1,"place":"43 km NNE of Hualien City, Taiwan","time":1769146870500,"updated":1776788875040,"tz":null,"url":"https://earthquake.usgs.gov/earthquakes/eventpage/us6000s6zf","detail":"https://earthquake.usgs.gov/fdsnws/event/1/query?eventid=us6000s6zf&format=geojson","felt":null,"cdi":null,"mmi":null,"alert":null,"status":"reviewed","tsunami":0,"sig":259,"net":"us","code":"6000s6zf","ids":",us6000s6zf,","sources":",us,","types":",origin,phase-data,","nst":31,"dmin":0.256,"rms":0.8,"gap":75,"magType":"mb","type":"earthquake","title":"M 4.1 - 43 km NNE of Hualien City, Taiwan"},"geometry":{"type":"Point","coordinates":[121.8384,24.3005,12.688]},"id":"us6000s6zf"},
{"type":"Feature","properties":{"mag":4.2,"place":"81 km SW of Yonakuni, Japan","time":1770913325876,"updated":1778090027040,"tz":null,"url":"https://earthquake.usgs.gov/earthquakes/eventpage/us6000s8hv","detail":"https://earthquake.usgs.gov/fdsnws/event/1/query?eventid=us6000s8hv&format=geojson","felt":null,"cdi":null,"mmi":null,"alert":null,"status":"reviewed","tsunami":0,"sig":271,"net":"us","code":"6000s8hv","ids":",us6000s8hv,","sources":",us,","types":",origin,phase-data,","nst":51,"dmin":0.739,"rms":0.69,"gap":40,"magType":"mb","type":"earthquake","title":"M 4.2 - 81 km SW of Yonakuni, Japan"},"geometry":{"type":"Point","coordinates":[122.4365,23.9441,29.121]},"id":"us6000s8hv"},
{"type":"Feature","properties":{"mag":4.2,"place":"31 km ESE of Yilan, Taiwan","time":1771266194880,"updated":1778090037040,"tz":null,"url":"https://earthquake.usgs.gov/earthquakes/eventpage/us6000s9jv","detail":"https://earthquake.usgs.gov/fdsnws/event/1/query?eventid=us6000s9jv&format=geojson","felt":1,"cdi":2.2,"mmi":null,"alert":null,"status":"reviewed","tsunami":0,"sig":272,"net":"us","code":"6000s9jv","ids":",us6000s9jv,","sources":",us,","types":",dyfi,moment-tensor,origin,phase-data,","nst":57,"dmin":0.592,"rms":0.45,"gap":39,"magType":"mwr","type":"earthquake","title":"M 4.2 - 31 km ESE of Yilan, Taiwan"},"geometry":{"type":"Point","coordinates":[122.0372,24.6417,67.301]},"id":"us6000s9jv"},
{"type":"Feature","properties":{"mag":4,"place":"67 km SW of Yonakuni, Japan","time":1771616671882,"updated":1778606884040,"tz":null,"url":"https://earthquake.usgs.gov/earthquakes/eventpage/us6000sai5","detail":"https://earthquake.usgs.gov/fdsnws/event/1/query?eventid=us6000sai5&format=geojson","felt":null,"cdi":null,"mmi":null,"alert":null,"status":"reviewed","tsunami":0,"sig":246,"net":"us","code":"6000sai5","ids":",us6000sai5,","sources":",us,","types":",moment-tensor,origin,phase-data,","nst":60,"dmin":0.612,"rms":0.9,"gap":61,"magType":"mwr","type":"earthquake","title":"M 4.0 - 67 km SW of Yonakuni, Japan"},"geometry":{"type":"Point","coordinates":[122.4685,24.1065,36.404]},"id":"us6000sai5"},
{"type":"Feature","properties":{"mag":4.7,"place":"19 km SE of Yilan, Taiwan","time":1771907835439,"updated":1778606894040,"tz":null,"url":"https://earthquake.usgs.gov/earthquakes/eventpage/us7000rzx8","detail":"https://earthquake.usgs.gov/fdsnws/event/1/query?eventid=us7000rzx8&format=geojson","felt":13,"cdi":3.8,"mmi":null,"alert":null,"status":"reviewed","tsunami":0,"sig":345,"net":"us","code":"7000rzx8","ids":",us7000rzx8,","sources":",us,","types":",dyfi,moment-tensor,origin,phase-data,","nst":142,"dmin":0.481,"rms":0.85,"gap":28,"magType":"mww","type":"earthquake","title":"M 4.7 - 19 km SE of Yilan, Taiwan"},"geometry":{"type":"Point","coordinates":[121.9039,24.6474,72.752]},"id":"us7000rzx8"},
{"type":"Feature","properties":{"mag":4.8,"place":"8 km N of Yujing, Taiwan","time":1772538768825,"updated":1778882561040,"tz":null,"url":"https://earthquake.usgs.gov/earthquakes/eventpage/us7000s1p4","detail":"https://earthquake.usgs.gov/fdsnws/event/1/query?eventid=us7000s1p4&format=geojson","felt":3,"cdi":2.7,"mmi":null,"alert":null,"status":"reviewed","tsunami":0,"sig":355,"net":"us","code":"7000s1p4","ids":",us7000s1p4,","sources":",us,","types":",dyfi,origin,phase-data,","nst":78,"dmin":0.182,"rms":0.52,"gap":47,"magType":"mb","type":"earthquake","title":"M 4.8 - 8 km N of Yujing, Taiwan"},"geometry":{"type":"Point","coordinates":[120.4604,23.2049,10]},"id":"us7000s1p4"},
{"type":"Feature","properties":{"mag":4.1,"place":"8 km NNE of Yujing, Taiwan","time":1772552070199,"updated":1778882562040,"tz":null,"url":"https://earthquake.usgs.gov/earthquakes/eventpage/us7000s1q1","detail":"https://earthquake.usgs.gov/fdsnws/event/1/query?eventid=us7000s1q1&format=geojson","felt":null,"cdi":null,"mmi":null,"alert":null,"status":"reviewed","tsunami":0,"sig":259,"net":"us","code":"7000s1q1","ids":",us7000s1q1,","sources":",us,","types":",moment-tensor,origin,phase-data,","nst":28,"dmin":0.162,"rms":1.02,"gap":84,"magType":"mwr","type":"earthquake","title":"M 4.1 - 8 km NNE of Yujing, Taiwan"},"geometry":{"type":"Point","coordinates":[120.4963,23.1936,10]},"id":"us7000s1q1"},
{"type":"Feature","properties":{"mag":5.1,"place":"28 km S of Hualien City, Taiwan","time":1773317653809,"updated":1779823014040,"tz":null,"url":"https://earthquake.usgs.gov/earthquakes/eventpage/us6000sftk","detail":"https://earthquake.usgs.gov/fdsnws/event/1/query?eventid=us6000sftk&format=geojson","felt":21,"cdi":4.8,"mmi":null,"alert":null,"status":"reviewed","tsunami":0,"sig":410,"net":"us","code":"6000sftk","ids":",us6000sftk,usauto6000sftk,","sources":",us,usauto,","types":",dyfi,internal-moment-tensor,moment-tensor,origin,phase-data,","nst":97,"dmin":0.427,"rms":0.79,"gap":47,"magType":"mww","type":"earthquake","title":"M 5.1 - 28 km S of Hualien City, Taiwan"},"geometry":{"type":"Point","coordinates":[121.5932,23.7234,30.33]},"id":"us6000sftk"},
{"type":"Feature","properties":{"mag":4.8,"place":"56 km SSE of Yilan, Taiwan","time":1773562496417,"updated":1779823018040,"tz":null,"url":"https://earthquake.usgs.gov/earthquakes/eventpage/us6000sgfh","detail":"https://earthquake.usgs.gov/fdsnws/event/1/query?eventid=us6000sgfh&format=geojson","felt":16,"cdi":2.9,"mmi":null,"alert":null,"status":"reviewed","tsunami":0,"sig":359,"net":"us","code":"6000sgfh","ids":",us6000sgfh,usauto6000sgfh,","sources":",us,usauto,","types":",dyfi,internal-moment-tensor,moment-tensor,origin,phase-data,","nst":71,"dmin":0.442,"rms":0.83,"gap":40,"magType":"mwr","type":"earthquake","title":"M 4.8 - 56 km SSE of Yilan, Taiwan"},"geometry":{"type":"Point","coordinates":[122.0493,24.3272,32.097]},"id":"us6000sgfh"},
{"type":"Feature","properties":{"mag":4.1,"place":"83 km E of Hualien City, Taiwan","time":1773722467390,"updated":1779823028040,"tz":null,"url":"https://earthquake.usgs.gov/earthquakes/eventpage/us7000s7v3","detail":"https://earthquake.usgs.gov/fdsnws/event/1/query?eventid=us7000s7v3&format=geojson","felt":null,"cdi":null,"mmi":null,"alert":null,"status":"reviewed","tsunami":0,"sig":259,"net":"us","code":"7000s7v3","ids":",us7000s7v3,","sources":",us,","types":",origin,phase-data,","nst":17,"dmin":0.778,"rms":1.01,"gap":155,"magType":"mb","type":"earthquake","title":"M 4.1 - 83 km E of Hualien City, Taiwan"},"geometry":{"type":"Point","coordinates":[122.4193,23.9052,10]},"id":"us7000s7v3"},
{"type":"Feature","properties":{"mag":4.3,"place":"82 km SW of Yonakuni, Japan","time":1773829124283,"updated":1779823029040,"tz":null,"url":"https://earthquake.usgs.gov/earthquakes/eventpage/us7000s849","detail":"https://earthquake.usgs.gov/fdsnws/event/1/query?eventid=us7000s849&format=geojson","felt":null,"cdi":null,"mmi":null,"alert":null,"status":"reviewed","tsunami":0,"sig":284,"net":"us","code":"7000s849","ids":",us7000s849,","sources":",us,","types":",origin,phase-data,","nst":32,"dmin":0.752,"rms":0.69,"gap":89,"magType":"mb","type":"earthquake","title":"M 4.3 - 82 km SW of Yonakuni, Japan"},"geometry":{"type":"Point","coordinates":[122.4249,23.937,24.126]},"id":"us7000s849"},
{"type":"Feature","properties":{"mag":4.4,"place":"50 km SSW of Hualien City, Taiwan","time":1773973112790,"updated":1780598273040,"tz":null,"url":"https://earthquake.usgs.gov/earthquakes/eventpage/us6000shnq","detail":"https://earthquake.usgs.gov/fdsnws/event/1/query?eventid=us6000shnq&format=geojson","felt":null,"cdi":null,"mmi":null,"alert":null,"status":"reviewed","tsunami":0,"sig":298,"net":"us","code":"6000shnq","ids":",us6000shnq,","sources":",us,","types":",origin,phase-data,","nst":40,"dmin":0.193,"rms":0.64,"gap":90,"magType":"mb","type":"earthquake","title":"M 4.4 - 50 km SSW of Hualien City, Taiwan"},"geometry":{"type":"Point","coordinates":[121.3898,23.5668,15.989]},"id":"us6000shnq"},
{"type":"Feature","properties":{"mag":4.9,"place":"21 km SSE of Hualien City, Taiwan","time":1774013561419,"updated":1780598274040,"tz":null,"url":"https://earthquake.usgs.gov/earthquakes/eventpage/us6000shth","detail":"https://earthquake.usgs.gov/fdsnws/event/1/query?eventid=us6000shth&format=geojson","felt":null,"cdi":null,"mmi":null,"alert":null,"status":"reviewed","tsunami":0,"sig":369,"net":"us","code":"6000shth","ids":",us6000shth,","sources":",us,","types":",origin,phase-data,","nst":118,"dmin":0.387,"rms":0.91,"gap":57,"magType":"mb","type":"earthquake","title":"M 4.9 - 21 km SSE of Hualien City, Taiwan"},"geometry":{"type":"Point","coordinates":[121.6558,23.7894,27.664]},"id":"us6000shth"},
{"type":"Feature","properties":{"mag":4,"place":"85 km S of Hualien City, Taiwan","time":1774498990704,"updated":1781104487040,"tz":null,"url":"https://earthquake.usgs.gov/earthquakes/eventpage/us6000sm4e","detail":"https://earthquake.usgs.gov/fdsnws/event/1/query?eventid=us6000sm4e&format=geojson","felt":null,"cdi":null,"mmi":null,"alert":null,"status":"reviewed","tsunami":0,"sig":246,"net":"us","code":"6000sm4e","ids":",us6000sm4e,","sources":",us,","types":",moment-tensor,origin,phase-data,","nst":39,"dmin":0.331,"rms":0.74,"gap":84,"magType":"mwr","type":"earthquake","title":"M 4.0 - 85 km S of Hualien City, Taiwan"},"geometry":{"type":"Point","coordinates":[121.5963,23.2079,38.496]},"id":"us6000sm4e"},
{"type":"Feature","properties":{"mag":4.3,"place":"13 km SSE of Donggang, Taiwan","time":1774753937461,"updated":1781104495040,"tz":null,"url":"https://earthquake.usgs.gov/earthquakes/eventpage/us7000s8h2","detail":"https://earthquake.usgs.gov/fdsnws/event/1/query?eventid=us7000s8h2&format=geojson","felt":null,"cdi":null,"mmi":null,"alert":null,"status":"reviewed","tsunami":0,"sig":284,"net":"us","code":"7000s8h2","ids":",us7000s8h2,","sources":",us,","types":",moment-tensor,origin,phase-data,","nst":37,"dmin":0.728,"rms":0.65,"gap":101,"magType":"mwr","type":"earthquake","title":"M 4.3 - 13 km SSE of Donggang, Taiwan"},"geometry":{"type":"Point","coordinates":[120.4801,22.3436,10]},"id":"us7000s8h2"},
{"type":"Feature","properties":{"mag":5.2,"place":"4 km NNE of Hualien City, Taiwan","time":1775322899583,"updated":1781975113040,"tz":null,"url":"https://earthquake.usgs.gov/earthquakes/eventpage/us6000smlu","detail":"https://earthquake.usgs.gov/fdsnws/event/1/query?eventid=us6000smlu&format=geojson","felt":37,"cdi":5.2,"mmi":5.654,"alert":"green","status":"reviewed","tsunami":0,"sig":435,"net":"us","code":"6000smlu","ids":",us6000smlu,usauto6000smlu,","sources":",us,usauto,","types":",dyfi,ground-failure,internal-moment-tensor,losspager,moment-tensor,origin,phase-data,shakemap,","nst":224,"dmin":0.162,"rms":0.73,"gap":28,"magType":"mww","type":"earthquake","title":"M 5.2 - 4 km NNE of Hualien City, Taiwan"},"geometry":{"type":"Point","coordinates":[121.6249,24.0134,36.85]},"id":"us6000smlu"},
{"type":"Feature","properties":{"mag":4.4,"place":"9 km NE of Hualien City, Taiwan","time":1775337839531,"updated":1781975114040,"tz":null,"url":"https://earthquake.usgs.gov/earthquakes/eventpage/us6000smnq","detail":"https://earthquake.usgs.gov/fdsnws/event/1/query?eventid=us6000smnq&format=geojson","felt":null,"cdi":null,"mmi":null,"alert":null,"status":"reviewed","tsunami":0,"sig":298,"net":"us","code":"6000smnq","ids":",us6000smnq,","sources":",us,","types":",moment-tensor,origin,phase-data,","nst":52,"dmin":0.138,"rms":0.67,"gap":84,"magType":"mwr","type":"earthquake","title":"M 4.4 - 9 km NE of Hualien City, Taiwan"},"geometry":{"type":"Point","coordinates":[121.6619,24.0497,23]},"id":"us6000smnq"},
{"type":"Feature","properties":{"mag":4.4,"place":"36 km S of Yilan, Taiwan","time":1776079405147,"updated":1782318882040,"tz":null,"url":"https://earthquake.usgs.gov/earthquakes/eventpage/us6000ss3m","detail":"https://earthquake.usgs.gov/fdsnws/event/1/query?eventid=us6000ss3m&format=geojson","felt":null,"cdi":null,"mmi":null,"alert":null,"status":"reviewed","tsunami":0,"sig":298,"net":"us","code":"6000ss3m","ids":",us6000ss3m,","sources":",us,","types":",origin,phase-data,","nst":44,"dmin":0.278,"rms":0.63,"gap":55,"magType":"mb","type":"earthquake","title":"M 4.4 - 36 km S of Yilan, Taiwan"},"geometry":{"type":"Point","coordinates":[121.7119,24.4314,48.046]},"id":"us6000ss3m"},
{"type":"Feature","properties":{"mag":4.6,"place":"8 km ESE of Hualien City, Taiwan","time":1776878772367,"updated":1783042761040,"tz":null,"url":"https://earthquake.usgs.gov/earthquakes/eventpage/us7000sh29","detail":"https://earthquake.usgs.gov/fdsnws/event/1/query?eventid=us7000sh29&format=geojson","felt":null,"cdi":null,"mmi":null,"alert":null,"status":"reviewed","tsunami":0,"sig":326,"net":"us","code":"7000sh29","ids":",us7000sh29,","sources":",us,","types":",origin,phase-data,","nst":91,"dmin":0.233,"rms":0.76,"gap":60,"magType":"mb","type":"earthquake","title":"M 4.6 - 8 km ESE of Hualien City, Taiwan"},"geometry":{"type":"Point","coordinates":[121.6814,23.954,22.078]},"id":"us7000sh29"},
{"type":"Feature","properties":{"mag":4.3,"place":"32 km ESE of Yilan, Taiwan","time":1777042619772,"updated":1783800049040,"tz":null,"url":"https://earthquake.usgs.gov/earthquakes/eventpage/us7000shc4","detail":"https://earthquake.usgs.gov/fdsnws/event/1/query?eventid=us7000shc4&format=geojson","felt":null,"cdi":null,"mmi":null,"alert":null,"status":"reviewed","tsunami":0,"sig":284,"net":"us","code":"7000shc4","ids":",us7000shc4,","sources":",us,","types":",origin,phase-data,","nst":30,"dmin":0.605,"rms":0.72,"gap":64,"magType":"mb","type":"earthquake","title":"M 4.3 - 32 km ESE of Yilan, Taiwan"},"geometry":{"type":"Point","coordinates":[122.0422,24.6219,64.033]},"id":"us7000shc4"},
{"type":"Feature","properties":{"mag":4.1,"place":"9 km ESE of Yilan, Taiwan","time":1777101394149,"updated":1783799880040,"tz":null,"url":"https://earthquake.usgs.gov/earthquakes/eventpage/us6000sss5","detail":"https://earthquake.usgs.gov/fdsnws/event/1/query?eventid=us6000sss5&format=geojson","felt":1,"cdi":2,"mmi":null,"alert":null,"status":"reviewed","tsunami":0,"sig":259,"net":"us","code":"6000sss5","ids":",us6000sss5,","sources":",us,","types":",dyfi,moment-tensor,origin,phase-data,","nst":40,"dmin":0.394,"rms":0.71,"gap":45,"magType":"mwr","type":"earthquake","title":"M 4.1 - 9 km ESE of Yilan, Taiwan"},"geometry":{"type":"Point","coordinates":[121.8432,24.7353,70.488]},"id":"us6000sss5"},
{"type":"Feature","properties":{"mag":5.8,"place":"32 km ENE of Yilan, Taiwan","time":1777639195952,"updated":1784129143040,"tz":null,"url":"https://earthquake.usgs.gov/earthquakes/eventpage/us7000shjp","detail":"https://earthquake.usgs.gov/fdsnws/event/1/query?eventid=us7000shjp&format=geojson","felt":45,"cdi":4.3,"mmi":3.839,"alert":"green","status":"reviewed","tsunami":0,"sig":537,"net":"us","code":"7000shjp","ids":",us7000shjp,usauto7000shjp,","sources":",us,usauto,","types":",dyfi,internal-moment-tensor,losspager,moment-tensor,origin,phase-data,shakemap,","nst":117,"dmin":0.507,"rms":0.83,"gap":22,"magType":"mww","type":"earthquake","title":"M 5.8 - 32 km ENE of Yilan, Taiwan"},"geometry":{"type":"Point","coordinates":[122.0444,24.8743,103]},"id":"us7000shjp"},
{"type":"Feature","properties":{"mag":4.3,"place":"20 km SSE of Yilan, Taiwan","time":1777856712432,"updated":1784129149040,"tz":null,"url":"https://earthquake.usgs.gov/earthquakes/eventpage/us6000sxfp","detail":"https://earthquake.usgs.gov/fdsnws/event/1/query?eventid=us6000sxfp&format=geojson","felt":null,"cdi":null,"mmi":null,"alert":null,"status":"reviewed","tsunami":0,"sig":284,"net":"us","code":"6000sxfp","ids":",us6000sxfp,","sources":",us,","types":",origin,phase-data,","nst":17,"dmin":0.417,"rms":0.46,"gap":105,"magType":"mb","type":"earthquake","title":"M 4.3 - 20 km SSE of Yilan, Taiwan"},"geometry":{"type":"Point","coordinates":[121.8254,24.5886,12.977]},"id":"us6000sxfp"},
{"type":"Feature","properties":{"mag":4.4,"place":"19 km SSE of Yilan, Taiwan","time":1777877961554,"updated":1784129150040,"tz":null,"url":"https://earthquake.usgs.gov/earthquakes/eventpage/us7000si3h","detail":"https://earthquake.usgs.gov/fdsnws/event/1/query?eventid=us7000si3h&format=geojson","felt":null,"cdi":null,"mmi":null,"alert":null,"status":"reviewed","tsunami":0,"sig":298,"net":"us","code":"7000si3h","ids":",us7000si3h,","sources":",us,","types":",origin,phase-data,","nst":54,"dmin":0.428,"rms":0.5,"gap":50,"magType":"mb","type":"earthquake","title":"M 4.4 - 19 km SSE of Yilan, Taiwan"},"geometry":{"type":"Point","coordinates":[121.8401,24.5983,10]},"id":"us7000si3h"},
{"type":"Feature","properties":{"mag":4.3,"place":"35 km ENE of Hualien City, Taiwan","time":1778187454232,"updated":1784398996040,"tz":null,"url":"https://earthquake.usgs.gov/earthquakes/eventpage/us6000sw1q","detail":"https://earthquake.usgs.gov/fdsnws/event/1/query?eventid=us6000sw1q&format=geojson","felt":null,"cdi":null,"mmi":null,"alert":null,"status":"reviewed","tsunami":0,"sig":284,"net":"us","code":"6000sw1q","ids":",us6000sw1q,","sources":",us,","types":",moment-tensor,origin,phase-data,","nst":65,"dmin":0.292,"rms":0.66,"gap":77,"magType":"mwr","type":"earthquake","title":"M 4.3 - 35 km ENE of Hualien City, Taiwan"},"geometry":{"type":"Point","coordinates":[121.9114,24.1374,29.053]},"id":"us6000sw1q"},
{"type":"Feature","properties":{"mag":4.2,"place":"26 km ESE of Yilan, Taiwan","time":1778268399399,"updated":1784398997040,"tz":null,"url":"https://earthquake.usgs.gov/earthquakes/eventpage/us6000swbi","detail":"https://earthquake.usgs.gov/fdsnws/event/1/query?eventid=us6000swbi&format=geojson","felt":1,"cdi":2.2,"mmi":null,"alert":null,"status":"reviewed","tsunami":0,"sig":272,"net":"us","code":"6000swbi","ids":",us6000swbi,","sources":",us,","types":",dyfi,moment-tensor,origin,phase-data,","nst":86,"dmin":0.554,"rms":0.67,"gap":41,"magType":"mwr","type":"earthquake","title":"M 4.2 - 26 km ESE of Yilan, Taiwan"},"geometry":{"type":"Point","coordinates":[121.9851,24.6394,72.452]},"id":"us6000swbi"},
{"type":"Feature","properties":{"mag":5.1,"place":"81 km S of Hualien City, Taiwan","time":1778568812163,"updated":1784399003040,"tz":null,"url":"https://earthquake.usgs.gov/earthquakes/eventpage/us6000sx3h","detail":"https://earthquake.usgs.gov/fdsnws/event/1/query?eventid=us6000sx3h&format=geojson","felt":7,"cdi":3.1,"mmi":null,"alert":null,"status":"reviewed","tsunami":0,"sig":402,"net":"us","code":"6000sx3h","ids":",us6000sx3h,usauto6000sx3h,","sources":",us,usauto,","types":",dyfi,internal-moment-tensor,moment-tensor,origin,phase-data,","nst":102,"dmin":0.26,"rms":0.71,"gap":88,"magType":"mww","type":"earthquake","title":"M 5.1 - 81 km S of Hualien City, Taiwan"},"geometry":{"type":"Point","coordinates":[121.531,23.2462,23.172]},"id":"us6000sx3h"},
{"type":"Feature","properties":{"mag":4.5,"place":"8 km ESE of Hualien City, Taiwan","time":1778669009961,"updated":1784399006040,"tz":null,"url":"https://earthquake.usgs.gov/earthquakes/eventpage/us6000sxef","detail":"https://earthquake.usgs.gov/fdsnws/event/1/query?eventid=us6000sxef&format=geojson","felt":3,"cdi":3.1,"mmi":null,"alert":null,"status":"reviewed","tsunami":0,"sig":312,"net":"us","code":"6000sxef","ids":",us6000sxef,","sources":",us,","types":",dyfi,moment-tensor,origin,phase-data,","nst":116,"dmin":0.238,"rms":0.54,"gap":72,"magType":"mwr","type":"earthquake","title":"M 4.5 - 8 km ESE of Hualien City, Taiwan"},"geometry":{"type":"Point","coordinates":[121.6879,23.9508,20.647]},"id":"us6000sxef"},
{"type":"Feature","properties":{"mag":4.4,"place":"6 km NNW of Puli, Taiwan","time":1778978774443,"updated":1785017570040,"tz":null,"url":"https://earthquake.usgs.gov/earthquakes/eventpage/us6000syaw","detail":"https://earthquake.usgs.gov/fdsnws/event/1/query?eventid=us6000syaw&format=geojson","felt":7,"cdi":2.7,"mmi":null,"alert":null,"status":"reviewed","tsunami":0,"sig":300,"net":"us","code":"6000syaw","ids":",us6000syaw,","sources":",us,","types":",dyfi,moment-tensor,origin,phase-data,","nst":39,"dmin":0.229,"rms":1.05,"gap":76,"magType":"mwr","type":"earthquake","title":"M 4.4 - 6 km NNW of Puli, Taiwan"},"geometry":{"type":"Point","coordinates":[120.9449,24.0173,15.832]},"id":"us6000syaw"},
{"type":"Feature","properties":{"mag":4.3,"place":"75 km SSW of Hualien City, Taiwan","time":1779239518166,"updated":1785017574040,"tz":null,"url":"https://earthquake.usgs.gov/earthquakes/eventpage/us6000syvs","detail":"https://earthquake.usgs.gov/fdsnws/event/1/query?eventid=us6000syvs&format=geojson","felt":1,"cdi":1,"mmi":null,"alert":null,"status":"reviewed","tsunami":0,"sig":285,"net":"us","code":"6000syvs","ids":",us6000syvs,","sources":",us,","types":",dyfi,moment-tensor,origin,phase-data,","nst":34,"dmin":0.147,"rms":1.23,"gap":80,"magType":"mwr","type":"earthquake","title":"M 4.3 - 75 km SSW of Hualien City, Taiwan"},"geometry":{"type":"Point","coordinates":[121.4341,23.3154,29.461]},"id":"us6000syvs"},
{"type":"Feature","properties":{"mag":4.4,"place":"82 km SSW of Hualien City, Taiwan","time":1779279935643,"updated":1785017575040,"tz":null,"url":"https://earthquake.usgs.gov/earthquakes/eventpage/us6000syy7","detail":"https://earthquake.usgs.gov/fdsnws/event/1/query?eventid=us6000syy7&format=geojson","felt":1,"cdi":1,"mmi":null,"alert":null,"status":"reviewed","tsunami":0,"sig":298,"net":"us","code":"6000syy7","ids":",us6000syy7,","sources":",us,","types":",dyfi,moment-tensor,origin,phase-data,","nst":70,"dmin":0.199,"rms":0.8,"gap":65,"magType":"mwr","type":"earthquake","title":"M 4.4 - 82 km SSW of Hualien City, Taiwan"},"geometry":{"type":"Point","coordinates":[121.4413,23.2435,26.034]},"id":"us6000syy7"},
{"type":"Feature","properties":{"mag":4.2,"place":"74 km SW of Yonakuni, Japan","time":1780618880527,"updated":1786814831040,"tz":null,"url":"https://earthquake.usgs.gov/earthquakes/eventpage/us7000stqs","detail":"https://earthquake.usgs.gov/fdsnws/event/1/query?eventid=us7000stqs&format=geojson","felt":null,"cdi":null,"mmi":null,"alert":null,"status":"reviewed","tsunami":0,"sig":271,"net":"us","code":"7000stqs","ids":",us7000stqs,","sources":",us,","types":",origin,phase-data,","nst":20,"dmin":0.674,"rms":1.32,"gap":149,"magType":"mb","type":"earthquake","title":"M 4.2 - 74 km SW of Yonakuni, Japan"},"geometry":{"type":"Point","coordinates":[122.4602,24.0164,40.229]},"id":"us7000stqs"},
{"type":"Feature","properties":{"mag":4,"place":"87 km SE of Hualien City, Taiwan","time":1781204238400,"updated":1782337207040,"tz":null,"url":"https://earthquake.usgs.gov/earthquakes/eventpage/us7000ssb0","detail":"https://earthquake.usgs.gov/fdsnws/event/1/query?eventid=us7000ssb0&format=geojson","felt":null,"cdi":null,"mmi":null,"alert":null,"status":"reviewed","tsunami":0,"sig":246,"net":"us","code":"7000ssb0","ids":",us7000ssb0,","sources":",us,","types":",moment-tensor,origin,phase-data,","nst":27,"dmin":0.809,"rms":1.09,"gap":97,"magType":"mwr","type":"earthquake","title":"M 4.0 - 87 km SE of Hualien City, Taiwan"},"geometry":{"type":"Point","coordinates":[122.1773,23.3913,10]},"id":"us7000ssb0"},
{"type":"Feature","properties":{"mag":4.2,"place":"75 km E of Hualien City, Taiwan","time":1781346398729,"updated":1784701180040,"tz":null,"url":"https://earthquake.usgs.gov/earthquakes/eventpage/us7000ssns","detail":"https://earthquake.usgs.gov/fdsnws/event/1/query?eventid=us7000ssns&format=geojson","felt":null,"cdi":null,"mmi":null,"alert":null,"status":"reviewed","tsunami":0,"sig":271,"net":"us","code":"7000ssns","ids":",us7000ssns,","sources":",us,","types":",moment-tensor,origin,phase-data,","nst":63,"dmin":0.687,"rms":1.03,"gap":69,"magType":"mwr","type":"earthquake","title":"M 4.2 - 75 km E of Hualien City, Taiwan"},"geometry":{"type":"Point","coordinates":[122.3409,24.0865,24.144]},"id":"us7000ssns"},
{"type":"Feature","properties":{"mag":4.2,"place":"29 km SSW of Yilan, Taiwan","time":1781406904390,"updated":1784238654040,"tz":null,"url":"https://earthquake.usgs.gov/earthquakes/eventpage/us7000sss7","detail":"https://earthquake.usgs.gov/fdsnws/event/1/query?eventid=us7000sss7&format=geojson","felt":null,"cdi":null,"mmi":null,"alert":null,"status":"reviewed","tsunami":0,"sig":271,"net":"us","code":"7000sss7","ids":",us7000sss7,","sources":",us,","types":",origin,phase-data,","nst":20,"dmin":0.314,"rms":1.16,"gap":109,"magType":"mb","type":"earthquake","title":"M 4.2 - 29 km SSW of Yilan, Taiwan"},"geometry":{"type":"Point","coordinates":[121.668,24.5022,35]},"id":"us7000sss7"},
{"type":"Feature","properties":{"mag":4.2,"place":"36 km ENE of Yilan, Taiwan","time":1782767701917,"updated":1783456492040,"tz":null,"url":"https://earthquake.usgs.gov/earthquakes/eventpage/us6000t931","detail":"https://earthquake.usgs.gov/fdsnws/event/1/query?eventid=us6000t931&format=geojson","felt":null,"cdi":null,"mmi":null,"alert":null,"status":"reviewed","tsunami":0,"sig":271,"net":"us","code":"6000t931","ids":",us6000t931,","sources":",us,","types":",moment-tensor,origin,phase-data,","nst":47,"dmin":0.56,"rms":0.5,"gap":45,"magType":"mwr","type":"earthquake","title":"M 4.2 - 36 km ENE of Yilan, Taiwan"},"geometry":{"type":"Point","coordinates":[122.097,24.843,97.578]},"id":"us6000t931"},
{"type":"Feature","properties":{"mag":4.3,"place":"48 km ESE of Jiufen, Taiwan","time":1783278694222,"updated":1783864061040,"tz":null,"url":"https://earthquake.usgs.gov/earthquakes/eventpage/us6000tab1","detail":"https://earthquake.usgs.gov/fdsnws/event/1/query?eventid=us6000tab1&format=geojson","felt":null,"cdi":null,"mmi":null,"alert":null,"status":"reviewed","tsunami":0,"sig":284,"net":"us","code":"6000tab1","ids":",us6000tab1,","sources":",us,","types":",origin,phase-data,","nst":54,"dmin":0.722,"rms":0.56,"gap":33,"magType":"mb","type":"earthquake","title":"M 4.3 - 48 km ESE of Jiufen, Taiwan"},"geometry":{"type":"Point","coordinates":[122.2926,24.9528,127.264]},"id":"us6000tab1"},
{"type":"Feature","properties":{"mag":4.1,"place":"45 km S of Hualien City, Taiwan","time":1784753829879,"updated":1786731934040,"tz":null,"url":"https://earthquake.usgs.gov/earthquakes/eventpage/us7000t2iy","detail":"https://earthquake.usgs.gov/fdsnws/event/1/query?eventid=us7000t2iy&format=geojson","felt":null,"cdi":null,"mmi":null,"alert":null,"status":"reviewed","tsunami":0,"sig":259,"net":"us","code":"7000t2iy","ids":",us7000t2iy,","sources":",us,","types":",origin,phase-data,","nst":31,"dmin":0.316,"rms":0.85,"gap":59,"magType":"mb","type":"earthquake","title":"M 4.1 - 45 km S of Hualien City, Taiwan"},"geometry":{"type":"Point","coordinates":[121.5859,23.5655,27.376]},"id":"us7000t2iy"},
{"type":"Feature","properties":{"mag":4.7,"place":"9 km ESE of Pinglin, Taiwan","time":1785069377489,"updated":1788007464040,"tz":null,"url":"https://earthquake.usgs.gov/earthquakes/eventpage/us7000t3gt","detail":"https://earthquake.usgs.gov/fdsnws/event/1/query?eventid=us7000t3gt&format=geojson","felt":21,"cdi":3.4,"mmi":null,"alert":null,"status":"reviewed","tsunami":0,"sig":347,"net":"us","code":"7000t3gt","ids":",us7000t3gt,","sources":",us,","types":",dyfi,moment-tensor,origin,phase-data,","nst":105,"dmin":0.276,"rms":0.76,"gap":25,"magType":"mww","type":"earthquake","title":"M 4.7 - 9 km ESE of Pinglin, Taiwan"},"geometry":{"type":"Point","coordinates":[121.7883,24.8953,95.992]},"id":"us7000t3gt"},
{"type":"Feature","properties":{"mag":4.5,"place":"10 km NE of Yujing, Taiwan","time":1785118490866,"updated":1786675683343,"tz":null,"url":"https://earthquake.usgs.gov/earthquakes/eventpage/us7000t3kn","detail":"https://earthquake.usgs.gov/fdsnws/event/1/query?eventid=us7000t3kn&format=geojson","felt":1,"cdi":2.2,"mmi":null,"alert":null,"status":"reviewed","tsunami":0,"sig":312,"net":"us","code":"7000t3kn","ids":",us7000t3kn,","sources":",us,","types":",dyfi,origin,phase-data,","nst":59,"dmin":0.144,"rms":1.06,"gap":68,"magType":"mb","type":"earthquake","title":"M 4.5 - 10 km NE of Yujing, Taiwan"},"geometry":{"type":"Point","coordinates":[120.5417,23.1812,22.804]},"id":"us7000t3kn"},
{"type":"Feature","properties":{"mag":4.5,"place":"98 km S of Hualien City, Taiwan","time":1785430714553,"updated":1787256607040,"tz":null,"url":"https://earthquake.usgs.gov/earthquakes/eventpage/us6000th0z","detail":"https://earthquake.usgs.gov/fdsnws/event/1/query?eventid=us6000th0z&format=geojson","felt":null,"cdi":null,"mmi":null,"alert":null,"status":"reviewed","tsunami":0,"sig":312,"net":"us","code":"6000th0z","ids":",us6000th0z,","sources":",us,","types":",origin,phase-data,","nst":53,"dmin":0.341,"rms":1.17,"gap":90,"magType":"mb","type":"earthquake","title":"M 4.5 - 98 km S of Hualien City, Taiwan"},"geometry":{"type":"Point","coordinates":[121.4756,23.0923,10]},"id":"us6000th0z"},
{"type":"Feature","properties":{"mag":4.9,"place":"62 km ESE of Yilan, Taiwan","time":1786793415229,"updated":1787470180954,"tz":null,"url":"https://earthquake.usgs.gov/earthquakes/eventpage/us6000tl0a","detail":"https://earthquake.usgs.gov/fdsnws/event/1/query?eventid=us6000tl0a&format=geojson","felt":1,"cdi":2,"mmi":null,"alert":null,"status":"reviewed","tsunami":0,"sig":370,"net":"us","code":"6000tl0a","ids":",us6000tl0a,","sources":",us,","types":",dyfi,origin,phase-data,","nst":53,"dmin":0.653,"rms":0.81,"gap":56,"magType":"mb","type":"earthquake","title":"M 4.9 - 62 km ESE of Yilan, Taiwan"},"geometry":{"type":"Point","coordinates":[122.2948,24.486,65.242]},"id":"us6000tl0a"},
{"type":"Feature","properties":{"mag":4.4,"place":"49 km SE of Yilan, Taiwan","time":1787370014817,"updated":1787372280095,"tz":null,"url":"https://earthquake.usgs.gov/earthquakes/eventpage/us6000tmqf","detail":"https://earthquake.usgs.gov/fdsnws/event/1/query?eventid=us6000tmqf&format=geojson","felt":4,"cdi":2.7,"mmi":null,"alert":null,"status":"reviewed","tsunami":0,"sig":299,"net":"us","code":"6000tmqf","ids":",us6000tmqf,","sources":",us,","types":",dyfi,moment-tensor,origin,phase-data,","nst":40,"dmin":0.509,"rms":0.94,"gap":56,"magType":"mwr","type":"earthquake","title":"M 4.4 - 49 km SE of Yilan, Taiwan"},"geometry":{"type":"Point","coordinates":[122.0811,24.4244,38.316]},"id":"us6000tmqf"},
{"type":"Feature","properties":{"mag":5.5,"place":"108 km NE of Hengchun, Taiwan","time":1787641210853,"updated":1787728167608,"tz":null,"url":"https://earthquake.usgs.gov/earthquakes/eventpage/us6000tnbm","detail":"https://earthquake.usgs.gov/fdsnws/event/1/query?eventid=us6000tnbm&format=geojson","felt":14,"cdi":3.8,"mmi":5.453,"alert":"green","status":"reviewed","tsunami":0,"sig":471,"net":"us","code":"6000tnbm","ids":",us6000tnbm,usauto6000tnbm,","sources":",us,usauto,","types":",dyfi,ground-failure,internal-moment-tensor,losspager,moment-tensor,origin,phase-data,shakemap,","nst":101,"dmin":0.5,"rms":1.05,"gap":28,"magType":"mww","type":"earthquake","title":"M 5.5 - 108 km NE of Hengchun, Taiwan"},"geometry":{"type":"Point","coordinates":[121.5709,22.6053,14.608]},"id":"us6000tnbm"},
{"type":"Feature","properties":{"mag":4.6,"place":"106 km ESE of Yujing, Taiwan","time":1787780840969,"updated":1787835134370,"tz":null,"url":"https://earthquake.usgs.gov/earthquakes/eventpage/us7000tc37","detail":"https://earthquake.usgs.gov/fdsnws/event/1/query?eventid=us7000tc37&format=geojson","felt":1,"cdi":2.2,"mmi":null,"alert":null,"status":"reviewed","tsunami":0,"sig":326,"net":"us","code":"7000tc37","ids":",us7000tc37,","sources":",us,","types":",dyfi,moment-tensor,origin,phase-data,","nst":48,"dmin":0.342,"rms":0.69,"gap":103,"magType":"mwr","type":"earthquake","title":"M 4.6 - 106 km ESE of Yujing, Taiwan"},"geometry":{"type":"Point","coordinates":[121.4502,22.8296,42.104]},"id":"us7000tc37"}],"bbox":[120.4604,22.3436,3.16,122.4732,24.9528,127.264]}