{"features":[{"geometry":{"coordinates":[-116.30338,32.9546],"type":"Point"},"properties":{"carrier_key":"socal_coachella","layer":"station","network":"CI","pool_member":true,"registry_selected":true,"segment_name":"coachella_south","station_id":"CI.ACP"},"type":"Feature"},{"geometry":{"coordinates":[-116.808391,33.503277],"type":"Point"},"properties":{"carrier_key":"socal_coachella","layer":"station","network":"CI","pool_member":true,"registry_selected":true,"segment_name":"coachella_south","station_id":"CI.ANG"},"type":"Feature"},{"geometry":{"coordinates":[-116.67215,32.68005],"type":"Point"},"properties":{"carrier_key":"socal_coachella","layer":"station","network":"CI","pool_member":true,"registry_selected":true,"segment_name":"coachella_south","station_id":"CI.BAR"},"type":"Feature"},{"geometry":{"coordinates":[-115.45366,33.65515],"type":"Point"},"properties":{"carrier_key":"socal_coachella","layer":"station","network":"CI","pool_member":true,"registry_selected":true,"segment_name":"brawley_seismic_zone","station_id":"CI.BC3"},"type":"Feature"},{"geometry":{"coordinates":[-115.9982,34.0006],"type":"Point"},"properties":{"carrier_key":"socal_coachella","layer":"station","network":"CI","pool_member":true,"registry_selected":true,"segment_name":"coachella_north","station_id":"CI.BEL"},"type":"Feature"},{"geometry":{"coordinates":[-116.38993,34.06931],"type":"Point"},"properties":{"carrier_key":"socal_coachella","layer":"station","network":"CI","pool_member":true,"registry_selected":true,"segment_name":"coachella_north","station_id":"CI.BLA2"},"type":"Feature"},{"geometry":{"coordinates":[-115.72963,33.36465],"type":"Point"},"properties":{"carrier_key":"socal_coachella","layer":"station","network":"CI","pool_member":true,"registry_selected":true,"segment_name":"brawley_seismic_zone","station_id":"CI.BOM"},"type":"Feature"},{"geometry":{"coordinates":[-116.41716,33.2682],"type":"Point"},"properties":{"carrier_key":"socal_coachella","layer":"station","network":"CI","pool_member":true,"registry_selected":true,"segment_name":"coachella_south","station_id":"CI.BOR"},"type":"Feature"},{"geometry":{"coordinates":[-116.73734,33.56537],"type":"Point"},"properties":{"carrier_key":"socal_coachella","layer":"station","network":"CI","pool_member":true,"registry_selected":false,"segment_name":null,"station_id":"CI.CARY"},"type":"Feature"},{"geometry":{"coordinates":[-115.12339,32.86341],"type":"Point"},"properties":{"carrier_key":"socal_coachella","layer":"station","network":"CI","pool_member":true,"registry_selected":true,"segment_name":"brawley_seismic_zone","station_id":"CI.COA"},"type":"Feature"},{"geometry":{"coordinates":[-115.96918,32.88682],"type":"Point"},"properties":{"carrier_key":"socal_coachella","layer":"station","network":"CI","pool_member":true,"registry_selected":true,"segment_name":"brawley_seismic_zone","station_id":"CI.CRR"},"type":"Feature"},{"geometry":{"coordinates":[-116.5956,33.6442],"type":"Point"},"properties":{"carrier_key":"socal_coachella","layer":"station","network":"CI","pool_member":true,"registry_selected":true,"segment_name":"coachella_north","station_id":"CI.CSH"},"type":"Feature"},{"geometry":{"coordinates":[-115.99006,33.65516],"type":"Point"},"properties":{"carrier_key":"socal_coachella","layer":"station","network":"CI","pool_member":true,"registry_selected":true,"segment_name":"coachella_north","station_id":"CI.CTC"},"type":"Feature"},{"geometry":{"coordinates":[-115.87214,33.67728],"type":"Point"},"properties":{"carrier_key":"socal_coachella","layer":"station","network":"CI","pool_member":true,"registry_selected":false,"segment_name":null,"station_id":"CI.CTW"},"type":"Feature"},{"geometry":{"coordinates":[-116.627222,32.906111],"type":"Point"},"properties":{"carrier_key":"socal_coachella","layer":"station","network":"CI","pool_member":true,"registry_selected":false,"segment_name":null,"station_id":"CI.CYP"},"type":"Feature"},{"geometry":{"coordinates":[-116.78409,33.91375],"type":"Point"},"properties":{"carrier_key":"socal_coachella","layer":"station","network":"CI","pool_member":true,"registry_selected":false,"segment_name":null,"station_id":"CI.CZN"},"type":"Feature"},{"geometry":{"coordinates":[-116.57794,33.93597],"type":"Point"},"properties":{"carrier_key":"socal_coachella","layer":"station","network":"CI","pool_member":true,"registry_selected":false,"segment_name":null,"station_id":"CI.DEV"},"type":"Feature"},{"geometry":{"coordinates":[-116.63056,33.56667],"type":"Point"},"properties":{"carrier_key":"socal_coachella","layer":"station","network":"CI","pool_member":true,"registry_selected":false,"segment_name":null,"station_id":"CI.DNR"},"type":"Feature"},{"geometry":{"coordinates":[-116.94187,32.99889],"type":"Point"},"properties":{"carrier_key":"socal_coachella","layer":"station","network":"CI","pool_member":true,"registry_selected":false,"segment_name":null,"station_id":"CI.DPP"},"type":"Feature"},{"geometry":{"coordinates":[-115.44679,32.80532],"type":"Point"},"properties":{"carrier_key":"socal_coachella","layer":"station","network":"CI","pool_member":true,"registry_selected":false,"segment_name":null,"station_id":"CI.DRE"},"type":"Feature"},{"geometry":{"coordinates":[-115.620889,32.765278],"type":"Point"},"properties":{"carrier_key":"socal_coachella","layer":"station","network":"CI","pool_member":true,"registry_selected":false,"segment_name":null,"station_id":"CI.ELO"},"type":"Feature"},{"geometry":{"coordinates":[-116.84566,32.89083],"type":"Point"},"properties":{"carrier_key":"socal_coachella","layer":"station","network":"CI","pool_member":true,"registry_selected":false,"segment_name":null,"station_id":"CI.EML"},"type":"Feature"},{"geometry":{"coordinates":[-115.82273,33.11652],"type":"Point"},"properties":{"carrier_key":"socal_coachella","layer":"station","network":"CI","pool_member":true,"registry_selected":false,"segment_name":null,"station_id":"CI.ERR"},"type":"Feature"},{"geometry":{"coordinates":[-116.93588,34.09355],"type":"Point"},"properties":{"carrier_key":"socal_coachella","layer":"station","network":"CI","pool_member":true,"registry_selected":false,"segment_name":null,"station_id":"CI.FHO"},"type":"Feature"},{"geometry":{"coordinates":[-115.63835,33.40209],"type":"Point"},"properties":{"carrier_key":"socal_coachella","layer":"station","network":"CI","pool_member":true,"registry_selected":false,"segment_name":null,"station_id":"CI.FRK"},"type":"Feature"},{"geometry":{"coordinates":[-115.63889,33.70734],"type":"Point"},"properties":{"carrier_key":"socal_coachella","layer":"station","network":"CI","pool_member":true,"registry_selected":false,"segment_name":null,"station_id":"CI.HAY"},"type":"Feature"},{"geometry":{"coordinates":[-116.22152,33.79678],"type":"Point"},"properties":{"carrier_key":"socal_coachella","layer":"station","network":"CI","pool_member":true,"registry_selected":false,"segment_name":null,"station_id":"CI.IDO"},"type":"Feature"},{"geometry":{"coordinates":[-116.71536,33.74642],"type":"Point"},"properties":{"carrier_key":"socal_coachella","layer":"station","network":"CI","pool_member":true,"registry_selected":false,"segment_name":null,"station_id":"CI.IDY"},"type":"Feature"},{"geometry":{"coordinates":[-116.10948,32.65012],"type":"Point"},"properties":{"carrier_key":"socal_coachella","layer":"station","network":"CI","pool_member":true,"registry_selected":false,"segment_name":null,"station_id":"CI.IKP"},"type":"Feature"},{"geometry":{"coordinates":[-115.56071,32.90147],"type":"Point"},"properties":{"carrier_key":"socal_coachella","layer":"station","network":"CI","pool_member":true,"registry_selected":false,"segment_name":null,"station_id":"CI.IMP"},"type":"Feature"},{"geometry":{"coordinates":[-116.59755,33.08098],"type":"Point"},"properties":{"carrier_key":"socal_coachella","layer":"station","network":"CI","pool_member":true,"registry_selected":false,"segment_name":null,"station_id":"CI.JEM"},"type":"Feature"},{"geometry":{"coordinates":[-116.03785,34.12644],"type":"Point"},"properties":{"carrier_key":"socal_coachella","layer":"station","network":"CI","pool_member":true,"registry_selected":false,"segment_name":null,"station_id":"CI.JTH"},"type":"Feature"},{"geometry":{"coordinates":[-116.1734,33.92545],"type":"Point"},"properties":{"carrier_key":"socal_coachella","layer":"station","network":"CI","pool_member":true,"registry_selected":false,"segment_name":null,"station_id":"CI.KYV"},"type":"Feature"},{"geometry":{"coordinates":[-116.75876,33.23598],"type":"Point"},"properties":{"carrier_key":"socal_coachella","layer":"station","network":"CI","pool_member":true,"registry_selected":false,"segment_name":null,"station_id":"CI.LKH"},"type":"Feature"},{"geometry":{"coordinates":[-116.7548,32.70333],"type":"Point"},"properties":{"carrier_key":"socal_coachella","layer":"station","network":"CI","pool_member":true,"registry_selected":false,"segment_name":null,"station_id":"CI.LYP"},"type":"Feature"},{"geometry":{"coordinates":[-116.36874,33.81841],"type":"Point"},"properties":{"carrier_key":"socal_coachella","layer":"station","network":"CI","pool_member":true,"registry_selected":false,"segment_name":null,"station_id":"CI.MGE"},"type":"Feature"},{"geometry":{"coordinates":[-116.64795,34.03852],"type":"Point"},"properties":{"carrier_key":"socal_coachella","layer":"station","network":"CI","pool_member":true,"registry_selected":false,"segment_name":null,"station_id":"CI.MSC"},"type":"Feature"},{"geometry":{"coordinates":[-116.64727,33.19915],"type":"Point"},"properties":{"carrier_key":"socal_coachella","layer":"station","network":"CI","pool_member":true,"registry_selected":false,"segment_name":null,"station_id":"CI.MTG"},"type":"Feature"},{"geometry":{"coordinates":[-115.94586,33.55553],"type":"Point"},"properties":{"carrier_key":"socal_coachella","layer":"station","network":"CI","pool_member":true,"registry_selected":false,"segment_name":null,"station_id":"CI.NSS2"},"type":"Feature"},{"geometry":{"coordinates":[-116.01931,32.74755],"type":"Point"},"properties":{"carrier_key":"socal_coachella","layer":"station","network":"CI","pool_member":true,"registry_selected":false,"segment_name":null,"station_id":"CI.OCP"},"type":"Feature"},{"geometry":{"coordinates":[-116.86265,33.35361],"type":"Point"},"properties":{"carrier_key":"socal_coachella","layer":"station","network":"CI","pool_member":true,"registry_selected":false,"segment_name":null,"station_id":"CI.PLM"},"type":"Feature"},{"geometry":{"coordinates":[-115.977744,33.17349],"type":"Point"},"properties":{"carrier_key":"socal_coachella","layer":"station","network":"CI","pool_member":true,"registry_selected":false,"segment_name":null,"station_id":"CI.PLR"},"type":"Feature"},{"geometry":{"coordinates":[-116.37769,33.64785],"type":"Point"},"properties":{"carrier_key":"socal_coachella","layer":"station","network":"CI","pool_member":true,"registry_selected":false,"segment_name":null,"station_id":"CI.PMD"},"type":"Feature"},{"geometry":{"coordinates":[-116.92382,33.68708],"type":"Point"},"properties":{"carrier_key":"socal_coachella","layer":"station","network":"CI","pool_member":true,"registry_selected":false,"segment_name":null,"station_id":"CI.POB2"},"type":"Feature"},{"geometry":{"coordinates":[-116.55026,33.82393],"type":"Point"},"properties":{"carrier_key":"socal_coachella","layer":"station","network":"CI","pool_member":true,"registry_selected":false,"segment_name":null,"station_id":"CI.PSD"},"type":"Feature"},{"geometry":{"coordinates":[-116.3096,33.36237],"type":"Point"},"properties":{"carrier_key":"socal_coachella","layer":"station","network":"CI","pool_member":true,"registry_selected":false,"segment_name":null,"station_id":"CI.RCR"},"type":"Feature"},{"geometry":{"coordinates":[-115.62257,33.18313],"type":"Point"},"properties":{"carrier_key":"socal_coachella","layer":"station","network":"CI","pool_member":true,"registry_selected":false,"segment_name":null,"station_id":"CI.RXH"},"type":"Feature"},{"geometry":{"coordinates":[-116.94241,32.73561],"type":"Point"},"properties":{"carrier_key":"socal_coachella","layer":"station","network":"CI","pool_member":true,"registry_selected":false,"segment_name":null,"station_id":"CI.SDR"},"type":"Feature"},{"geometry":{"coordinates":[-115.86643,33.48519],"type":"Point"},"properties":{"carrier_key":"socal_coachella","layer":"station","network":"CI","pool_member":true,"registry_selected":false,"segment_name":null,"station_id":"CI.SLB"},"type":"Feature"},{"geometry":{"coordinates":[-116.25399,33.19269],"type":"Point"},"properties":{"carrier_key":"socal_coachella","layer":"station","network":"CI","pool_member":true,"registry_selected":false,"segment_name":null,"station_id":"CI.SLH"},"type":"Feature"},{"geometry":{"coordinates":[-116.79737,33.83359],"type":"Point"},"properties":{"carrier_key":"socal_coachella","layer":"station","network":"CI","pool_member":true,"registry_selected":false,"segment_name":null,"station_id":"CI.SLR"},"type":"Feature"},{"geometry":{"coordinates":[-116.80778,34.03515],"type":"Point"},"properties":{"carrier_key":"socal_coachella","layer":"station","network":"CI","pool_member":true,"registry_selected":false,"segment_name":null,"station_id":"CI.SNO"},"type":"Feature"},{"geometry":{"coordinates":[-115.43602,32.86184],"type":"Point"},"properties":{"carrier_key":"socal_coachella","layer":"station","network":"CI","pool_member":true,"registry_selected":false,"segment_name":null,"station_id":"CI.SNR"},"type":"Feature"},{"geometry":{"coordinates":[-116.09718,32.79184],"type":"Point"},"properties":{"carrier_key":"socal_coachella","layer":"station","network":"CI","pool_member":true,"registry_selected":false,"segment_name":null,"station_id":"CI.SWP"},"type":"Feature"},{"geometry":{"coordinates":[-115.79988,32.94508],"type":"Point"},"properties":{"carrier_key":"socal_coachella","layer":"station","network":"CI","pool_member":true,"registry_selected":false,"segment_name":null,"station_id":"CI.SWS"},"type":"Feature"},{"geometry":{"coordinates":[-116.07734,33.65066],"type":"Point"},"properties":{"carrier_key":"socal_coachella","layer":"station","network":"CI","pool_member":true,"registry_selected":false,"segment_name":null,"station_id":"CI.THM"},"type":"Feature"},{"geometry":{"coordinates":[-116.22584,33.57526],"type":"Point"},"properties":{"carrier_key":"socal_coachella","layer":"station","network":"CI","pool_member":true,"registry_selected":false,"segment_name":null,"station_id":"CI.TOR"},"type":"Feature"},{"geometry":{"coordinates":[-116.41064,32.97181],"type":"Point"},"properties":{"carrier_key":"socal_coachella","layer":"station","network":"CI","pool_member":true,"registry_selected":false,"segment_name":null,"station_id":"CI.VLO"},"type":"Feature"},{"geometry":{"coordinates":[-116.40876,33.94068],"type":"Point"},"properties":{"carrier_key":"socal_coachella","layer":"station","network":"CI","pool_member":true,"registry_selected":false,"segment_name":null,"station_id":"CI.WWC"},"type":"Feature"},{"geometry":{"coordinates":[-115.57888,33.27884],"type":"Point"},"properties":{"carrier_key":"socal_coachella","layer":"station","network":"CI","pool_member":true,"registry_selected":false,"segment_name":null,"station_id":"CI.WWF"},"type":"Feature"},{"geometry":{"coordinates":[29.7383,40.4332],"type":"Point"},"properties":{"carrier_key":"istanbul_marmara","layer":"station","network":"KO","pool_member":true,"registry_selected":true,"segment_name":"izmit","station_id":"KO.ADVT"},"type":"Feature"},{"geometry":{"coordinates":[37.9703,38.3618],"type":"Point"},"properties":{"carrier_key":"turkey_kahramanmaras","layer":"station","network":"KO","pool_member":true,"registry_selected":true,"segment_name":"east_anatolian_north","station_id":"KO.AKDG"},"type":"Feature"},{"geometry":{"coordinates":[38.2639,38.7763],"type":"Point"},"properties":{"carrier_key":"turkey_kahramanmaras","layer":"station","network":"KO","pool_member":true,"registry_selected":true,"segment_name":"east_anatolian_north","station_id":"KO.ARGN"},"type":"Feature"},{"geometry":{"coordinates":[28.866,40.5683],"type":"Point"},"properties":{"carrier_key":"istanbul_marmara","layer":"station","network":"KO","pool_member":true,"registry_selected":false,"segment_name":null,"station_id":"KO.ARMT"},"type":"Feature"},{"geometry":{"coordinates":[28.773,41.181],"type":"Point"},"properties":{"carrier_key":"istanbul_marmara","layer":"station","network":"KO","pool_member":true,"registry_selected":false,"segment_name":null,"station_id":"KO.BGKT"},"type":"Feature"},{"geometry":{"coordinates":[35.8472,38.8521],"type":"Point"},"properties":{"carrier_key":"turkey_kahramanmaras","layer":"station","network":"KO","pool_member":true,"registry_selected":true,"segment_name":"east_anatolian_central","station_id":"KO.BNN"},"type":"Feature"},{"geometry":{"coordinates":[27.981,40.9902],"type":"Point"},"properties":{"carrier_key":"istanbul_marmara","layer":"station","network":"KO","pool_member":true,"registry_selected":true,"segment_name":"marmara_west","station_id":"KO.BOTS"},"type":"Feature"},{"geometry":{"coordinates":[29.8377,40.2018],"type":"Point"},"properties":{"carrier_key":"istanbul_marmara","layer":"station","network":"KO","pool_member":true,"registry_selected":false,"segment_name":null,"station_id":"KO.CAVI"},"type":"Feature"},{"geometry":{"coordinates":[35.7478,37.0105],"type":"Point"},"properties":{"carrier_key":"turkey_kahramanmaras","layer":"station","network":"KO","pool_member":true,"registry_selected":false,"segment_name":null,"station_id":"KO.CEYT"},"type":"Feature"},{"geometry":{"coordinates":[28.5072,41.2373],"type":"Point"},"properties":{"carrier_key":"istanbul_marmara","layer":"station","network":"KO","pool_member":true,"registry_selected":false,"segment_name":null,"station_id":"KO.CTKS"},"type":"Feature"},{"geometry":{"coordinates":[37.4832,38.5712],"type":"Point"},"properties":{"carrier_key":"turkey_kahramanmaras","layer":"station","network":"KO","pool_member":true,"registry_selected":false,"segment_name":null,"station_id":"KO.DARE"},"type":"Feature"},{"geometry":{"coordinates":[40.1393,37.9532],"type":"Point"},"properties":{"carrier_key":"turkey_kahramanmaras","layer":"station","network":"KO","pool_member":true,"registry_selected":false,"segment_name":null,"station_id":"KO.DYBB"},"type":"Feature"},{"geometry":{"coordinates":[27.8618,40.3465],"type":"Point"},"properties":{"carrier_key":"istanbul_marmara","layer":"station","network":"KO","pool_member":true,"registry_selected":false,"segment_name":null,"station_id":"KO.EDC"},"type":"Feature"},{"geometry":{"coordinates":[37.2096,37.1721],"type":"Point"},"properties":{"carrier_key":"turkey_kahramanmaras","layer":"station","network":"KO","pool_member":true,"registry_selected":true,"segment_name":"east_anatolian_south","station_id":"KO.GAZ"},"type":"Feature"},{"geometry":{"coordinates":[27.3275,40.7479],"type":"Point"},"properties":{"carrier_key":"istanbul_marmara","layer":"station","network":"KO","pool_member":true,"registry_selected":true,"segment_name":"izmit","station_id":"KO.GAZK"},"type":"Feature"},{"geometry":{"coordinates":[29.2116,40.4646],"type":"Point"},"properties":{"carrier_key":"istanbul_marmara","layer":"station","network":"KO","pool_member":true,"registry_selected":true,"segment_name":"marmara_central","station_id":"KO.GEML"},"type":"Feature"},{"geometry":{"coordinates":[30.5152,40.432],"type":"Point"},"properties":{"carrier_key":"istanbul_marmara","layer":"station","network":"KO","pool_member":true,"registry_selected":true,"segment_name":"izmit","station_id":"KO.GULT"},"type":"Feature"},{"geometry":{"coordinates":[29.6729,40.8009],"type":"Point"},"properties":{"carrier_key":"istanbul_marmara","layer":"station","network":"KO","pool_member":true,"registry_selected":true,"segment_name":"izmit","station_id":"KO.HRTX"},"type":"Feature"},{"geometry":{"coordinates":[29.0592,41.0615],"type":"Point"},"properties":{"carrier_key":"istanbul_marmara","layer":"station","network":"KO","pool_member":true,"registry_selected":true,"segment_name":"marmara_central","station_id":"KO.ISK"},"type":"Feature"},{"geometry":{"coordinates":[35.0547,37.2607],"type":"Point"},"properties":{"carrier_key":"turkey_kahramanmaras","layer":"station","network":"KO","pool_member":true,"registry_selected":true,"segment_name":"east_anatolian_south","station_id":"KO.KARA"},"type":"Feature"},{"geometry":{"coordinates":[29.06,41.0638],"type":"Point"},"properties":{"carrier_key":"istanbul_marmara","layer":"station","network":"KO","pool_member":true,"registry_selected":true,"segment_name":"marmara_central","station_id":"KO.KAVV"},"type":"Feature"},{"geometry":{"coordinates":[38.7278,38.797],"type":"Point"},"properties":{"carrier_key":"turkey_kahramanmaras","layer":"station","network":"KO","pool_member":true,"registry_selected":true,"segment_name":"east_anatolian_north","station_id":"KO.KBAN"},"type":"Feature"},{"geometry":{"coordinates":[28.3353,40.2626],"type":"Point"},"properties":{"carrier_key":"istanbul_marmara","layer":"station","network":"KO","pool_member":true,"registry_selected":false,"segment_name":null,"station_id":"KO.KCTX"},"type":"Feature"},{"geometry":null,"properties":{"carrier_key":"turkey_kahramanmaras","layer":"station","network":"KO","pool_member":true,"registry_selected":true,"segment_name":"east_anatolian_central","station_id":"KO.KHMN","typed_absence":true},"type":"Feature"},{"geometry":{"coordinates":[36.9,37.5087],"type":"Point"},"properties":{"carrier_key":"turkey_kahramanmaras","layer":"station","network":"KO","pool_member":true,"registry_selected":false,"segment_name":null,"station_id":"KO.KMRS"},"type":"Feature"},{"geometry":{"coordinates":[35.8264,37.4795],"type":"Point"},"properties":{"carrier_key":"turkey_kahramanmaras","layer":"station","network":"KO","pool_member":true,"registry_selected":true,"segment_name":"east_anatolian_central","station_id":"KO.KOZT"},"type":"Feature"},{"geometry":{"coordinates":[27.2977,40.3932],"type":"Point"},"properties":{"carrier_key":"istanbul_marmara","layer":"station","network":"KO","pool_member":true,"registry_selected":true,"segment_name":"marmara_west","station_id":"KO.KRBG"},"type":"Feature"},{"geometry":{"coordinates":[28.8846,40.3709],"type":"Point"},"properties":{"carrier_key":"istanbul_marmara","layer":"station","network":"KO","pool_member":true,"registry_selected":true,"segment_name":"marmara_central","station_id":"KO.MDNY"},"type":"Feature"},{"geometry":{"coordinates":[38.4407,38.3223],"type":"Point"},"properties":{"carrier_key":"turkey_kahramanmaras","layer":"station","network":"KO","pool_member":true,"registry_selected":true,"segment_name":"east_anatolian_north","station_id":"KO.MLTY"},"type":"Feature"},{"geometry":{"coordinates":[27.5832,40.609],"type":"Point"},"properties":{"carrier_key":"istanbul_marmara","layer":"station","network":"KO","pool_member":true,"registry_selected":false,"segment_name":null,"station_id":"KO.MRMT"},"type":"Feature"},{"geometry":{"coordinates":[27.3123,40.7172],"type":"Point"},"properties":{"carrier_key":"istanbul_marmara","layer":"station","network":"KO","pool_member":true,"registry_selected":true,"segment_name":"marmara_west","station_id":"KO.NMR2"},"type":"Feature"},{"geometry":{"coordinates":[27.2944,40.7432],"type":"Point"},"properties":{"carrier_key":"istanbul_marmara","layer":"station","network":"KO","pool_member":true,"registry_selected":true,"segment_name":"marmara_west","station_id":"KO.NMR3"},"type":"Feature"},{"geometry":{"coordinates":[27.3006,40.788],"type":"Point"},"properties":{"carrier_key":"istanbul_marmara","layer":"station","network":"KO","pool_member":true,"registry_selected":false,"segment_name":null,"station_id":"KO.NMR4"},"type":"Feature"},{"geometry":{"coordinates":[27.366,40.7954],"type":"Point"},"properties":{"carrier_key":"istanbul_marmara","layer":"station","network":"KO","pool_member":true,"registry_selected":false,"segment_name":null,"station_id":"KO.NMR5"},"type":"Feature"},{"geometry":{"coordinates":[27.2653,40.704],"type":"Point"},"properties":{"carrier_key":"istanbul_marmara","layer":"station","network":"KO","pool_member":true,"registry_selected":false,"segment_name":null,"station_id":"KO.NMR6"},"type":"Feature"},{"geometry":{"coordinates":[27.2353,40.728],"type":"Point"},"properties":{"carrier_key":"istanbul_marmara","layer":"station","network":"KO","pool_member":true,"registry_selected":false,"segment_name":null,"station_id":"KO.NMR7"},"type":"Feature"},{"geometry":{"coordinates":[27.5347,40.612],"type":"Point"},"properties":{"carrier_key":"istanbul_marmara","layer":"station","network":"KO","pool_member":true,"registry_selected":false,"segment_name":null,"station_id":"KO.NMR8"},"type":"Feature"},{"geometry":{"coordinates":[27.702,40.6196],"type":"Point"},"properties":{"carrier_key":"istanbul_marmara","layer":"station","network":"KO","pool_member":true,"registry_selected":false,"segment_name":null,"station_id":"KO.NMR9"},"type":"Feature"},{"geometry":{"coordinates":[37.4363,37.9693],"type":"Point"},"properties":{"carrier_key":"turkey_kahramanmaras","layer":"station","network":"KO","pool_member":true,"registry_selected":true,"segment_name":"east_anatolian_central","station_id":"KO.NURH"},"type":"Feature"},{"geometry":{"coordinates":[27.1776,40.6874],"type":"Point"},"properties":{"carrier_key":"istanbul_marmara","layer":"station","network":"KO","pool_member":true,"registry_selected":false,"segment_name":null,"station_id":"KO.RKY"},"type":"Feature"},{"geometry":{"coordinates":[36.4181,38.4072],"type":"Point"},"properties":{"carrier_key":"turkey_kahramanmaras","layer":"station","network":"KO","pool_member":true,"registry_selected":false,"segment_name":null,"station_id":"KO.SARI"},"type":"Feature"},{"geometry":{"coordinates":[30.3271,40.7401],"type":"Point"},"properties":{"carrier_key":"istanbul_marmara","layer":"station","network":"KO","pool_member":true,"registry_selected":false,"segment_name":null,"station_id":"KO.SAUV"},"type":"Feature"},{"geometry":{"coordinates":[29.643,41.153],"type":"Point"},"properties":{"carrier_key":"istanbul_marmara","layer":"station","network":"KO","pool_member":true,"registry_selected":false,"segment_name":null,"station_id":"KO.SILT"},"type":"Feature"},{"geometry":{"coordinates":[28.2098,41.2288],"type":"Point"},"properties":{"carrier_key":"istanbul_marmara","layer":"station","network":"KO","pool_member":true,"registry_selected":false,"segment_name":null,"station_id":"KO.SLVT"},"type":"Feature"},{"geometry":{"coordinates":[39.306,38.3775],"type":"Point"},"properties":{"carrier_key":"turkey_kahramanmaras","layer":"station","network":"KO","pool_member":true,"registry_selected":false,"segment_name":null,"station_id":"KO.SVRC"},"type":"Feature"},{"geometry":{"coordinates":[36.1855,36.3755],"type":"Point"},"properties":{"carrier_key":"turkey_kahramanmaras","layer":"station","network":"KO","pool_member":true,"registry_selected":true,"segment_name":"east_anatolian_south","station_id":"KO.TAHT"},"type":"Feature"},{"geometry":{"coordinates":[27.5351,40.9893],"type":"Point"},"properties":{"carrier_key":"istanbul_marmara","layer":"station","network":"KO","pool_member":true,"registry_selected":false,"segment_name":null,"station_id":"KO.TKR"},"type":"Feature"},{"geometry":{"coordinates":[38.8213,37.4409],"type":"Point"},"properties":{"carrier_key":"turkey_kahramanmaras","layer":"station","network":"KO","pool_member":true,"registry_selected":false,"segment_name":null,"station_id":"KO.URFA"},"type":"Feature"},{"geometry":{"coordinates":[30.9032,40.904],"type":"Point"},"properties":{"carrier_key":"istanbul_marmara","layer":"station","network":"KO","pool_member":true,"registry_selected":false,"segment_name":null,"station_id":"KO.UVEZ"},"type":"Feature"},{"geometry":{"coordinates":[29.3708,40.5658],"type":"Point"},"properties":{"carrier_key":"istanbul_marmara","layer":"station","network":"KO","pool_member":true,"registry_selected":false,"segment_name":null,"station_id":"KO.YLV"},"type":"Feature"},{"geometry":{"coordinates":[[29.7383,40.4332],[29.8377,40.2018]],"type":"LineString"},"properties":{"carrier_key":"istanbul_marmara","distance_m":27056.058,"layer":"near_edge","station_a":"KO.ADVT","station_b":"KO.CAVI"},"type":"Feature"},{"geometry":{"coordinates":[[29.7383,40.4332],[29.6729,40.8009]],"type":"LineString"},"properties":{"carrier_key":"istanbul_marmara","distance_m":41215.221,"layer":"near_edge","station_a":"KO.ADVT","station_b":"KO.HRTX"},"type":"Feature"},{"geometry":{"coordinates":[[29.7383,40.4332],[29.3708,40.5658]],"type":"LineString"},"properties":{"carrier_key":"istanbul_marmara","distance_m":34463.035,"layer":"near_edge","station_a":"KO.ADVT","station_b":"KO.YLV"},"type":"Feature"},{"geometry":{"coordinates":[[28.866,40.5683],[29.2116,40.4646]],"type":"LineString"},"properties":{"carrier_key":"istanbul_marmara","distance_m":31469.966,"layer":"near_edge","station_a":"KO.ARMT","station_b":"KO.GEML"},"type":"Feature"},{"geometry":{"coordinates":[[28.866,40.5683],[28.3353,40.2626]],"type":"LineString"},"properties":{"carrier_key":"istanbul_marmara","distance_m":56391.894,"layer":"near_edge","station_a":"KO.ARMT","station_b":"KO.KCTX"},"type":"Feature"},{"geometry":{"coordinates":[[28.866,40.5683],[28.8846,40.3709]],"type":"LineString"},"properties":{"carrier_key":"istanbul_marmara","distance_m":21974.749,"layer":"near_edge","station_a":"KO.ARMT","station_b":"KO.MDNY"},"type":"Feature"},{"geometry":{"coordinates":[[28.866,40.5683],[29.3708,40.5658]],"type":"LineString"},"properties":{"carrier_key":"istanbul_marmara","distance_m":42748.881,"layer":"near_edge","station_a":"KO.ARMT","station_b":"KO.YLV"},"type":"Feature"},{"geometry":{"coordinates":[[28.773,41.181],[28.5072,41.2373]],"type":"LineString"},"properties":{"carrier_key":"istanbul_marmara","distance_m":23148.682,"layer":"near_edge","station_a":"KO.BGKT","station_b":"KO.CTKS"},"type":"Feature"},{"geometry":{"coordinates":[[28.773,41.181],[29.0592,41.0615]],"type":"LineString"},"properties":{"carrier_key":"istanbul_marmara","distance_m":27453.565,"layer":"near_edge","station_a":"KO.BGKT","station_b":"KO.ISK"},"type":"Feature"},{"geometry":{"coordinates":[[28.773,41.181],[29.06,41.0638]],"type":"LineString"},"properties":{"carrier_key":"istanbul_marmara","distance_m":27389.751,"layer":"near_edge","station_a":"KO.BGKT","station_b":"KO.KAVV"},"type":"Feature"},{"geometry":{"coordinates":[[28.773,41.181],[28.2098,41.2288]],"type":"LineString"},"properties":{"carrier_key":"istanbul_marmara","distance_m":47525.396,"layer":"near_edge","station_a":"KO.BGKT","station_b":"KO.SLVT"},"type":"Feature"},{"geometry":{"coordinates":[[27.981,40.9902],[27.702,40.6196]],"type":"LineString"},"properties":{"carrier_key":"istanbul_marmara","distance_m":47397.135,"layer":"near_edge","station_a":"KO.BOTS","station_b":"KO.NMR9"},"type":"Feature"},{"geometry":{"coordinates":[[27.981,40.9902],[28.2098,41.2288]],"type":"LineString"},"properties":{"carrier_key":"istanbul_marmara","distance_m":32723.809,"layer":"near_edge","station_a":"KO.BOTS","station_b":"KO.SLVT"},"type":"Feature"},{"geometry":{"coordinates":[[27.981,40.9902],[27.5351,40.9893]],"type":"LineString"},"properties":{"carrier_key":"istanbul_marmara","distance_m":37508.706,"layer":"near_edge","station_a":"KO.BOTS","station_b":"KO.TKR"},"type":"Feature"},{"geometry":{"coordinates":[[29.8377,40.2018],[29.2116,40.4646]],"type":"LineString"},"properties":{"carrier_key":"istanbul_marmara","distance_m":60691.724,"layer":"near_edge","station_a":"KO.CAVI","station_b":"KO.GEML"},"type":"Feature"},{"geometry":{"coordinates":[[29.8377,40.2018],[30.5152,40.432]],"type":"LineString"},"properties":{"carrier_key":"istanbul_marmara","distance_m":63035.553,"layer":"near_edge","station_a":"KO.CAVI","station_b":"KO.GULT"},"type":"Feature"},{"geometry":{"coordinates":[[29.8377,40.2018],[29.3708,40.5658]],"type":"LineString"},"properties":{"carrier_key":"istanbul_marmara","distance_m":56628.892,"layer":"near_edge","station_a":"KO.CAVI","station_b":"KO.YLV"},"type":"Feature"},{"geometry":{"coordinates":[[28.5072,41.2373],[29.06,41.0638]],"type":"LineString"},"properties":{"carrier_key":"istanbul_marmara","distance_m":50239.097,"layer":"near_edge","station_a":"KO.CTKS","station_b":"KO.KAVV"},"type":"Feature"},{"geometry":{"coordinates":[[28.5072,41.2373],[28.2098,41.2288]],"type":"LineString"},"properties":{"carrier_key":"istanbul_marmara","distance_m":24945.329,"layer":"near_edge","station_a":"KO.CTKS","station_b":"KO.SLVT"},"type":"Feature"},{"geometry":{"coordinates":[[27.8618,40.3465],[28.3353,40.2626]],"type":"LineString"},"properties":{"carrier_key":"istanbul_marmara","distance_m":41305.72,"layer":"near_edge","station_a":"KO.EDC","station_b":"KO.KCTX"},"type":"Feature"},{"geometry":{"coordinates":[[27.8618,40.3465],[27.5832,40.609]],"type":"LineString"},"properties":{"carrier_key":"istanbul_marmara","distance_m":37506.862,"layer":"near_edge","station_a":"KO.EDC","station_b":"KO.MRMT"},"type":"Feature"},{"geometry":{"coordinates":[[27.8618,40.3465],[27.5347,40.612]],"type":"LineString"},"properties":{"carrier_key":"istanbul_marmara","distance_m":40463.749,"layer":"near_edge","station_a":"KO.EDC","station_b":"KO.NMR8"},"type":"Feature"},{"geometry":{"coordinates":[[27.8618,40.3465],[27.702,40.6196]],"type":"LineString"},"properties":{"carrier_key":"istanbul_marmara","distance_m":33203.791,"layer":"near_edge","station_a":"KO.EDC","station_b":"KO.NMR9"},"type":"Feature"},{"geometry":{"coordinates":[[27.3275,40.7479],[27.3123,40.7172]],"type":"LineString"},"properties":{"carrier_key":"istanbul_marmara","distance_m":3641.555,"layer":"near_edge","station_a":"KO.GAZK","station_b":"KO.NMR2"},"type":"Feature"},{"geometry":{"coordinates":[[27.3275,40.7479],[27.2944,40.7432]],"type":"LineString"},"properties":{"carrier_key":"istanbul_marmara","distance_m":2842.748,"layer":"near_edge","station_a":"KO.GAZK","station_b":"KO.NMR3"},"type":"Feature"},{"geometry":{"coordinates":[[27.3275,40.7479],[27.3006,40.788]],"type":"LineString"},"properties":{"carrier_key":"istanbul_marmara","distance_m":4996.852,"layer":"near_edge","station_a":"KO.GAZK","station_b":"KO.NMR4"},"type":"Feature"},{"geometry":{"coordinates":[[27.3275,40.7479],[27.366,40.7954]],"type":"LineString"},"properties":{"carrier_key":"istanbul_marmara","distance_m":6193.463,"layer":"near_edge","station_a":"KO.GAZK","station_b":"KO.NMR5"},"type":"Feature"},{"geometry":{"coordinates":[[27.3275,40.7479],[27.5351,40.9893]],"type":"LineString"},"properties":{"carrier_key":"istanbul_marmara","distance_m":32002.49,"layer":"near_edge","station_a":"KO.GAZK","station_b":"KO.TKR"},"type":"Feature"},{"geometry":{"coordinates":[[29.2116,40.4646],[28.8846,40.3709]],"type":"LineString"},"properties":{"carrier_key":"istanbul_marmara","distance_m":29638.326,"layer":"near_edge","station_a":"KO.GEML","station_b":"KO.MDNY"},"type":"Feature"},{"geometry":{"coordinates":[[29.2116,40.4646],[29.3708,40.5658]],"type":"LineString"},"properties":{"carrier_key":"istanbul_marmara","distance_m":17560.151,"layer":"near_edge","station_a":"KO.GEML","station_b":"KO.YLV"},"type":"Feature"},{"geometry":{"coordinates":[[30.5152,40.432],[30.3271,40.7401]],"type":"LineString"},"properties":{"carrier_key":"istanbul_marmara","distance_m":37761.536,"layer":"near_edge","station_a":"KO.GULT","station_b":"KO.SAUV"},"type":"Feature"},{"geometry":{"coordinates":[[30.5152,40.432],[30.9032,40.904]],"type":"LineString"},"properties":{"carrier_key":"istanbul_marmara","distance_m":61885.361,"layer":"near_edge","station_a":"KO.GULT","station_b":"KO.UVEZ"},"type":"Feature"},{"geometry":{"coordinates":[[29.6729,40.8009],[30.3271,40.7401]],"type":"LineString"},"properties":{"carrier_key":"istanbul_marmara","distance_m":55664.567,"layer":"near_edge","station_a":"KO.HRTX","station_b":"KO.SAUV"},"type":"Feature"},{"geometry":{"coordinates":[[29.6729,40.8009],[29.643,41.153]],"type":"LineString"},"properties":{"carrier_key":"istanbul_marmara","distance_m":39191.265,"layer":"near_edge","station_a":"KO.HRTX","station_b":"KO.SILT"},"type":"Feature"},{"geometry":{"coordinates":[[29.6729,40.8009],[30.9032,40.904]],"type":"LineString"},"properties":{"carrier_key":"istanbul_marmara","distance_m":104429.064,"layer":"near_edge","station_a":"KO.HRTX","station_b":"KO.UVEZ"},"type":"Feature"},{"geometry":{"coordinates":[[29.6729,40.8009],[29.3708,40.5658]],"type":"LineString"},"properties":{"carrier_key":"istanbul_marmara","distance_m":36527.108,"layer":"near_edge","station_a":"KO.HRTX","station_b":"KO.YLV"},"type":"Feature"},{"geometry":{"coordinates":[[29.0592,41.0615],[29.06,41.0638]],"type":"LineString"},"properties":{"carrier_key":"istanbul_marmara","distance_m":264.122,"layer":"near_edge","station_a":"KO.ISK","station_b":"KO.KAVV"},"type":"Feature"},{"geometry":{"coordinates":[[29.0592,41.0615],[29.643,41.153]],"type":"LineString"},"properties":{"carrier_key":"istanbul_marmara","distance_m":50084.186,"layer":"near_edge","station_a":"KO.ISK","station_b":"KO.SILT"},"type":"Feature"},{"geometry":{"coordinates":[[29.06,41.0638],[29.643,41.153]],"type":"LineString"},"properties":{"carrier_key":"istanbul_marmara","distance_m":49966.278,"layer":"near_edge","station_a":"KO.KAVV","station_b":"KO.SILT"},"type":"Feature"},{"geometry":{"coordinates":[[28.3353,40.2626],[28.8846,40.3709]],"type":"LineString"},"properties":{"carrier_key":"istanbul_marmara","distance_m":48205.075,"layer":"near_edge","station_a":"KO.KCTX","station_b":"KO.MDNY"},"type":"Feature"},{"geometry":{"coordinates":[[27.2977,40.3932],[27.5832,40.609]],"type":"LineString"},"properties":{"carrier_key":"istanbul_marmara","distance_m":34044.556,"layer":"near_edge","station_a":"KO.KRBG","station_b":"KO.MRMT"},"type":"Feature"},{"geometry":{"coordinates":[[27.2977,40.3932],[27.5347,40.612]],"type":"LineString"},"properties":{"carrier_key":"istanbul_marmara","distance_m":31513.956,"layer":"near_edge","station_a":"KO.KRBG","station_b":"KO.NMR8"},"type":"Feature"},{"geometry":{"coordinates":[[27.2977,40.3932],[27.1776,40.6874]],"type":"LineString"},"properties":{"carrier_key":"istanbul_marmara","distance_m":34203.631,"layer":"near_edge","station_a":"KO.KRBG","station_b":"KO.RKY"},"type":"Feature"},{"geometry":{"coordinates":[[28.8846,40.3709],[29.3708,40.5658]],"type":"LineString"},"properties":{"carrier_key":"istanbul_marmara","distance_m":46568.129,"layer":"near_edge","station_a":"KO.MDNY","station_b":"KO.YLV"},"type":"Feature"},{"geometry":{"coordinates":[[27.5832,40.609],[27.3123,40.7172]],"type":"LineString"},"properties":{"carrier_key":"istanbul_marmara","distance_m":25857.829,"layer":"near_edge","station_a":"KO.MRMT","station_b":"KO.NMR2"},"type":"Feature"},{"geometry":{"coordinates":[[27.5832,40.609],[27.5347,40.612]],"type":"LineString"},"properties":{"carrier_key":"istanbul_marmara","distance_m":4116.447,"layer":"near_edge","station_a":"KO.MRMT","station_b":"KO.NMR8"},"type":"Feature"},{"geometry":{"coordinates":[[27.5832,40.609],[27.702,40.6196]],"type":"LineString"},"properties":{"carrier_key":"istanbul_marmara","distance_m":10118.294,"layer":"near_edge","station_a":"KO.MRMT","station_b":"KO.NMR9"},"type":"Feature"},{"geometry":{"coordinates":[[27.3123,40.7172],[27.2944,40.7432]],"type":"LineString"},"properties":{"carrier_key":"istanbul_marmara","distance_m":3257.999,"layer":"near_edge","station_a":"KO.NMR2","station_b":"KO.NMR3"},"type":"Feature"},{"geometry":{"coordinates":[[27.3123,40.7172],[27.2653,40.704]],"type":"LineString"},"properties":{"carrier_key":"istanbul_marmara","distance_m":4231.809,"layer":"near_edge","station_a":"KO.NMR2","station_b":"KO.NMR6"},"type":"Feature"},{"geometry":{"coordinates":[[27.3123,40.7172],[27.2353,40.728]],"type":"LineString"},"properties":{"carrier_key":"istanbul_marmara","distance_m":6612.519,"layer":"near_edge","station_a":"KO.NMR2","station_b":"KO.NMR7"},"type":"Feature"},{"geometry":{"coordinates":[[27.3123,40.7172],[27.5347,40.612]],"type":"LineString"},"properties":{"carrier_key":"istanbul_marmara","distance_m":22130.744,"layer":"near_edge","station_a":"KO.NMR2","station_b":"KO.NMR8"},"type":"Feature"},{"geometry":{"coordinates":[[27.2944,40.7432],[27.3006,40.788]],"type":"LineString"},"properties":{"carrier_key":"istanbul_marmara","distance_m":5000.515,"layer":"near_edge","station_a":"KO.NMR3","station_b":"KO.NMR4"},"type":"Feature"},{"geometry":{"coordinates":[[27.2944,40.7432],[27.366,40.7954]],"type":"LineString"},"properties":{"carrier_key":"istanbul_marmara","distance_m":8371.998,"layer":"near_edge","station_a":"KO.NMR3","station_b":"KO.NMR5"},"type":"Feature"},{"geometry":{"coordinates":[[27.2944,40.7432],[27.2653,40.704]],"type":"LineString"},"properties":{"carrier_key":"istanbul_marmara","distance_m":4997.424,"layer":"near_edge","station_a":"KO.NMR3","station_b":"KO.NMR6"},"type":"Feature"},{"geometry":{"coordinates":[[27.2944,40.7432],[27.2353,40.728]],"type":"LineString"},"properties":{"carrier_key":"istanbul_marmara","distance_m":5267.77,"layer":"near_edge","station_a":"KO.NMR3","station_b":"KO.NMR7"},"type":"Feature"},{"geometry":{"coordinates":[[27.2944,40.7432],[27.1776,40.6874]],"type":"LineString"},"properties":{"carrier_key":"istanbul_marmara","distance_m":11648.583,"layer":"near_edge","station_a":"KO.NMR3","station_b":"KO.RKY"},"type":"Feature"},{"geometry":{"coordinates":[[27.3006,40.788],[27.366,40.7954]],"type":"LineString"},"properties":{"carrier_key":"istanbul_marmara","distance_m":5578.386,"layer":"near_edge","station_a":"KO.NMR4","station_b":"KO.NMR5"},"type":"Feature"},{"geometry":{"coordinates":[[27.3006,40.788],[27.5351,40.9893]],"type":"LineString"},"properties":{"carrier_key":"istanbul_marmara","distance_m":29826.474,"layer":"near_edge","station_a":"KO.NMR4","station_b":"KO.TKR"},"type":"Feature"},{"geometry":{"coordinates":[[27.366,40.7954],[27.5351,40.9893]],"type":"LineString"},"properties":{"carrier_key":"istanbul_marmara","distance_m":25811.455,"layer":"near_edge","station_a":"KO.NMR5","station_b":"KO.TKR"},"type":"Feature"},{"geometry":{"coordinates":[[27.2653,40.704],[27.2353,40.728]],"type":"LineString"},"properties":{"carrier_key":"istanbul_marmara","distance_m":3676.673,"layer":"near_edge","station_a":"KO.NMR6","station_b":"KO.NMR7"},"type":"Feature"},{"geometry":{"coordinates":[[27.2653,40.704],[27.1776,40.6874]],"type":"LineString"},"properties":{"carrier_key":"istanbul_marmara","distance_m":7635.241,"layer":"near_edge","station_a":"KO.NMR6","station_b":"KO.RKY"},"type":"Feature"},{"geometry":{"coordinates":[[27.2353,40.728],[27.1776,40.6874]],"type":"LineString"},"properties":{"carrier_key":"istanbul_marmara","distance_m":6638.326,"layer":"near_edge","station_a":"KO.NMR7","station_b":"KO.RKY"},"type":"Feature"},{"geometry":{"coordinates":[[27.5347,40.612],[27.702,40.6196]],"type":"LineString"},"properties":{"carrier_key":"istanbul_marmara","distance_m":14177.171,"layer":"near_edge","station_a":"KO.NMR8","station_b":"KO.NMR9"},"type":"Feature"},{"geometry":{"coordinates":[[30.3271,40.7401],[30.9032,40.904]],"type":"LineString"},"properties":{"carrier_key":"istanbul_marmara","distance_m":51935.446,"layer":"near_edge","station_a":"KO.SAUV","station_b":"KO.UVEZ"},"type":"Feature"},{"geometry":{"coordinates":[[-116.30338,32.9546],[-116.25399,33.19269]],"type":"LineString"},"properties":{"carrier_key":"socal_coachella","distance_m":26796.039,"layer":"near_edge","station_a":"CI.ACP","station_b":"CI.SLH"},"type":"Feature"},{"geometry":{"coordinates":[[-116.30338,32.9546],[-116.09718,32.79184]],"type":"LineString"},"properties":{"carrier_key":"socal_coachella","distance_m":26415.001,"layer":"near_edge","station_a":"CI.ACP","station_b":"CI.SWP"},"type":"Feature"},{"geometry":{"coordinates":[[-116.30338,32.9546],[-116.41064,32.97181]],"type":"LineString"},"properties":{"carrier_key":"socal_coachella","distance_m":10204.347,"layer":"near_edge","station_a":"CI.ACP","station_b":"CI.VLO"},"type":"Feature"},{"geometry":{"coordinates":[[-116.808391,33.503277],[-116.73734,33.56537]],"type":"LineString"},"properties":{"carrier_key":"socal_coachella","distance_m":9534.879,"layer":"near_edge","station_a":"CI.ANG","station_b":"CI.CARY"},"type":"Feature"},{"geometry":{"coordinates":[[-116.808391,33.503277],[-116.63056,33.56667]],"type":"LineString"},"properties":{"carrier_key":"socal_coachella","distance_m":17945.049,"layer":"near_edge","station_a":"CI.ANG","station_b":"CI.DNR"},"type":"Feature"},{"geometry":{"coordinates":[[-116.808391,33.503277],[-116.86265,33.35361]],"type":"LineString"},"properties":{"carrier_key":"socal_coachella","distance_m":17342.994,"layer":"near_edge","station_a":"CI.ANG","station_b":"CI.PLM"},"type":"Feature"},{"geometry":{"coordinates":[[-116.67215,32.68005],[-116.627222,32.906111]],"type":"LineString"},"properties":{"carrier_key":"socal_coachella","distance_m":25411.281,"layer":"near_edge","station_a":"CI.BAR","station_b":"CI.CYP"},"type":"Feature"},{"geometry":{"coordinates":[[-116.67215,32.68005],[-116.7548,32.70333]],"type":"LineString"},"properties":{"carrier_key":"socal_coachella","distance_m":8166.141,"layer":"near_edge","station_a":"CI.BAR","station_b":"CI.LYP"},"type":"Feature"},{"geometry":{"coordinates":[[-116.67215,32.68005],[-116.94241,32.73561]],"type":"LineString"},"properties":{"carrier_key":"socal_coachella","distance_m":26067.627,"layer":"near_edge","station_a":"CI.BAR","station_b":"CI.SDR"},"type":"Feature"},{"geometry":{"coordinates":[[-115.45366,33.65515],[-115.87214,33.67728]],"type":"LineString"},"properties":{"carrier_key":"socal_coachella","distance_m":38881.13,"layer":"near_edge","station_a":"CI.BC3","station_b":"CI.CTW"},"type":"Feature"},{"geometry":{"coordinates":[[-115.45366,33.65515],[-115.63835,33.40209]],"type":"LineString"},"properties":{"carrier_key":"socal_coachella","distance_m":32890.139,"layer":"near_edge","station_a":"CI.BC3","station_b":"CI.FRK"},"type":"Feature"},{"geometry":{"coordinates":[[-115.45366,33.65515],[-115.63889,33.70734]],"type":"LineString"},"properties":{"carrier_key":"socal_coachella","distance_m":18122.136,"layer":"near_edge","station_a":"CI.BC3","station_b":"CI.HAY"},"type":"Feature"},{"geometry":{"coordinates":[[-115.9982,34.0006],[-116.22152,33.79678]],"type":"LineString"},"properties":{"carrier_key":"socal_coachella","distance_m":30613.449,"layer":"near_edge","station_a":"CI.BEL","station_b":"CI.IDO"},"type":"Feature"},{"geometry":{"coordinates":[[-115.9982,34.0006],[-116.03785,34.12644]],"type":"LineString"},"properties":{"carrier_key":"socal_coachella","distance_m":14426.246,"layer":"near_edge","station_a":"CI.BEL","station_b":"CI.JTH"},"type":"Feature"},{"geometry":{"coordinates":[[-115.9982,34.0006],[-116.1734,33.92545]],"type":"LineString"},"properties":{"carrier_key":"socal_coachella","distance_m":18206.746,"layer":"near_edge","station_a":"CI.BEL","station_b":"CI.KYV"},"type":"Feature"},{"geometry":{"coordinates":[[-116.38993,34.06931],[-116.57794,33.93597]],"type":"LineString"},"properties":{"carrier_key":"socal_coachella","distance_m":22804.414,"layer":"near_edge","station_a":"CI.BLA2","station_b":"CI.DEV"},"type":"Feature"},{"geometry":{"coordinates":[[-116.38993,34.06931],[-116.03785,34.12644]],"type":"LineString"},"properties":{"carrier_key":"socal_coachella","distance_m":33090.663,"layer":"near_edge","station_a":"CI.BLA2","station_b":"CI.JTH"},"type":"Feature"},{"geometry":{"coordinates":[[-116.38993,34.06931],[-116.64795,34.03852]],"type":"LineString"},"properties":{"carrier_key":"socal_coachella","distance_m":24056.598,"layer":"near_edge","station_a":"CI.BLA2","station_b":"CI.MSC"},"type":"Feature"},{"geometry":{"coordinates":[[-116.38993,34.06931],[-116.40876,33.94068]],"type":"LineString"},"properties":{"carrier_key":"socal_coachella","distance_m":14368.4,"layer":"near_edge","station_a":"CI.BLA2","station_b":"CI.WWC"},"type":"Feature"},{"geometry":{"coordinates":[[-115.72963,33.36465],[-115.63835,33.40209]],"type":"LineString"},"properties":{"carrier_key":"socal_coachella","distance_m":9452.065,"layer":"near_edge","station_a":"CI.BOM","station_b":"CI.FRK"},"type":"Feature"},{"geometry":{"coordinates":[[-115.72963,33.36465],[-115.62257,33.18313]],"type":"LineString"},"properties":{"carrier_key":"socal_coachella","distance_m":22462.759,"layer":"near_edge","station_a":"CI.BOM","station_b":"CI.RXH"},"type":"Feature"},{"geometry":{"coordinates":[[-115.72963,33.36465],[-115.86643,33.48519]],"type":"LineString"},"properties":{"carrier_key":"socal_coachella","distance_m":18451.026,"layer":"near_edge","station_a":"CI.BOM","station_b":"CI.SLB"},"type":"Feature"},{"geometry":{"coordinates":[[-115.72963,33.36465],[-115.57888,33.27884]],"type":"LineString"},"properties":{"carrier_key":"socal_coachella","distance_m":16955.465,"layer":"near_edge","station_a":"CI.BOM","station_b":"CI.WWF"},"type":"Feature"},{"geometry":{"coordinates":[[-116.41716,33.2682],[-116.64727,33.19915]],"type":"LineString"},"properties":{"carrier_key":"socal_coachella","distance_m":22765.327,"layer":"near_edge","station_a":"CI.BOR","station_b":"CI.MTG"},"type":"Feature"},{"geometry":{"coordinates":[[-116.41716,33.2682],[-116.3096,33.36237]],"type":"LineString"},"properties":{"carrier_key":"socal_coachella","distance_m":14465.645,"layer":"near_edge","station_a":"CI.BOR","station_b":"CI.RCR"},"type":"Feature"},{"geometry":{"coordinates":[[-116.41716,33.2682],[-116.25399,33.19269]],"type":"LineString"},"properties":{"carrier_key":"socal_coachella","distance_m":17356.171,"layer":"near_edge","station_a":"CI.BOR","station_b":"CI.SLH"},"type":"Feature"},{"geometry":{"coordinates":[[-116.73734,33.56537],[-116.5956,33.6442]],"type":"LineString"},"properties":{"carrier_key":"socal_coachella","distance_m":15789.458,"layer":"near_edge","station_a":"CI.CARY","station_b":"CI.CSH"},"type":"Feature"},{"geometry":{"coordinates":[[-116.73734,33.56537],[-116.63056,33.56667]],"type":"LineString"},"properties":{"carrier_key":"socal_coachella","distance_m":9911.918,"layer":"near_edge","station_a":"CI.CARY","station_b":"CI.DNR"},"type":"Feature"},{"geometry":{"coordinates":[[-116.73734,33.56537],[-116.86265,33.35361]],"type":"LineString"},"properties":{"carrier_key":"socal_coachella","distance_m":26206.881,"layer":"near_edge","station_a":"CI.CARY","station_b":"CI.PLM"},"type":"Feature"},{"geometry":{"coordinates":[[-116.73734,33.56537],[-116.92382,33.68708]],"type":"LineString"},"properties":{"carrier_key":"socal_coachella","distance_m":21937.395,"layer":"near_edge","station_a":"CI.CARY","station_b":"CI.POB2"},"type":"Feature"},{"geometry":{"coordinates":[[-115.12339,32.86341],[-115.44679,32.80532]],"type":"LineString"},"properties":{"carrier_key":"socal_coachella","distance_m":30954.332,"layer":"near_edge","station_a":"CI.COA","station_b":"CI.DRE"},"type":"Feature"},{"geometry":{"coordinates":[[-115.12339,32.86341],[-115.56071,32.90147]],"type":"LineString"},"properties":{"carrier_key":"socal_coachella","distance_m":41135.965,"layer":"near_edge","station_a":"CI.COA","station_b":"CI.IMP"},"type":"Feature"},{"geometry":{"coordinates":[[-115.12339,32.86341],[-115.43602,32.86184]],"type":"LineString"},"properties":{"carrier_key":"socal_coachella","distance_m":29259.647,"layer":"near_edge","station_a":"CI.COA","station_b":"CI.SNR"},"type":"Feature"},{"geometry":{"coordinates":[[-115.96918,32.88682],[-116.10948,32.65012]],"type":"LineString"},"properties":{"carrier_key":"socal_coachella","distance_m":29348.904,"layer":"near_edge","station_a":"CI.CRR","station_b":"CI.IKP"},"type":"Feature"},{"geometry":{"coordinates":[[-115.96918,32.88682],[-116.01931,32.74755]],"type":"LineString"},"properties":{"carrier_key":"socal_coachella","distance_m":16138.181,"layer":"near_edge","station_a":"CI.CRR","station_b":"CI.OCP"},"type":"Feature"},{"geometry":{"coordinates":[[-115.96918,32.88682],[-116.09718,32.79184]],"type":"LineString"},"properties":{"carrier_key":"socal_coachella","distance_m":15950.196,"layer":"near_edge","station_a":"CI.CRR","station_b":"CI.SWP"},"type":"Feature"},{"geometry":{"coordinates":[[-115.96918,32.88682],[-115.79988,32.94508]],"type":"LineString"},"properties":{"carrier_key":"socal_coachella","distance_m":17099.416,"layer":"near_edge","station_a":"CI.CRR","station_b":"CI.SWS"},"type":"Feature"},{"geometry":{"coordinates":[[-116.5956,33.6442],[-116.63056,33.56667]],"type":"LineString"},"properties":{"carrier_key":"socal_coachella","distance_m":9187.493,"layer":"near_edge","station_a":"CI.CSH","station_b":"CI.DNR"},"type":"Feature"},{"geometry":{"coordinates":[[-116.5956,33.6442],[-116.71536,33.74642]],"type":"LineString"},"properties":{"carrier_key":"socal_coachella","distance_m":15863.094,"layer":"near_edge","station_a":"CI.CSH","station_b":"CI.IDY"},"type":"Feature"},{"geometry":{"coordinates":[[-116.5956,33.6442],[-116.37769,33.64785]],"type":"LineString"},"properties":{"carrier_key":"socal_coachella","distance_m":20211.223,"layer":"near_edge","station_a":"CI.CSH","station_b":"CI.PMD"},"type":"Feature"},{"geometry":{"coordinates":[[-115.99006,33.65516],[-115.87214,33.67728]],"type":"LineString"},"properties":{"carrier_key":"socal_coachella","distance_m":11205.139,"layer":"near_edge","station_a":"CI.CTC","station_b":"CI.CTW"},"type":"Feature"},{"geometry":{"coordinates":[[-115.99006,33.65516],[-115.94586,33.55553]],"type":"LineString"},"properties":{"carrier_key":"socal_coachella","distance_m":11783.954,"layer":"near_edge","station_a":"CI.CTC","station_b":"CI.NSS2"},"type":"Feature"},{"geometry":{"coordinates":[[-115.99006,33.65516],[-116.07734,33.65066]],"type":"LineString"},"properties":{"carrier_key":"socal_coachella","distance_m":8108.921,"layer":"near_edge","station_a":"CI.CTC","station_b":"CI.THM"},"type":"Feature"},{"geometry":{"coordinates":[[-115.99006,33.65516],[-116.22584,33.57526]],"type":"LineString"},"properties":{"carrier_key":"socal_coachella","distance_m":23599.357,"layer":"near_edge","station_a":"CI.CTC","station_b":"CI.TOR"},"type":"Feature"},{"geometry":{"coordinates":[[-115.87214,33.67728],[-115.63889,33.70734]],"type":"LineString"},"properties":{"carrier_key":"socal_coachella","distance_m":21876.485,"layer":"near_edge","station_a":"CI.CTW","station_b":"CI.HAY"},"type":"Feature"},{"geometry":{"coordinates":[[-115.87214,33.67728],[-115.94586,33.55553]],"type":"LineString"},"properties":{"carrier_key":"socal_coachella","distance_m":15133.792,"layer":"near_edge","station_a":"CI.CTW","station_b":"CI.NSS2"},"type":"Feature"},{"geometry":{"coordinates":[[-115.87214,33.67728],[-115.86643,33.48519]],"type":"LineString"},"properties":{"carrier_key":"socal_coachella","distance_m":21306.594,"layer":"near_edge","station_a":"CI.CTW","station_b":"CI.SLB"},"type":"Feature"},{"geometry":{"coordinates":[[-115.87214,33.67728],[-116.07734,33.65066]],"type":"LineString"},"properties":{"carrier_key":"socal_coachella","distance_m":19253.796,"layer":"near_edge","station_a":"CI.CTW","station_b":"CI.THM"},"type":"Feature"},{"geometry":{"coordinates":[[-116.627222,32.906111],[-116.94187,32.99889]],"type":"LineString"},"properties":{"carrier_key":"socal_coachella","distance_m":31155.741,"layer":"near_edge","station_a":"CI.CYP","station_b":"CI.DPP"},"type":"Feature"},{"geometry":{"coordinates":[[-116.627222,32.906111],[-116.84566,32.89083]],"type":"LineString"},"properties":{"carrier_key":"socal_coachella","distance_m":20499.182,"layer":"near_edge","station_a":"CI.CYP","station_b":"CI.EML"},"type":"Feature"},{"geometry":{"coordinates":[[-116.627222,32.906111],[-116.59755,33.08098]],"type":"LineString"},"properties":{"carrier_key":"socal_coachella","distance_m":19583.477,"layer":"near_edge","station_a":"CI.CYP","station_b":"CI.JEM"},"type":"Feature"},{"geometry":{"coordinates":[[-116.627222,32.906111],[-116.41064,32.97181]],"type":"LineString"},"properties":{"carrier_key":"socal_coachella","distance_m":21516.853,"layer":"near_edge","station_a":"CI.CYP","station_b":"CI.VLO"},"type":"Feature"},{"geometry":{"coordinates":[[-116.78409,33.91375],[-116.93588,34.09355]],"type":"LineString"},"properties":{"carrier_key":"socal_coachella","distance_m":24370.36,"layer":"near_edge","station_a":"CI.CZN","station_b":"CI.FHO"},"type":"Feature"},{"geometry":{"coordinates":[[-116.78409,33.91375],[-116.64795,34.03852]],"type":"LineString"},"properties":{"carrier_key":"socal_coachella","distance_m":18695.997,"layer":"near_edge","station_a":"CI.CZN","station_b":"CI.MSC"},"type":"Feature"},{"geometry":{"coordinates":[[-116.78409,33.91375],[-116.79737,33.83359]],"type":"LineString"},"properties":{"carrier_key":"socal_coachella","distance_m":8972.3,"layer":"near_edge","station_a":"CI.CZN","station_b":"CI.SLR"},"type":"Feature"},{"geometry":{"coordinates":[[-116.78409,33.91375],[-116.80778,34.03515]],"type":"LineString"},"properties":{"carrier_key":"socal_coachella","distance_m":13637.325,"layer":"near_edge","station_a":"CI.CZN","station_b":"CI.SNO"},"type":"Feature"},{"geometry":{"coordinates":[[-116.57794,33.93597],[-116.64795,34.03852]],"type":"LineString"},"properties":{"carrier_key":"socal_coachella","distance_m":13080.76,"layer":"near_edge","station_a":"CI.DEV","station_b":"CI.MSC"},"type":"Feature"},{"geometry":{"coordinates":[[-116.57794,33.93597],[-116.55026,33.82393]],"type":"LineString"},"properties":{"carrier_key":"socal_coachella","distance_m":12683.776,"layer":"near_edge","station_a":"CI.DEV","station_b":"CI.PSD"},"type":"Feature"},{"geometry":{"coordinates":[[-116.57794,33.93597],[-116.40876,33.94068]],"type":"LineString"},"properties":{"carrier_key":"socal_coachella","distance_m":15643.833,"layer":"near_edge","station_a":"CI.DEV","station_b":"CI.WWC"},"type":"Feature"},{"geometry":{"coordinates":[[-116.94187,32.99889],[-116.84566,32.89083]],"type":"LineString"},"properties":{"carrier_key":"socal_coachella","distance_m":14979.442,"layer":"near_edge","station_a":"CI.DPP","station_b":"CI.EML"},"type":"Feature"},{"geometry":{"coordinates":[[-116.94187,32.99889],[-116.94241,32.73561]],"type":"LineString"},"properties":{"carrier_key":"socal_coachella","distance_m":29186.679,"layer":"near_edge","station_a":"CI.DPP","station_b":"CI.SDR"},"type":"Feature"},{"geometry":{"coordinates":[[-115.44679,32.80532],[-115.620889,32.765278]],"type":"LineString"},"properties":{"carrier_key":"socal_coachella","distance_m":16900.314,"layer":"near_edge","station_a":"CI.DRE","station_b":"CI.ELO"},"type":"Feature"},{"geometry":{"coordinates":[[-115.44679,32.80532],[-115.56071,32.90147]],"type":"LineString"},"properties":{"carrier_key":"socal_coachella","distance_m":15078.061,"layer":"near_edge","station_a":"CI.DRE","station_b":"CI.IMP"},"type":"Feature"},{"geometry":{"coordinates":[[-115.44679,32.80532],[-115.43602,32.86184]],"type":"LineString"},"properties":{"carrier_key":"socal_coachella","distance_m":6347.871,"layer":"near_edge","station_a":"CI.DRE","station_b":"CI.SNR"},"type":"Feature"},{"geometry":{"coordinates":[[-115.620889,32.765278],[-115.56071,32.90147]],"type":"LineString"},"properties":{"carrier_key":"socal_coachella","distance_m":16117.646,"layer":"near_edge","station_a":"CI.ELO","station_b":"CI.IMP"},"type":"Feature"},{"geometry":{"coordinates":[[-115.620889,32.765278],[-115.43602,32.86184]],"type":"LineString"},"properties":{"carrier_key":"socal_coachella","distance_m":20353.778,"layer":"near_edge","station_a":"CI.ELO","station_b":"CI.SNR"},"type":"Feature"},{"geometry":{"coordinates":[[-116.84566,32.89083],[-116.7548,32.70333]],"type":"LineString"},"properties":{"carrier_key":"socal_coachella","distance_m":22459.219,"layer":"near_edge","station_a":"CI.EML","station_b":"CI.LYP"},"type":"Feature"},{"geometry":{"coordinates":[[-116.84566,32.89083],[-116.94241,32.73561]],"type":"LineString"},"properties":{"carrier_key":"socal_coachella","distance_m":19445.232,"layer":"near_edge","station_a":"CI.EML","station_b":"CI.SDR"},"type":"Feature"},{"geometry":{"coordinates":[[-115.82273,33.11652],[-115.977744,33.17349]],"type":"LineString"},"properties":{"carrier_key":"socal_coachella","distance_m":15778.473,"layer":"near_edge","station_a":"CI.ERR","station_b":"CI.PLR"},"type":"Feature"},{"geometry":{"coordinates":[[-115.82273,33.11652],[-115.62257,33.18313]],"type":"LineString"},"properties":{"carrier_key":"socal_coachella","distance_m":20077.581,"layer":"near_edge","station_a":"CI.ERR","station_b":"CI.RXH"},"type":"Feature"},{"geometry":{"coordinates":[[-115.82273,33.11652],[-115.79988,32.94508]],"type":"LineString"},"properties":{"carrier_key":"socal_coachella","distance_m":19128.263,"layer":"near_edge","station_a":"CI.ERR","station_b":"CI.SWS"},"type":"Feature"},{"geometry":{"coordinates":[[-116.93588,34.09355],[-116.64795,34.03852]],"type":"LineString"},"properties":{"carrier_key":"socal_coachella","distance_m":27260.885,"layer":"near_edge","station_a":"CI.FHO","station_b":"CI.MSC"},"type":"Feature"},{"geometry":{"coordinates":[[-116.93588,34.09355],[-116.80778,34.03515]],"type":"LineString"},"properties":{"carrier_key":"socal_coachella","distance_m":13478.231,"layer":"near_edge","station_a":"CI.FHO","station_b":"CI.SNO"},"type":"Feature"},{"geometry":{"coordinates":[[-115.63835,33.40209],[-115.86643,33.48519]],"type":"LineString"},"properties":{"carrier_key":"socal_coachella","distance_m":23118.335,"layer":"near_edge","station_a":"CI.FRK","station_b":"CI.SLB"},"type":"Feature"},{"geometry":{"coordinates":[[-115.63835,33.40209],[-115.57888,33.27884]],"type":"LineString"},"properties":{"carrier_key":"socal_coachella","distance_m":14745.405,"layer":"near_edge","station_a":"CI.FRK","station_b":"CI.WWF"},"type":"Feature"},{"geometry":{"coordinates":[[-115.63889,33.70734],[-115.86643,33.48519]],"type":"LineString"},"properties":{"carrier_key":"socal_coachella","distance_m":32445.113,"layer":"near_edge","station_a":"CI.HAY","station_b":"CI.SLB"},"type":"Feature"},{"geometry":{"coordinates":[[-116.22152,33.79678],[-116.1734,33.92545]],"type":"LineString"},"properties":{"carrier_key":"socal_coachella","distance_m":14945.585,"layer":"near_edge","station_a":"CI.IDO","station_b":"CI.KYV"},"type":"Feature"},{"geometry":{"coordinates":[[-116.22152,33.79678],[-116.36874,33.81841]],"type":"LineString"},"properties":{"carrier_key":"socal_coachella","distance_m":13836.188,"layer":"near_edge","station_a":"CI.IDO","station_b":"CI.MGE"},"type":"Feature"},{"geometry":{"coordinates":[[-116.22152,33.79678],[-116.07734,33.65066]],"type":"LineString"},"properties":{"carrier_key":"socal_coachella","distance_m":20999.035,"layer":"near_edge","station_a":"CI.IDO","station_b":"CI.THM"},"type":"Feature"},{"geometry":{"coordinates":[[-116.71536,33.74642],[-116.92382,33.68708]],"type":"LineString"},"properties":{"carrier_key":"socal_coachella","distance_m":20404.371,"layer":"near_edge","station_a":"CI.IDY","station_b":"CI.POB2"},"type":"Feature"},{"geometry":{"coordinates":[[-116.71536,33.74642],[-116.55026,33.82393]],"type":"LineString"},"properties":{"carrier_key":"socal_coachella","distance_m":17535.43,"layer":"near_edge","station_a":"CI.IDY","station_b":"CI.PSD"},"type":"Feature"},{"geometry":{"coordinates":[[-116.71536,33.74642],[-116.79737,33.83359]],"type":"LineString"},"properties":{"carrier_key":"socal_coachella","distance_m":12290.291,"layer":"near_edge","station_a":"CI.IDY","station_b":"CI.SLR"},"type":"Feature"},{"geometry":{"coordinates":[[-116.10948,32.65012],[-116.01931,32.74755]],"type":"LineString"},"properties":{"carrier_key":"socal_coachella","distance_m":13715.728,"layer":"near_edge","station_a":"CI.IKP","station_b":"CI.OCP"},"type":"Feature"},{"geometry":{"coordinates":[[-116.10948,32.65012],[-116.09718,32.79184]],"type":"LineString"},"properties":{"carrier_key":"socal_coachella","distance_m":15753.988,"layer":"near_edge","station_a":"CI.IKP","station_b":"CI.SWP"},"type":"Feature"},{"geometry":{"coordinates":[[-115.56071,32.90147],[-115.43602,32.86184]],"type":"LineString"},"properties":{"carrier_key":"socal_coachella","distance_m":12466.557,"layer":"near_edge","station_a":"CI.IMP","station_b":"CI.SNR"},"type":"Feature"},{"geometry":{"coordinates":[[-115.56071,32.90147],[-115.79988,32.94508]],"type":"LineString"},"properties":{"carrier_key":"socal_coachella","distance_m":22882.529,"layer":"near_edge","station_a":"CI.IMP","station_b":"CI.SWS"},"type":"Feature"},{"geometry":{"coordinates":[[-116.59755,33.08098],[-116.75876,33.23598]],"type":"LineString"},"properties":{"carrier_key":"socal_coachella","distance_m":22831.37,"layer":"near_edge","station_a":"CI.JEM","station_b":"CI.LKH"},"type":"Feature"},{"geometry":{"coordinates":[[-116.59755,33.08098],[-116.64727,33.19915]],"type":"LineString"},"properties":{"carrier_key":"socal_coachella","distance_m":13897.369,"layer":"near_edge","station_a":"CI.JEM","station_b":"CI.MTG"},"type":"Feature"},{"geometry":{"coordinates":[[-116.59755,33.08098],[-116.41064,32.97181]],"type":"LineString"},"properties":{"carrier_key":"socal_coachella","distance_m":21241.005,"layer":"near_edge","station_a":"CI.JEM","station_b":"CI.VLO"},"type":"Feature"},{"geometry":{"coordinates":[[-116.03785,34.12644],[-116.1734,33.92545]],"type":"LineString"},"properties":{"carrier_key":"socal_coachella","distance_m":25560.72,"layer":"near_edge","station_a":"CI.JTH","station_b":"CI.KYV"},"type":"Feature"},{"geometry":{"coordinates":[[-116.1734,33.92545],[-116.36874,33.81841]],"type":"LineString"},"properties":{"carrier_key":"socal_coachella","distance_m":21616.995,"layer":"near_edge","station_a":"CI.KYV","station_b":"CI.MGE"},"type":"Feature"},{"geometry":{"coordinates":[[-116.75876,33.23598],[-116.64727,33.19915]],"type":"LineString"},"properties":{"carrier_key":"socal_coachella","distance_m":11162.96,"layer":"near_edge","station_a":"CI.LKH","station_b":"CI.MTG"},"type":"Feature"},{"geometry":{"coordinates":[[-116.75876,33.23598],[-116.86265,33.35361]],"type":"LineString"},"properties":{"carrier_key":"socal_coachella","distance_m":16236.706,"layer":"near_edge","station_a":"CI.LKH","station_b":"CI.PLM"},"type":"Feature"},{"geometry":{"coordinates":[[-116.7548,32.70333],[-116.94241,32.73561]],"type":"LineString"},"properties":{"carrier_key":"socal_coachella","distance_m":17941.519,"layer":"near_edge","station_a":"CI.LYP","station_b":"CI.SDR"},"type":"Feature"},{"geometry":{"coordinates":[[-116.36874,33.81841],[-116.37769,33.64785]],"type":"LineString"},"properties":{"carrier_key":"socal_coachella","distance_m":18929.487,"layer":"near_edge","station_a":"CI.MGE","station_b":"CI.PMD"},"type":"Feature"},{"geometry":{"coordinates":[[-116.36874,33.81841],[-116.55026,33.82393]],"type":"LineString"},"properties":{"carrier_key":"socal_coachella","distance_m":16809.691,"layer":"near_edge","station_a":"CI.MGE","station_b":"CI.PSD"},"type":"Feature"},{"geometry":{"coordinates":[[-116.36874,33.81841],[-116.40876,33.94068]],"type":"LineString"},"properties":{"carrier_key":"socal_coachella","distance_m":14053.443,"layer":"near_edge","station_a":"CI.MGE","station_b":"CI.WWC"},"type":"Feature"},{"geometry":{"coordinates":[[-116.64795,34.03852],[-116.80778,34.03515]],"type":"LineString"},"properties":{"carrier_key":"socal_coachella","distance_m":14758.428,"layer":"near_edge","station_a":"CI.MSC","station_b":"CI.SNO"},"type":"Feature"},{"geometry":{"coordinates":[[-115.94586,33.55553],[-115.86643,33.48519]],"type":"LineString"},"properties":{"carrier_key":"socal_coachella","distance_m":10735.663,"layer":"near_edge","station_a":"CI.NSS2","station_b":"CI.SLB"},"type":"Feature"},{"geometry":{"coordinates":[[-115.94586,33.55553],[-116.07734,33.65066]],"type":"LineString"},"properties":{"carrier_key":"socal_coachella","distance_m":16127.281,"layer":"near_edge","station_a":"CI.NSS2","station_b":"CI.THM"},"type":"Feature"},{"geometry":{"coordinates":[[-116.01931,32.74755],[-116.09718,32.79184]],"type":"LineString"},"properties":{"carrier_key":"socal_coachella","distance_m":8792.659,"layer":"near_edge","station_a":"CI.OCP","station_b":"CI.SWP"},"type":"Feature"},{"geometry":{"coordinates":[[-115.977744,33.17349],[-116.25399,33.19269]],"type":"LineString"},"properties":{"carrier_key":"socal_coachella","distance_m":25842.314,"layer":"near_edge","station_a":"CI.PLR","station_b":"CI.SLH"},"type":"Feature"},{"geometry":{"coordinates":[[-115.977744,33.17349],[-115.79988,32.94508]],"type":"LineString"},"properties":{"carrier_key":"socal_coachella","distance_m":30284.248,"layer":"near_edge","station_a":"CI.PLR","station_b":"CI.SWS"},"type":"Feature"},{"geometry":{"coordinates":[[-116.37769,33.64785],[-116.22584,33.57526]],"type":"LineString"},"properties":{"carrier_key":"socal_coachella","distance_m":16224.359,"layer":"near_edge","station_a":"CI.PMD","station_b":"CI.TOR"},"type":"Feature"},{"geometry":{"coordinates":[[-116.92382,33.68708],[-116.79737,33.83359]],"type":"LineString"},"properties":{"carrier_key":"socal_coachella","distance_m":20024.945,"layer":"near_edge","station_a":"CI.POB2","station_b":"CI.SLR"},"type":"Feature"},{"geometry":{"coordinates":[[-116.3096,33.36237],[-116.25399,33.19269]],"type":"LineString"},"properties":{"carrier_key":"socal_coachella","distance_m":19512.425,"layer":"near_edge","station_a":"CI.RCR","station_b":"CI.SLH"},"type":"Feature"},{"geometry":{"coordinates":[[-116.3096,33.36237],[-116.22584,33.57526]],"type":"LineString"},"properties":{"carrier_key":"socal_coachella","distance_m":24854.276,"layer":"near_edge","station_a":"CI.RCR","station_b":"CI.TOR"},"type":"Feature"},{"geometry":{"coordinates":[[-115.62257,33.18313],[-115.57888,33.27884]],"type":"LineString"},"properties":{"carrier_key":"socal_coachella","distance_m":11367.228,"layer":"near_edge","station_a":"CI.RXH","station_b":"CI.WWF"},"type":"Feature"},{"geometry":{"coordinates":[[-116.07734,33.65066],[-116.22584,33.57526]],"type":"LineString"},"properties":{"carrier_key":"socal_coachella","distance_m":16114.877,"layer":"near_edge","station_a":"CI.THM","station_b":"CI.TOR"},"type":"Feature"},{"geometry":{"coordinates":[[37.9703,38.3618],[38.2639,38.7763]],"type":"LineString"},"properties":{"carrier_key":"turkey_kahramanmaras","distance_m":52631.091,"layer":"near_edge","station_a":"KO.AKDG","station_b":"KO.ARGN"},"type":"Feature"},{"geometry":{"coordinates":[[37.9703,38.3618],[37.4832,38.5712]],"type":"LineString"},"properties":{"carrier_key":"turkey_kahramanmaras","distance_m":48438.676,"layer":"near_edge","station_a":"KO.AKDG","station_b":"KO.DARE"},"type":"Feature"},{"geometry":{"coordinates":[[37.9703,38.3618],[38.4407,38.3223]],"type":"LineString"},"properties":{"carrier_key":"turkey_kahramanmaras","distance_m":41342.768,"layer":"near_edge","station_a":"KO.AKDG","station_b":"KO.MLTY"},"type":"Feature"},{"geometry":{"coordinates":[[37.9703,38.3618],[37.4363,37.9693]],"type":"LineString"},"properties":{"carrier_key":"turkey_kahramanmaras","distance_m":63922.472,"layer":"near_edge","station_a":"KO.AKDG","station_b":"KO.NURH"},"type":"Feature"},{"geometry":{"coordinates":[[37.9703,38.3618],[38.8213,37.4409]],"type":"LineString"},"properties":{"carrier_key":"turkey_kahramanmaras","distance_m":126640.455,"layer":"near_edge","station_a":"KO.AKDG","station_b":"KO.URFA"},"type":"Feature"},{"geometry":{"coordinates":[[38.2639,38.7763],[37.4832,38.5712]],"type":"LineString"},"properties":{"carrier_key":"turkey_kahramanmaras","distance_m":71632.15,"layer":"near_edge","station_a":"KO.ARGN","station_b":"KO.DARE"},"type":"Feature"},{"geometry":{"coordinates":[[38.2639,38.7763],[38.7278,38.797]],"type":"LineString"},"properties":{"carrier_key":"turkey_kahramanmaras","distance_m":40356.672,"layer":"near_edge","station_a":"KO.ARGN","station_b":"KO.KBAN"},"type":"Feature"},{"geometry":{"coordinates":[[38.2639,38.7763],[38.4407,38.3223]],"type":"LineString"},"properties":{"carrier_key":"turkey_kahramanmaras","distance_m":52682.08,"layer":"near_edge","station_a":"KO.ARGN","station_b":"KO.MLTY"},"type":"Feature"},{"geometry":{"coordinates":[[35.8472,38.8521],[37.4832,38.5712]],"type":"LineString"},"properties":{"carrier_key":"turkey_kahramanmaras","distance_m":145687.172,"layer":"near_edge","station_a":"KO.BNN","station_b":"KO.DARE"},"type":"Feature"},{"geometry":{"coordinates":[[35.8472,38.8521],[35.8264,37.4795]],"type":"LineString"},"properties":{"carrier_key":"turkey_kahramanmaras","distance_m":152452.184,"layer":"near_edge","station_a":"KO.BNN","station_b":"KO.KOZT"},"type":"Feature"},{"geometry":{"coordinates":[[35.8472,38.8521],[36.4181,38.4072]],"type":"LineString"},"properties":{"carrier_key":"turkey_kahramanmaras","distance_m":70099.812,"layer":"near_edge","station_a":"KO.BNN","station_b":"KO.SARI"},"type":"Feature"},{"geometry":{"coordinates":[[35.7478,37.0105],[35.0547,37.2607]],"type":"LineString"},"properties":{"carrier_key":"turkey_kahramanmaras","distance_m":67612.75,"layer":"near_edge","station_a":"KO.CEYT","station_b":"KO.KARA"},"type":"Feature"},{"geometry":{"coordinates":[[35.7478,37.0105],[35.8264,37.4795]],"type":"LineString"},"properties":{"carrier_key":"turkey_kahramanmaras","distance_m":52547.315,"layer":"near_edge","station_a":"KO.CEYT","station_b":"KO.KOZT"},"type":"Feature"},{"geometry":{"coordinates":[[35.7478,37.0105],[36.1855,36.3755]],"type":"LineString"},"properties":{"carrier_key":"turkey_kahramanmaras","distance_m":80636.517,"layer":"near_edge","station_a":"KO.CEYT","station_b":"KO.TAHT"},"type":"Feature"},{"geometry":{"coordinates":[[37.4832,38.5712],[37.4363,37.9693]],"type":"LineString"},"properties":{"carrier_key":"turkey_kahramanmaras","distance_m":66925.992,"layer":"near_edge","station_a":"KO.DARE","station_b":"KO.NURH"},"type":"Feature"},{"geometry":{"coordinates":[[37.4832,38.5712],[36.4181,38.4072]],"type":"LineString"},"properties":{"carrier_key":"turkey_kahramanmaras","distance_m":94691.604,"layer":"near_edge","station_a":"KO.DARE","station_b":"KO.SARI"},"type":"Feature"},{"geometry":{"coordinates":[[40.1393,37.9532],[38.4407,38.3223]],"type":"LineString"},"properties":{"carrier_key":"turkey_kahramanmaras","distance_m":154386.118,"layer":"near_edge","station_a":"KO.DYBB","station_b":"KO.MLTY"},"type":"Feature"},{"geometry":{"coordinates":[[40.1393,37.9532],[39.306,38.3775]],"type":"LineString"},"properties":{"carrier_key":"turkey_kahramanmaras","distance_m":86865.668,"layer":"near_edge","station_a":"KO.DYBB","station_b":"KO.SVRC"},"type":"Feature"},{"geometry":{"coordinates":[[40.1393,37.9532],[38.8213,37.4409]],"type":"LineString"},"properties":{"carrier_key":"turkey_kahramanmaras","distance_m":129350.97,"layer":"near_edge","station_a":"KO.DYBB","station_b":"KO.URFA"},"type":"Feature"},{"geometry":{"coordinates":[[37.2096,37.1721],[36.9,37.5087]],"type":"LineString"},"properties":{"carrier_key":"turkey_kahramanmaras","distance_m":46347.305,"layer":"near_edge","station_a":"KO.GAZ","station_b":"KO.KMRS"},"type":"Feature"},{"geometry":{"coordinates":[[37.2096,37.1721],[37.4363,37.9693]],"type":"LineString"},"properties":{"carrier_key":"turkey_kahramanmaras","distance_m":90706.341,"layer":"near_edge","station_a":"KO.GAZ","station_b":"KO.NURH"},"type":"Feature"},{"geometry":{"coordinates":[[37.2096,37.1721],[36.1855,36.3755]],"type":"LineString"},"properties":{"carrier_key":"turkey_kahramanmaras","distance_m":127190.144,"layer":"near_edge","station_a":"KO.GAZ","station_b":"KO.TAHT"},"type":"Feature"},{"geometry":{"coordinates":[[35.0547,37.2607],[35.8264,37.4795]],"type":"LineString"},"properties":{"carrier_key":"turkey_kahramanmaras","distance_m":72601.048,"layer":"near_edge","station_a":"KO.KARA","station_b":"KO.KOZT"},"type":"Feature"},{"geometry":{"coordinates":[[35.0547,37.2607],[36.1855,36.3755]],"type":"LineString"},"properties":{"carrier_key":"turkey_kahramanmaras","distance_m":140917.451,"layer":"near_edge","station_a":"KO.KARA","station_b":"KO.TAHT"},"type":"Feature"},{"geometry":{"coordinates":[[38.7278,38.797],[38.4407,38.3223]],"type":"LineString"},"properties":{"carrier_key":"turkey_kahramanmaras","distance_m":58312.482,"layer":"near_edge","station_a":"KO.KBAN","station_b":"KO.MLTY"},"type":"Feature"},{"geometry":{"coordinates":[[38.7278,38.797],[39.306,38.3775]],"type":"LineString"},"properties":{"carrier_key":"turkey_kahramanmaras","distance_m":68575.65,"layer":"near_edge","station_a":"KO.KBAN","station_b":"KO.SVRC"},"type":"Feature"},{"geometry":{"coordinates":[[36.9,37.5087],[35.8264,37.4795]],"type":"LineString"},"properties":{"carrier_key":"turkey_kahramanmaras","distance_m":95022.28,"layer":"near_edge","station_a":"KO.KMRS","station_b":"KO.KOZT"},"type":"Feature"},{"geometry":{"coordinates":[[36.9,37.5087],[37.4363,37.9693]],"type":"LineString"},"properties":{"carrier_key":"turkey_kahramanmaras","distance_m":69622.54,"layer":"near_edge","station_a":"KO.KMRS","station_b":"KO.NURH"},"type":"Feature"},{"geometry":{"coordinates":[[35.8264,37.4795],[36.1855,36.3755]],"type":"LineString"},"properties":{"carrier_key":"turkey_kahramanmaras","distance_m":126686.425,"layer":"near_edge","station_a":"KO.KOZT","station_b":"KO.TAHT"},"type":"Feature"},{"geometry":{"coordinates":[[38.4407,38.3223],[39.306,38.3775]],"type":"LineString"},"properties":{"carrier_key":"turkey_kahramanmaras","distance_m":75856.598,"layer":"near_edge","station_a":"KO.MLTY","station_b":"KO.SVRC"},"type":"Feature"},{"geometry":{"coordinates":[[38.4407,38.3223],[38.8213,37.4409]],"type":"LineString"},"properties":{"carrier_key":"turkey_kahramanmaras","distance_m":103361.252,"layer":"near_edge","station_a":"KO.MLTY","station_b":"KO.URFA"},"type":"Feature"},{"geometry":{"coordinates":[[37.4363,37.9693],[36.4181,38.4072]],"type":"LineString"},"properties":{"carrier_key":"turkey_kahramanmaras","distance_m":101585.907,"layer":"near_edge","station_a":"KO.NURH","station_b":"KO.SARI"},"type":"Feature"},{"geometry":{"coordinates":[[39.306,38.3775],[38.8213,37.4409]],"type":"LineString"},"properties":{"carrier_key":"turkey_kahramanmaras","distance_m":112311.708,"layer":"near_edge","station_a":"KO.SVRC","station_b":"KO.URFA"},"type":"Feature"},{"geometry":{"coordinates":[[[29.5,40.5],[31.0,40.5],[31.0,41.0],[29.5,41.0],[29.5,40.5]]],"type":"Polygon"},"properties":{"carrier_key":"istanbul_marmara","layer":"segment_box","n_members":4,"segment_name":"izmit"},"type":"Feature"},{"geometry":{"coordinates":[[[27.5,40.3],[29.0,40.3],[29.0,40.8],[27.5,40.8],[27.5,40.3]]],"type":"Polygon"},"properties":{"carrier_key":"istanbul_marmara","layer":"segment_box","n_members":4,"segment_name":"marmara_central"},"type":"Feature"},{"geometry":{"coordinates":[[[27.0,40.5],[28.0,40.5],[28.0,41.1],[27.0,41.1],[27.0,40.5]]],"type":"Polygon"},"properties":{"carrier_key":"istanbul_marmara","layer":"segment_box","n_members":4,"segment_name":"marmara_west"},"type":"Feature"},{"geometry":{"coordinates":[[[-116.0,32.8],[-115.2,32.8],[-115.2,33.6],[-116.0,33.6],[-116.0,32.8]]],"type":"Polygon"},"properties":{"carrier_key":"socal_coachella","layer":"segment_box","n_members":4,"segment_name":"brawley_seismic_zone"},"type":"Feature"},{"geometry":{"coordinates":[[[-116.7,33.6],[-116.3,33.6],[-116.3,34.0],[-116.7,34.0],[-116.7,33.6]]],"type":"Polygon"},"properties":{"carrier_key":"socal_coachella","layer":"segment_box","n_members":4,"segment_name":"coachella_north"},"type":"Feature"},{"geometry":{"coordinates":[[[-116.8,33.0],[-116.2,33.0],[-116.2,33.6],[-116.8,33.6],[-116.8,33.0]]],"type":"Polygon"},"properties":{"carrier_key":"socal_coachella","layer":"segment_box","n_members":4,"segment_name":"coachella_south"},"type":"Feature"},{"geometry":{"coordinates":[[[35.5,37.0],[38.0,37.0],[38.0,38.0],[35.5,38.0],[35.5,37.0]]],"type":"Polygon"},"properties":{"carrier_key":"turkey_kahramanmaras","layer":"segment_box","n_members":4,"segment_name":"east_anatolian_central"},"type":"Feature"},{"geometry":{"coordinates":[[[37.0,38.0],[40.0,38.0],[40.0,39.0],[37.0,39.0],[37.0,38.0]]],"type":"Polygon"},"properties":{"carrier_key":"turkey_kahramanmaras","layer":"segment_box","n_members":4,"segment_name":"east_anatolian_north"},"type":"Feature"},{"geometry":{"coordinates":[[[35.0,36.0],[38.0,36.0],[38.0,37.2],[35.0,37.2],[35.0,36.0]]],"type":"Polygon"},"properties":{"carrier_key":"turkey_kahramanmaras","layer":"segment_box","n_members":3,"segment_name":"east_anatolian_south"},"type":"Feature"},{"geometry":{"coordinates":[[[27.0,40.5],[28.0,40.5],[28.0,41.1],[27.0,41.1],[27.0,40.5]]],"type":"Polygon"},"properties":{"carrier_key":"istanbul_marmara","dip":88,"layer":"fault_polygon","name":"marmara_west","rake":180,"region":"istanbul_marmara","strike":265},"type":"Feature"},{"geometry":{"coordinates":[[[27.5,40.3],[29.0,40.3],[29.0,40.8],[27.5,40.8],[27.5,40.3]]],"type":"Polygon"},"properties":{"carrier_key":"istanbul_marmara","dip":85,"layer":"fault_polygon","name":"marmara_central","rake":180,"region":"istanbul_marmara","strike":270},"type":"Feature"},{"geometry":{"coordinates":[[[29.5,40.5],[31.0,40.5],[31.0,41.0],[29.5,41.0],[29.5,40.5]]],"type":"Polygon"},"properties":{"carrier_key":"istanbul_marmara","dip":90,"layer":"fault_polygon","name":"izmit","rake":180,"region":"istanbul_marmara","strike":275},"type":"Feature"},{"geometry":{"coordinates":[[[-116.7,33.6],[-116.3,33.6],[-116.3,34.0],[-116.7,34.0],[-116.7,33.6]]],"type":"Polygon"},"properties":{"carrier_key":"socal_coachella","dip":70,"layer":"fault_polygon","name":"coachella_north","rake":160,"region":"socal_coachella","strike":310},"type":"Feature"},{"geometry":{"coordinates":[[[-116.8,33.0],[-116.2,33.0],[-116.2,33.6],[-116.8,33.6],[-116.8,33.0]]],"type":"Polygon"},"properties":{"carrier_key":"socal_coachella","dip":65,"layer":"fault_polygon","name":"coachella_south","rake":155,"region":"socal_coachella","strike":305},"type":"Feature"},{"geometry":{"coordinates":[[[-116.0,32.8],[-115.2,32.8],[-115.2,33.6],[-116.0,33.6],[-116.0,32.8]]],"type":"Polygon"},"properties":{"carrier_key":"socal_coachella","dip":85,"layer":"fault_polygon","name":"brawley_seismic_zone","rake":180,"region":"socal_coachella","strike":320},"type":"Feature"},{"geometry":{"coordinates":[[[37.0,38.0],[40.0,38.0],[40.0,39.0],[37.0,39.0],[37.0,38.0]]],"type":"Polygon"},"properties":{"carrier_key":"turkey_kahramanmaras","dip":85,"layer":"fault_polygon","name":"east_anatolian_north","rake":180,"region":"turkey_kahramanmaras","strike":65},"type":"Feature"},{"geometry":{"coordinates":[[[35.5,37.0],[38.0,37.0],[38.0,38.0],[35.5,38.0],[35.5,37.0]]],"type":"Polygon"},"properties":{"carrier_key":"turkey_kahramanmaras","dip":85,"layer":"fault_polygon","name":"east_anatolian_central","rake":180,"region":"turkey_kahramanmaras","strike":60},"type":"Feature"},{"geometry":{"coordinates":[[[35.0,36.0],[38.0,36.0],[38.0,37.2],[35.0,37.2],[35.0,36.0]]],"type":"Polygon"},"properties":{"carrier_key":"turkey_kahramanmaras","dip":80,"layer":"fault_polygon","name":"east_anatolian_south","rake":175,"region":"turkey_kahramanmaras","strike":55},"type":"Feature"}],"name":"geo2graph_geometry_v1","type":"FeatureCollection"}
