{"type":"FeatureCollection","metadata":{"generated":1788055936000,"url":"https://earthquake.usgs.gov/fdsnws/event/1/query?format=geojson&starttime=2025-10-11T00%3A00%3A00&endtime=2026-08-28T00%3A00%3A00&minmagnitude=4.0&minlatitude=60.0&maxlatitude=62.0&minlongitude=-151.0&maxlongitude=-148.0&orderby=time-asc&limit=20000","title":"USGS Earthquakes","status":200,"api":"2.7.0","limit":20000,"offset":1},"features":[{"type":"Feature","properties":{"mag":4.2,"place":"30 km ESE of Kasilof, Alaska","time":1760323950772,"updated":1782578554664,"tz":null,"url":"https://earthquake.usgs.gov/earthquakes/eventpage/ak025d517bzx","detail":"https://earthquake.usgs.gov/fdsnws/event/1/query?eventid=ak025d517bzx&format=geojson","felt":62,"cdi":3.8,"mmi":2.991,"alert":"green","status":"reviewed","tsunami":0,"sig":295,"net":"ak","code":"025d517bzx","ids":",us6000rgt7,ak025d517bzx,","sources":",us,ak,","types":",dyfi,losspager,moment-tensor,origin,phase-data,shakemap,","nst":null,"dmin":null,"rms":0.67,"gap":null,"magType":"ml","type":"earthquake","title":"M 4.2 - 30 km ESE of Kasilof, Alaska"},"geometry":{"type":"Point","coordinates":[-150.7827,60.2202,45.9]},"id":"ak025d517bzx"},
{"type":"Feature","properties":{"mag":6,"place":"12 km WNW of Susitna, Alaska","time":1764263489059,"updated":1787851303789,"tz":null,"url":"https://earthquake.usgs.gov/earthquakes/eventpage/ak2025xjbvhj","detail":"https://earthquake.usgs.gov/fdsnws/event/1/query?eventid=ak2025xjbvhj&format=geojson","felt":7198,"cdi":5.8,"mmi":5.933,"alert":"green","status":"reviewed","tsunami":1,"sig":1134,"net":"ak","code":"2025xjbvhj","ids":",ak2025xjbvhj,us7000re77,at00t6eaf3,usauto7000re77,","sources":",ak,us,at,usauto,","types":",dyfi,event-sequence,ground-failure,impact-link,internal-moment-tensor,losspager,moment-tensor,oaf,origin,phase-data,shakemap,","nst":225,"dmin":0.4702050685882568,"rms":1.1860668337291744,"gap":13.68206787109375,"magType":"mww","type":"earthquake","title":"M 6.0 - 12 km WNW of Susitna, Alaska"},"geometry":{"type":"Point","coordinates":[-150.75079345703125,61.56951904296875,69.43339538574219]},"id":"ak2025xjbvhj"},
{"type":"Feature","properties":{"mag":4.1,"place":"34 km ESE of Skwentna, Alaska","time":1768704301419,"updated":1781812113890,"tz":null,"url":"https://earthquake.usgs.gov/earthquakes/eventpage/ak2026bfkveq","detail":"https://earthquake.usgs.gov/fdsnws/event/1/query?eventid=ak2026bfkveq&format=geojson","felt":95,"cdi":3.4,"mmi":3.052,"alert":"green","status":"reviewed","tsunami":0,"sig":291,"net":"ak","code":"2026bfkveq","ids":",ak2026bfkveq,us7000rqdb,","sources":",ak,us,","types":",dyfi,losspager,moment-tensor,origin,phase-data,shakemap,","nst":204,"dmin":0.4,"rms":1.1,"gap":13,"magType":"ml","type":"earthquake","title":"M 4.1 - 34 km ESE of Skwentna, Alaska"},"geometry":{"type":"Point","coordinates":[-150.77,61.907,67.9]},"id":"ak2026bfkveq"},
{"type":"Feature","properties":{"mag":4.6,"place":"8 km NNW of Meadow Lakes, Alaska","time":1770756142931,"updated":1777646150040,"tz":null,"url":"https://earthquake.usgs.gov/earthquakes/eventpage/ak2026cxafty","detail":"https://earthquake.usgs.gov/fdsnws/event/1/query?eventid=ak2026cxafty&format=geojson","felt":740,"cdi":4.1,"mmi":3.648,"alert":"green","status":"reviewed","tsunami":1,"sig":629,"net":"ak","code":"2026cxafty","ids":",ak2026cxafty,at00ta9g6l,us6000s7p5,","sources":",ak,at,us,","types":",dyfi,impact-link,losspager,moment-tensor,origin,phase-data,shakemap,","nst":200,"dmin":0.2,"rms":1.2,"gap":23,"magType":"ml","type":"earthquake","title":"M 4.6 - 8 km NNW of Meadow Lakes, Alaska"},"geometry":{"type":"Point","coordinates":[-149.633,61.697,30]},"id":"ak2026cxafty"},
{"type":"Feature","properties":{"mag":4,"place":"33 km S of Funny River, Alaska","time":1772811061739,"updated":1779487117040,"tz":null,"url":"https://earthquake.usgs.gov/earthquakes/eventpage/aka2026eorilw","detail":"https://earthquake.usgs.gov/fdsnws/event/1/query?eventid=aka2026eorilw&format=geojson","felt":36,"cdi":3.4,"mmi":3.142,"alert":"green","status":"reviewed","tsunami":0,"sig":258,"net":"ak","code":"a2026eorilw","ids":",aka2026eorilw,us7000s2im,","sources":",ak,us,","types":",dyfi,losspager,origin,phase-data,shakemap,","nst":178,"dmin":0.4,"rms":0.9,"gap":75,"magType":"ml","type":"earthquake","title":"M 4.0 - 33 km S of Funny River, Alaska"},"geometry":{"type":"Point","coordinates":[-150.733,60.202,51.5]},"id":"aka2026eorilw"},
{"type":"Feature","properties":{"mag":4.2,"place":"27 km WNW of Hope, Alaska","time":1782537952321,"updated":1784638428021,"tz":null,"url":"https://earthquake.usgs.gov/earthquakes/eventpage/aka2026mpitdk","detail":"https://earthquake.usgs.gov/fdsnws/event/1/query?eventid=aka2026mpitdk&format=geojson","felt":983,"cdi":4.1,"mmi":3.609,"alert":"green","status":"reviewed","tsunami":0,"sig":674,"net":"ak","code":"a2026mpitdk","ids":",aka2026mpitdk,us6000t8lq,atth9z34,","sources":",ak,us,at,","types":",dyfi,losspager,moment-tensor,origin,phase-data,shakemap,","nst":208,"dmin":0.2,"rms":0.9,"gap":35,"magType":"ml","type":"earthquake","title":"M 4.2 - 27 km WNW of Hope, Alaska"},"geometry":{"type":"Point","coordinates":[-150.125,60.989,47.9]},"id":"aka2026mpitdk"}],"bbox":[-150.7827,60.202,30,-149.633,61.907,69.433395385742]}